{"type":"FeatureCollection","features":[{"type":"Feature","id":"way/1001688829","properties":{"osm_id":"1001688829","class":"green"},"geometry":{"type":"Polygon","coordinates":[[[115.9225785,39.0627686],[115.9239307,39.0627475],[115.923977,39.0648111],[115.926276,39.0648088],[115.9262795,39.0628052],[115.9263852,39.0628198],[115.9263783,39.0624992],[115.9263767,39.0624688],[115.9263446,39.0621687],[115.9263446,39.0620385],[115.9263395,39.0620027],[115.9263303,39.0619856],[115.9263076,39.0619678],[115.9262859,39.0619572],[115.9262588,39.061949],[115.9262332,39.0619431],[115.9261974,39.06194],[115.9258311,39.061937],[115.9258066,39.060203],[115.9258555,39.0595675],[115.9261161,39.058607],[115.9263381,39.0586183],[115.9269426,39.0578336],[115.9277762,39.0578372],[115.9283751,39.0577853],[115.9288035,39.057837],[115.9300572,39.0578402],[115.9314525,39.0580982],[115.9332963,39.058111],[115.9334532,39.0580826],[115.9335249,39.058064],[115.9337739,39.0580207],[115.9357916,39.0578046],[115.9386695,39.0575688],[115.9412041,39.0575753],[115.9451929,39.0565682],[115.9477397,39.0559251],[115.9494688,39.0557913],[115.9494116,39.0547035],[115.949062,39.0546085],[115.9434982,39.0561299],[115.9412755,39.0561567],[115.9356582,39.0561141],[115.9311173,39.0550372],[115.9294208,39.0546286],[115.9285808,39.0545687],[115.9285156,39.0547811],[115.9278499,39.0547714],[115.9276843,39.0542959],[115.9266156,39.0543231],[115.9263949,39.0543526],[115.9262206,39.0533529],[115.9260069,39.0528712],[115.925907,39.0527821],[115.9231334,39.0527604],[115.9201021,39.0595314],[115.9217371,39.0601344],[115.9226227,39.0615626],[115.9225785,39.0627686]]]}},{"type":"Feature","id":"way/1182162630","properties":{"osm_id":"1182162630","class":"green"},"geometry":{"type":"Polygon","coordinates":[[[115.9295286,39.0545961],[115.9307917,39.0549132],[115.9307584,39.0509719],[115.9341664,39.0510342],[115.9341983,39.0494538],[115.9357996,39.0494637],[115.9357996,39.0471798],[115.9331649,39.0472689],[115.9327124,39.0473572],[115.9332608,39.048068],[115.933232,39.0499886],[115.9296213,39.0499605],[115.9295286,39.0545961]]]}},{"type":"Feature","id":"way/1190073614","properties":{"osm_id":"1190073614","class":"green"},"geometry":{"type":"Polygon","coordinates":[[[115.9407145,39.0749594],[115.9410579,39.074343],[115.9416372,39.0741764],[115.9424311,39.07371],[115.9444696,39.0710613],[115.9450919,39.0708447],[115.9494907,39.0708281],[115.9494263,39.0698618],[115.9497911,39.0473349],[115.9515706,39.0476951],[115.9531824,39.0483272],[115.95496,39.0491948],[115.9555999,39.0509977],[115.9556705,39.0522841],[115.9551492,39.0581983],[115.9541685,39.0631811],[115.95316,39.0679127],[115.9514434,39.0728771],[115.9429461,39.0747262],[115.9407145,39.0749594]]]}},{"type":"Feature","id":"way/1238887099","properties":{"osm_id":"1238887099","class":"green"},"geometry":{"type":"Polygon","coordinates":[[[115.9364293,39.0628151],[115.9362167,39.0628076],[115.9361082,39.0627133],[115.9360892,39.0624336],[115.9365098,39.0625469],[115.9364293,39.0628151]]]}}],"metadata":{"source":"OpenStreetMap closed ways","bounds":[115.9356888675667,39.054520068081,115.9519468889794,39.067144053653585],"kind":"green","featureCount":4,"intersectionId":"demo_16","radiusMeters":700,"fallback":"Baidu vector base map"}}
