{"type":"FeatureCollection","features":[{"type":"Feature","id":"way/1415503582","properties":{"osm_id":"1415503582","class":"water"},"geometry":{"type":"Polygon","coordinates":[[[115.9300593,39.0559336],[115.9300782,39.0557514],[115.9301931,39.0557617],[115.9302578,39.0559169],[115.9302613,39.0560447],[115.9304491,39.0563418],[115.9305278,39.0565445],[115.9305778,39.0565876],[115.9307084,39.0566237],[115.9308246,39.0566653],[115.9309694,39.0567764],[115.9310177,39.0568792],[115.931463,39.0569833],[115.931581,39.0570083],[115.931876,39.0570305],[115.9321621,39.0569916],[115.9324643,39.0568528],[115.9326199,39.0567958],[115.9327683,39.0567903],[115.9328434,39.0567945],[115.9328434,39.056825],[115.9331027,39.0568361],[115.9331045,39.0567917],[115.9334263,39.056832],[115.9337876,39.0568847],[115.9340039,39.0568347],[115.9344688,39.0568458],[115.9349463,39.056825],[115.9351483,39.05685],[115.9352145,39.056893],[115.9352449,39.0570166],[115.9354201,39.0571569],[115.9354899,39.0572013],[115.9355846,39.0571916],[115.9356419,39.0571346],[115.9357348,39.0570486],[115.9362015,39.0570555],[115.9364412,39.0569958],[115.9365252,39.0569222],[115.9365306,39.056832],[115.9365216,39.0567722],[115.9366504,39.0567195],[115.9367362,39.056675],[115.93689,39.0567111],[115.9369776,39.0567459],[115.9370974,39.0567445],[115.9371099,39.0567236],[115.9373638,39.0566737],[115.937582,39.0566778],[115.9377912,39.0566709],[115.9379593,39.0567042],[115.9381005,39.0567514],[115.9383974,39.0567792],[115.9384135,39.05675],[115.9387532,39.0567806],[115.9389267,39.0568195],[115.9391198,39.0568],[115.9394899,39.0567042],[115.9397027,39.056632],[115.9398726,39.0566028],[115.9400621,39.0566209],[115.9401426,39.0565848],[115.9402374,39.0565667],[115.9403339,39.0565723],[115.9404466,39.0566334],[115.9405574,39.0566834],[115.94062,39.0566834],[115.9406594,39.0566709],[115.9406647,39.0567056],[115.9407881,39.0567334],[115.9408811,39.0567278],[115.9412441,39.0567806],[115.9413657,39.0567834],[115.9419576,39.0568569],[115.9421882,39.0568361],[115.9423742,39.0567625],[115.9424504,39.0568817],[115.9422776,39.0570486],[115.9421435,39.0569764],[115.9419772,39.0569611],[115.9413943,39.0570763],[115.9413353,39.0571083],[115.9413246,39.0571694],[115.9412906,39.0571721],[115.9412834,39.057118],[115.9411297,39.0571319],[115.9409365,39.0570847],[115.9408221,39.0570902],[115.9405753,39.0569958],[115.9405557,39.0569694],[115.9404841,39.0569819],[115.9403625,39.056943],[115.9403178,39.0568986],[115.9403214,39.0568417],[115.9402123,39.0568167],[115.9401641,39.0568014],[115.9400621,39.0568347],[115.9400049,39.0568764],[115.9398851,39.0569416],[115.939574,39.0570014],[115.9395471,39.0569819],[115.9392378,39.0570458],[115.9392199,39.0570652],[115.9391126,39.0570597],[115.9390018,39.0569833],[115.9388694,39.057],[115.9387961,39.0570194],[115.9384653,39.0570263],[115.9383205,39.0570333],[115.9380326,39.0570791],[115.9378091,39.0570486],[115.9377697,39.0570069],[115.9376911,39.0570014],[115.9375695,39.0569819],[115.9374443,39.0569847],[115.9372565,39.0569389],[115.9371475,39.0569541],[115.9368953,39.0569791],[115.9367326,39.0570291],[115.9365967,39.0570569],[115.9363947,39.0571624],[115.9361783,39.0572888],[115.9357491,39.057361],[115.9354309,39.0572749],[115.9352342,39.0571957],[115.9350303,39.0571319],[115.9347496,39.0571152],[115.9346065,39.0570874],[115.9343222,39.0570125],[115.9341684,39.0570236],[115.9341362,39.0571097],[115.9340576,39.0571721],[115.933834,39.0571694],[115.9333656,39.0571235],[115.9329775,39.0572596],[115.9328398,39.0572596],[115.9323088,39.0571721],[115.9320477,39.0572041],[115.9318081,39.0572263],[115.9315703,39.0572471],[115.93115,39.0571444],[115.9307477,39.0569458],[115.9305206,39.0569069],[115.9303811,39.0566294],[115.9303221,39.0564779],[115.9302667,39.0562974],[115.9301415,39.056146],[115.9300593,39.0559336]]]}}],"metadata":{"source":"OpenStreetMap closed ways","bounds":[115.9356888675667,39.054520068081,115.9519468889794,39.067144053653585],"kind":"water","featureCount":1,"intersectionId":"demo_16","radiusMeters":700,"fallback":"Baidu vector base map"}}
