{"type":"FeatureCollection","features":[{"type":"Feature","id":"way/1309408860","properties":{"osm_id":"1309408860","class":"green"},"geometry":{"type":"Polygon","coordinates":[[[115.8404232,39.0555096],[115.8404052,39.0549632],[115.8394075,39.0544844],[115.8378637,39.0539197],[115.8374554,39.0534639],[115.8374609,39.0530564],[115.8356553,39.0530328],[115.833866,39.0499592],[115.8337505,39.0492852],[115.8337339,39.0464708],[115.8327996,39.0467745],[115.8319181,39.044449],[115.8304473,39.0447901],[115.832324,39.0492808],[115.8323865,39.0530628],[115.828989,39.0530261],[115.8270386,39.0532029],[115.8238371,39.0540277],[115.8208329,39.0540394],[115.8176466,39.0531793],[115.8164631,39.0560307],[115.8177832,39.0558893],[115.8216067,39.0559246],[115.8231543,39.0561956],[115.8249751,39.0562781],[115.8270841,39.0559482],[115.8277062,39.0561249],[115.8281873,39.0573031],[115.8282025,39.0575977],[115.8300081,39.0575977],[115.8300081,39.0568083],[115.8298108,39.0562427],[115.833604,39.0548407],[115.8377987,39.054876],[115.8404232,39.0555096]]]}}],"metadata":{"source":"OpenStreetMap closed ways","bounds":[115.83271770934826,39.05488798989697,115.84897581548691,39.06751197546956],"kind":"green","featureCount":1,"intersectionId":"demo_12","radiusMeters":700,"fallback":"Baidu vector base map"}}
