{"type":"FeatureCollection","features":[{"type":"Feature","id":"way/916884508","properties":{"osm_id":"916884508","class":"green"},"geometry":{"type":"Polygon","coordinates":[[[115.9043507,39.0548681],[115.9044421,39.0456339],[115.8975864,39.0443444],[115.8976189,39.0549128],[115.9043507,39.0548681]]]}},{"type":"Feature","id":"way/917242901","properties":{"osm_id":"917242901","class":"green"},"geometry":{"type":"Polygon","coordinates":[[[115.9042611,39.0698524],[115.9043451,39.0706788],[115.9044516,39.071726],[115.8986218,39.0706349],[115.8984872,39.0703222],[115.8984661,39.0700626],[115.8977365,39.0688465],[115.8977365,39.0636152],[115.9042666,39.0656753],[115.904343,39.0675883],[115.9048176,39.0682134],[115.9042611,39.0698524]]]}},{"type":"Feature","id":"way/1001688831","properties":{"osm_id":"1001688831","class":"green"},"geometry":{"type":"Polygon","coordinates":[[[115.9195029,39.059406],[115.9118227,39.0570116],[115.9122518,39.0562385],[115.9199522,39.0585729],[115.9195029,39.059406]]]}},{"type":"Feature","id":"way/1001688832","properties":{"osm_id":"1001688832","class":"green"},"geometry":{"type":"Polygon","coordinates":[[[115.9046779,39.0552651],[115.8973825,39.0552614],[115.8946275,39.0555233],[115.8946274,39.0572662],[115.8866923,39.0571865],[115.8866971,39.059335],[115.8917393,39.0593156],[115.8938079,39.0597868],[115.8938378,39.060122],[115.8961209,39.0606685],[115.8960676,39.0624215],[115.9024132,39.064522],[115.9024353,39.0642878],[115.9022616,39.0640324],[115.9019974,39.0638047],[115.9017438,39.0634673],[115.9011644,39.0631758],[115.9009311,39.0628717],[115.9008935,39.0624781],[115.9006414,39.0621199],[115.900239,39.0618137],[115.8999852,39.0614381],[115.8999896,39.060862],[115.9004161,39.0603246],[115.900467,39.0598831],[115.9003597,39.0594124],[115.8999594,39.0589374],[115.8996785,39.0582752],[115.8995926,39.0579128],[115.8996248,39.0575004],[115.8997107,39.0571589],[115.8997375,39.0569277],[115.8998018,39.0566777],[115.8999011,39.0565549],[115.900172,39.0564299],[115.9004697,39.0562279],[115.9007111,39.0561341],[115.9010062,39.056157],[115.9012422,39.0560987],[115.9016164,39.0559894],[115.9021193,39.0559946],[115.9025618,39.0560633],[115.9031634,39.0560019],[115.9037232,39.0558738],[115.9041551,39.0557092],[115.9045944,39.055511],[115.9046701,39.0553906],[115.9046779,39.0552651]]]}},{"type":"Feature","id":"way/1458279884","properties":{"osm_id":"1458279884","class":"green"},"geometry":{"type":"Polygon","coordinates":[[[115.9055211,39.0617397],[115.9061401,39.0617371],[115.9061762,39.0617274],[115.9061877,39.0617129],[115.9062006,39.06169],[115.9061992,39.0613108],[115.9061916,39.0612933],[115.9061624,39.061273],[115.906121,39.0612674],[115.9055253,39.0612691],[115.9055029,39.0612798],[115.9054883,39.0612966],[115.9054831,39.0613176],[115.9054841,39.0616871],[115.9054845,39.0617049],[115.9054938,39.0617201],[115.9055211,39.0617397]]]}}],"metadata":{"source":"OpenStreetMap closed ways","bounds":[115.90189349694752,39.05390488560329,115.91815137669799,39.066528871175876],"kind":"green","featureCount":5,"intersectionId":"demo_17","radiusMeters":700,"fallback":"Baidu vector base map"}}
