{"type":"FeatureCollection","features":[{"type":"Feature","id":"way/1154819228","properties":{"osm_id":"1154819228","class":"water"},"geometry":{"type":"Polygon","coordinates":[[[115.9244288,39.0647148],[115.9243952,39.0643822],[115.9244115,39.0642627],[115.9245027,39.0641531],[115.9246636,39.063967],[115.9247884,39.0637872],[115.9248287,39.0635675],[115.9247144,39.0633683],[115.9246037,39.0631924],[115.9245195,39.0631126],[115.9244565,39.0630296],[115.9244281,39.0628858],[115.9244857,39.0627482],[115.9244638,39.0626344],[115.9243065,39.0625213],[115.9241607,39.0623986],[115.9240916,39.0622873],[115.9239571,39.0620602],[115.9238732,39.0619497],[115.9237708,39.0618213],[115.9236399,39.0616395],[115.923605,39.0614121],[115.92368,39.0613306],[115.9237901,39.0612612],[115.9239819,39.0610658],[115.9240423,39.0609182],[115.9239983,39.0607396],[115.9238338,39.0605303],[115.9236552,39.0603714],[115.9234581,39.0603202],[115.9232491,39.0603112],[115.9231308,39.0602339],[115.9230242,39.0601193],[115.9229741,39.0600343],[115.9227722,39.05992],[115.9225179,39.0598989],[115.9223948,39.0598301],[115.9222573,39.0597212],[115.9219758,39.0597016],[115.9218171,39.0596757],[115.9216178,39.0596393],[115.9215051,39.0595869],[115.921347,39.0595881],[115.9210959,39.0595167],[115.920892,39.0594507],[115.9206631,39.0594197],[115.9204313,39.0593801],[115.9202846,39.0593431],[115.9201339,39.0592779],[115.9200042,39.0591322],[115.9197617,39.0590016],[115.9195852,39.059003],[115.9194388,39.0590121],[115.919226,39.0589654],[115.9189273,39.0588386],[115.9186296,39.0587148],[115.9185168,39.0586529],[115.9177652,39.0584078],[115.9175761,39.0584815],[115.916949,39.0582943],[115.9169228,39.0582464],[115.9167361,39.0581951],[115.9167305,39.0581536],[115.9165488,39.0580886],[115.9165153,39.0581433],[115.916415,39.0581035],[115.9163837,39.0580466],[115.9159501,39.0579098],[115.9158183,39.0579546],[115.915418,39.0578252],[115.915418,39.0577498],[115.9148106,39.0575659],[115.9148106,39.0575304],[115.914558,39.0574554],[115.9144701,39.0574855],[115.9138056,39.0572612],[115.9137592,39.0572806],[115.9136289,39.057234],[115.9134597,39.0571413],[115.9133596,39.0571089],[115.9132682,39.0570376],[115.9130813,39.0570048],[115.9127815,39.0569188],[115.9125978,39.0569265],[115.9124774,39.0569191],[115.9123186,39.0568479],[115.91219,39.0568047],[115.9121172,39.0567628],[115.912058,39.0567398],[115.9120297,39.0566728],[115.9122354,39.0563459],[115.9123405,39.0563407],[115.9126343,39.0564671],[115.9128872,39.0565138],[115.9130736,39.0565816],[115.9132398,39.0566052],[115.9134097,39.0565512],[115.9135219,39.0564505],[115.9135509,39.056402],[115.9138414,39.0564921],[115.913791,39.0565873],[115.913758,39.0566536],[115.9137606,39.0567973],[115.9138118,39.0569323],[115.9141001,39.0570241],[115.9141609,39.0570298],[115.9145604,39.0571563],[115.9146805,39.0571563],[115.9147935,39.0571441],[115.9151962,39.0572622],[115.9156333,39.0574225],[115.9158638,39.0575284],[115.9161901,39.0576896],[115.9164714,39.0577617],[115.9166075,39.0577961],[115.9167838,39.0578415],[115.9168831,39.0579255],[115.9170394,39.0578937],[115.9172642,39.0579761],[115.9174317,39.058014],[115.9175199,39.058014],[115.9176079,39.0580678],[115.9177423,39.0581193],[115.9184244,39.05836],[115.9186606,39.0583669],[115.9188127,39.0583812],[115.9192461,39.0584923],[115.9196511,39.05869],[115.9197984,39.0587958],[115.9200993,39.0589049],[115.920484,39.0589161],[115.920772,39.0588933],[115.9209356,39.0589269],[115.9210933,39.0590756],[115.9212236,39.0592211],[115.9214358,39.0594006],[115.9216389,39.0594508],[115.9219153,39.0594066],[115.9222607,39.0592917],[115.922368,39.0591599],[115.922488,39.0591083],[115.9226207,39.0589399],[115.9225889,39.0588396],[115.9226457,39.0586782],[115.9227553,39.0585988],[115.9228171,39.058384],[115.922694,39.0582698],[115.9224756,39.0582419],[115.9223505,39.0581165],[115.9223373,39.0579965],[115.9223843,39.0578655],[115.9226292,39.0576698],[115.9228492,39.0575436],[115.9229227,39.0574186],[115.9229631,39.0572104],[115.9229023,39.0570799],[115.9228076,39.0570941],[115.9227648,39.0572039],[115.9226918,39.0571995],[115.922615,39.0570929],[115.9225683,39.0569439],[115.9224074,39.0567582],[115.9222933,39.0565109],[115.9222933,39.0563031],[115.9223225,39.0561516],[115.9223899,39.056038],[115.9225016,39.0559521],[115.922697,39.0559034],[115.9228308,39.0558972],[115.9229205,39.0558479],[115.922929,39.0556513],[115.9230321,39.0555247],[115.923161,39.0555232],[115.9232626,39.0555858],[115.9232794,39.0556858],[115.9232643,39.0557569],[115.9232412,39.0558327],[115.9232546,39.0559073],[115.9233356,39.0559212],[115.9234555,39.0558319],[115.9235497,39.0556813],[115.923697,39.0556537],[115.9238594,39.0556484],[115.923876,39.055536],[115.9238051,39.0554405],[115.9238039,39.0552671],[115.9239945,39.0550836],[115.924356,39.0549772],[115.9246966,39.0549713],[115.9249313,39.0550424],[115.9251972,39.0551715],[115.9252564,39.0553229],[115.9252521,39.0554757],[115.9251246,39.0556106],[115.925029,39.0556951],[115.9250395,39.0557944],[115.9251604,39.0557716],[115.9253513,39.0557064],[115.9257027,39.0555883],[115.9258821,39.0555998],[115.926035,39.0557016],[115.9261064,39.0559224],[115.9262451,39.0560767],[115.9264239,39.0561436],[115.9266476,39.0561843],[115.9267781,39.0563224],[115.9269774,39.0563655],[115.9270873,39.0563453],[115.9274285,39.0564013],[115.9276506,39.0563744],[115.9279433,39.0562712],[115.9283063,39.0562712],[115.9288058,39.0560862],[115.928935,39.0560924],[115.9289512,39.0561306],[115.928966,39.0561656],[115.9289391,39.0562123],[115.9289838,39.0563247],[115.9290394,39.0563549],[115.9290112,39.0563651],[115.9289692,39.0563802],[115.9288112,39.0564351],[115.928704,39.0563943],[115.9285498,39.0564228],[115.9283707,39.0565185],[115.9283158,39.0565735],[115.9283433,39.0566542],[115.9284102,39.0566827],[115.92835,39.0568469],[115.9282717,39.0569374],[115.9280901,39.0569933],[115.9279759,39.0570083],[115.9278786,39.0570155],[115.9276505,39.0570561],[115.9275567,39.0570529],[115.9274674,39.0569953],[115.9272675,39.056952],[115.927147,39.056933],[115.9270337,39.0568945],[115.9268775,39.0568893],[115.9267229,39.0567943],[115.9266403,39.056736],[115.9263783,39.056703],[115.92605,39.0567094],[115.9259572,39.0567398],[115.9259627,39.0568525],[115.9259936,39.0569175],[115.9258925,39.0570138],[115.9257507,39.0569895],[115.9255068,39.056952],[115.9253997,39.0569986],[115.925324,39.0571254],[115.9252933,39.0572506],[115.9253787,39.0573144],[115.9256151,39.0574289],[115.9257779,39.0574365],[115.9258995,39.0573745],[115.9259728,39.0573018],[115.9260538,39.0573881],[115.9260704,39.0574596],[115.9260179,39.0575902],[115.9257897,39.0577658],[115.9254474,39.0578751],[115.9252606,39.0578692],[115.9250337,39.0578464],[115.9248061,39.057707],[115.9247998,39.0576421],[115.9245165,39.057599],[115.9243485,39.057621],[115.9241927,39.0576547],[115.9242211,39.0577371],[115.924005,39.0578164],[115.9239232,39.0578399],[115.9238145,39.0578711],[115.9236326,39.0578976],[115.9234743,39.0578799],[115.9232928,39.0578799],[115.9232171,39.0579024],[115.9231248,39.057983],[115.9230677,39.0580886],[115.9230956,39.0582219],[115.9231945,39.0583161],[115.9232126,39.0583908],[115.9232173,39.0585228],[115.9232297,39.0586548],[115.9231556,39.0587744],[115.9230433,39.0588917],[115.922995,39.0589786],[115.9229893,39.0591205],[115.9230077,39.0592795],[115.923058,39.0593564],[115.9231009,39.0593848],[115.9231686,39.0593523],[115.9231991,39.0592364],[115.9232244,39.0592132],[115.9232462,39.0592412],[115.9232368,39.0593493],[115.923226,39.0594513],[115.9232474,39.0595514],[115.9233152,39.0596534],[115.923452,39.059715],[115.9238017,39.0598349],[115.9239607,39.0598403],[115.9241848,39.0597798],[115.9243167,39.0597271],[115.9245014,39.0596905],[115.9246459,39.0596789],[115.9248217,39.0596944],[115.9249362,39.0597703],[115.9250294,39.0598447],[115.9250562,39.0600081],[115.9250369,39.0601785],[115.9249174,39.0602564],[115.9247775,39.0602931],[115.9245282,39.0602832],[115.9242735,39.0603088],[115.9241702,39.0603413],[115.9241194,39.060433],[115.9241412,39.060525],[115.9242657,39.0606587],[115.924391,39.0607627],[115.9244591,39.0608691],[115.9245266,39.0609921],[115.9245388,39.0610575],[115.9245265,39.0611945],[115.9244637,39.061406],[115.9243799,39.061583],[115.9243019,39.0618369],[115.9243337,39.0620851],[115.9244542,39.062276],[115.924632,39.0624029],[115.9247287,39.0624751],[115.9248244,39.0626043],[115.9248919,39.0627298],[115.9249427,39.0628849],[115.9249427,39.0630054],[115.9248864,39.0631084],[115.9248983,39.063187],[115.9249779,39.0632506],[115.9250465,39.0632943],[115.9250961,39.0633738],[115.9251055,39.0636459],[115.9250681,39.0638225],[115.9250953,39.0639722],[115.9251069,39.0641196],[115.9250264,39.0643108],[115.9247499,39.0644648],[115.9245797,39.0646167],[115.9245102,39.0647359],[115.9244288,39.0647148]]]}},{"type":"Feature","id":"way/1154819239","properties":{"osm_id":"1154819239","class":"water"},"geometry":{"type":"Polygon","coordinates":[[[115.8925577,39.0588129],[115.8923306,39.0586436],[115.8927234,39.058734],[115.8930081,39.0588533],[115.8932815,39.0588498],[115.8938026,39.0587616],[115.8939864,39.0586559],[115.8942798,39.0586677],[115.894625,39.0586473],[115.894771,39.0585605],[115.8947826,39.0583746],[115.8948518,39.0582755],[115.8950654,39.0582691],[115.8953379,39.0583325],[115.8955931,39.0585319],[115.8958323,39.058613],[115.8962239,39.058613],[115.8966844,39.0585867],[115.896874,39.0584892],[115.8972366,39.0584435],[115.8974587,39.0583645],[115.8975058,39.0582209],[115.8977333,39.058141],[115.8977801,39.0579926],[115.8979008,39.0579863],[115.8980952,39.0579409],[115.8982322,39.057989],[115.8986307,39.057989],[115.8987783,39.0578691],[115.8988263,39.0577721],[115.8990898,39.0577721],[115.8993102,39.0577289],[115.8994019,39.0575882],[115.8993531,39.0574451],[115.8995735,39.0572233],[115.8995869,39.0570667],[115.8994905,39.0568915],[115.8994255,39.0566316],[115.8994044,39.0563666],[115.8994164,39.0560286],[115.8995772,39.0554743],[115.8995598,39.0553348],[115.8995747,39.0547437],[115.8996693,39.0543692],[115.8996307,39.0541964],[115.8995079,39.0539802],[115.8994825,39.0537144],[115.8993996,39.0535565],[115.8992656,39.0534154],[115.8991415,39.0532594],[115.8990992,39.0529253],[115.8989173,39.0527256],[115.8988303,39.0525666],[115.8988408,39.0523172],[115.8987184,39.0521088],[115.8987184,39.0519542],[115.8987764,39.0517247],[115.8987764,39.0510067],[115.8988014,39.0507112],[115.8987778,39.0503154],[115.8989207,39.050127],[115.8990266,39.0498064],[115.8993195,39.0494862],[115.8996378,39.0492769],[115.8999513,39.0489917],[115.9000414,39.0488419],[115.900202,39.048603],[115.900202,39.0481952],[115.900265,39.0479607],[115.9003755,39.0478829],[115.9007646,39.0479821],[115.9009457,39.0479963],[115.9011906,39.0478749],[115.9014373,39.0478493],[115.902091,39.0478968],[115.9023246,39.0479895],[115.9024466,39.0480907],[115.9024208,39.0482951],[115.9020945,39.0483247],[115.9018347,39.0483894],[115.9017321,39.0486129],[115.9018082,39.0487539],[115.9020959,39.0487612],[115.9023073,39.0487927],[115.9023251,39.0488983],[115.9022324,39.0490208],[115.9022918,39.0491284],[115.9024555,39.049191],[115.9024494,39.0493136],[115.9021294,39.0493971],[115.9019766,39.0493704],[115.9019108,39.049199],[115.901827,39.0490606],[115.9015571,39.0490305],[115.90122,39.0491327],[115.9010207,39.0491177],[115.900911,39.0490561],[115.9008293,39.0489628],[115.9008293,39.0488275],[115.9007045,39.0487247],[115.9004871,39.0487367],[115.9003473,39.0489094],[115.900353,39.0491024],[115.9002169,39.0492272],[115.8997836,39.0494141],[115.8996919,39.0495467],[115.8994649,39.049655],[115.8992717,39.0499102],[115.89901,39.0505668],[115.8990142,39.0508292],[115.8990142,39.0510262],[115.8989913,39.0512508],[115.8989592,39.0517081],[115.8988918,39.0519346],[115.8989725,39.0520778],[115.8989778,39.0522575],[115.8990949,39.0523943],[115.8990949,39.0525965],[115.8992861,39.0528187],[115.8993763,39.0529735],[115.8994467,39.0532479],[115.8996538,39.0534656],[115.8997192,39.0538006],[115.8997521,39.0540136],[115.8999181,39.0541859],[115.8999698,39.0542766],[115.899964,39.0544878],[115.8998943,39.0545785],[115.8998854,39.0547172],[115.8999217,39.05528],[115.8998958,39.0556385],[115.8997456,39.0559924],[115.8996246,39.0562848],[115.8996808,39.0564201],[115.8997633,39.0565337],[115.8998692,39.0565255],[115.900053,39.0564051],[115.9001976,39.0563507],[115.9002804,39.056332],[115.9003489,39.0564259],[115.9002387,39.0565102],[115.9000122,39.0565421],[115.8999169,39.0566279],[115.8999436,39.0566851],[115.8999141,39.0568677],[115.8999141,39.0570332],[115.8998845,39.0572454],[115.899774,39.0574951],[115.8998322,39.0577227],[115.8999612,39.0578345],[115.9001789,39.0580892],[115.9003299,39.0581979],[115.9005177,39.058248],[115.9006704,39.0583447],[115.9008634,39.0584569],[115.900953,39.0585779],[115.9009739,39.0587781],[115.9008451,39.0589439],[115.9007759,39.0591528],[115.9007759,39.0592882],[115.90087,39.0594545],[115.9010293,39.0597065],[115.9010751,39.0599117],[115.9010751,39.0601724],[115.9009149,39.0603865],[115.9007399,39.0605113],[115.9006912,39.06061],[115.9006674,39.0607594],[115.9005275,39.0608731],[115.9003591,39.0609862],[115.9003313,39.061106],[115.9003313,39.0612321],[115.900379,39.0613363],[115.9004408,39.0614492],[115.9004568,39.0616973],[115.9005492,39.0618171],[115.9007287,39.0619732],[115.9009259,39.0621147],[115.9010747,39.062278],[115.9011019,39.0624689],[115.9010933,39.0627981],[115.9010952,39.0629388],[115.9011799,39.0630933],[115.901612,39.0632705],[115.9018249,39.0633444],[115.9021172,39.0631746],[115.9022058,39.0632095],[115.9022628,39.0632319],[115.9020867,39.063323],[115.9020401,39.0634352],[115.9020746,39.063646],[115.9021845,39.0638584],[115.9024388,39.0639945],[115.902575,39.0641742],[115.9025981,39.0643097],[115.9025808,39.0644968],[115.9023847,39.0649458],[115.9020383,39.0648289],[115.9022531,39.0644411],[115.9022975,39.0643009],[115.9021722,39.0641081],[115.9019725,39.0640015],[115.9017416,39.0636556],[115.9015065,39.0634468],[115.9011253,39.0633214],[115.9009615,39.0631636],[115.9008306,39.0630326],[115.9008065,39.0629209],[115.9008321,39.0628116],[115.9007745,39.0626298],[115.900721,39.0625734],[115.9006952,39.0624045],[115.9005261,39.0622357],[115.9002484,39.0620922],[115.8998873,39.0619998],[115.8996075,39.0618903],[115.899481,39.0617594],[115.8994556,39.0616133],[115.8995045,39.061481],[115.8995654,39.0614079],[115.8995654,39.0613349],[115.8995314,39.0612264],[115.8995445,39.0611577],[115.8996276,39.0610889],[115.8996588,39.0610258],[115.8996545,39.0609065],[115.8996918,39.0608312],[115.8997677,39.0607456],[115.8997993,39.0606471],[115.8999022,39.0605351],[115.9000048,39.060397],[115.8999852,39.060313],[115.9000006,39.0602148],[115.8999872,39.0601148],[115.9000175,39.0600159],[115.900037,39.0599683],[115.9000235,39.0599139],[115.9000119,39.0598452],[115.8999343,39.0597785],[115.8998298,39.0597427],[115.899669,39.0597098],[115.8995804,39.059652],[115.8995367,39.0595763],[115.8994541,39.059432],[115.8994136,39.0593127],[115.8994268,39.0592528],[115.8993943,39.0591626],[115.8992923,39.0591047],[115.8992032,39.0590058],[115.8991156,39.0589498],[115.8990477,39.0588665],[115.8989318,39.0588312],[115.8988759,39.0587937],[115.8985784,39.0587896],[115.8984685,39.0588047],[115.8983618,39.0587624],[115.8982579,39.0587836],[115.8982117,39.0588437],[115.898156,39.0589263],[115.8980386,39.0589699],[115.8979008,39.058926],[115.8978512,39.058797],[115.8978018,39.0586952],[115.8976414,39.0587062],[115.897452,39.0587144],[115.8973632,39.0587672],[115.8973109,39.0588026],[115.8972629,39.0587255],[115.8970899,39.0587167],[115.8969624,39.0587026],[115.8969123,39.0587751],[115.8969554,39.0588282],[115.8971355,39.058842],[115.8970195,39.0588761],[115.8969137,39.0588718],[115.8968063,39.0588438],[115.8967016,39.0588629],[115.8966093,39.0589525],[115.8964489,39.058991],[115.8963329,39.059005],[115.8962172,39.058967],[115.8960931,39.0590263],[115.8960987,39.0591192],[115.8961627,39.0591607],[115.896227,39.0591607],[115.8962426,39.0591963],[115.8961736,39.0592669],[115.8959784,39.0594366],[115.8958884,39.0595462],[115.8958673,39.0596814],[115.8958314,39.0597291],[115.8958314,39.0598069],[115.8958027,39.059896],[115.8956613,39.060066],[115.8953792,39.0601084],[115.8952614,39.0601004],[115.8951559,39.0600087],[115.8950176,39.059917],[115.8949508,39.0597747],[115.8948132,39.0596205],[115.894733,39.0595412],[115.8946864,39.0594766],[115.8946864,39.0594116],[115.8947651,39.0593413],[115.8948005,39.0592598],[115.8947702,39.0591868],[115.8945559,39.0590879],[115.8943001,39.0590511],[115.8941431,39.0590575],[115.894001,39.0590668],[115.8938184,39.0591405],[115.8933588,39.0592647],[115.8931943,39.0592443],[115.8929191,39.0591191],[115.8926471,39.0588829],[115.8925577,39.0588129]]]}},{"type":"Feature","id":"way/1349426489","properties":{"osm_id":"1349426489","class":"water"},"geometry":{"type":"Polygon","coordinates":[[[115.9003903,39.0563722],[115.9003011,39.0562883],[115.9003657,39.0561781],[115.9004403,39.0561054],[115.9005227,39.0560841],[115.9006218,39.0561106],[115.9008071,39.0560933],[115.9009535,39.0561303],[115.9010469,39.0560494],[115.9012229,39.0559708],[115.9012703,39.0559262],[115.901544,39.0559072],[115.9017388,39.0559044],[115.9018047,39.0558708],[115.9019495,39.0558839],[115.902045,39.0559219],[115.9022617,39.0559092],[115.9023432,39.0558822],[115.9024613,39.0559317],[115.9026356,39.0559101],[115.9027596,39.055826],[115.9029515,39.0557364],[115.9031843,39.0557116],[115.9033571,39.0556841],[115.9036074,39.0557337],[115.9039135,39.0557065],[115.9040673,39.0556324],[115.9041191,39.055536],[115.9044647,39.0554682],[115.9049257,39.0554416],[115.9054284,39.0554546],[115.905681,39.0554685],[115.9062195,39.0555853],[115.9065737,39.05558],[115.9068154,39.0555194],[115.9071772,39.055597],[115.907303,39.0556321],[115.9074072,39.0557],[115.9073167,39.0558006],[115.907157,39.0557183],[115.9069804,39.0556754],[115.9067549,39.0556586],[115.9065621,39.0556791],[115.9064645,39.0556837],[115.9062475,39.0556534],[115.9056364,39.0555345],[115.9049784,39.0555334],[115.9047475,39.0555546],[115.9044655,39.0556606],[115.90437,39.0556966],[115.904213,39.0557277],[115.9040766,39.0558463],[115.9039673,39.0559653],[115.9039003,39.0561445],[115.9039298,39.0562164],[115.9039002,39.0563533],[115.9037977,39.0563837],[115.9037489,39.0563498],[115.9037326,39.0562683],[115.9035175,39.0561938],[115.9031418,39.0562382],[115.9025979,39.0562486],[115.9022317,39.0562012],[115.9019853,39.0560932],[115.9018232,39.0560838],[115.901541,39.0561026],[115.9013264,39.0561655],[115.9012132,39.0562096],[115.9009803,39.0562276],[115.9007631,39.0562072],[115.9006625,39.0562702],[115.9005372,39.0563647],[115.9003903,39.0563722]]]}},{"type":"Feature","id":"way/1349426490","properties":{"osm_id":"1349426490","class":"water"},"geometry":{"type":"Polygon","coordinates":[[[115.9043415,39.0709927],[115.9044053,39.0708573],[115.9042336,39.0707493],[115.9040248,39.0707246],[115.9038516,39.0706896],[115.9037227,39.0707032],[115.9035832,39.0706032],[115.9033592,39.0705655],[115.9031947,39.0705878],[115.9030754,39.0705784],[115.9029343,39.0706018],[115.9028013,39.0705877],[115.9027315,39.0704989],[115.9026472,39.0703804],[115.9026127,39.0701615],[115.9025039,39.0699772],[115.9022526,39.0698891],[115.9021609,39.0698226],[115.9020167,39.0696841],[115.9019918,39.0696303],[115.9021997,39.0694543],[115.9022534,39.0693666],[115.9023575,39.0692189],[115.9025575,39.0691562],[115.9026875,39.0690442],[115.9027552,39.0688756],[115.9028748,39.0688137],[115.9030735,39.0688391],[115.9033222,39.0687424],[115.9033796,39.0685882],[115.9035475,39.0684723],[115.9036192,39.0682966],[115.9037587,39.0682413],[115.9038546,39.0679651],[115.9039904,39.067776],[115.9040677,39.0673816],[115.9040457,39.0670842],[115.9039032,39.0668331],[115.9036473,39.0666516],[115.9035058,39.0664032],[115.9030267,39.06617],[115.9025873,39.0658471],[115.9024525,39.0656822],[115.902287,39.0653608],[115.9022317,39.0651589],[115.902338,39.0649858],[115.9023847,39.0649458],[115.9020383,39.0648289],[115.9020751,39.0651839],[115.902071,39.0654125],[115.9021868,39.0656106],[115.9023199,39.0658432],[115.9025096,39.0660604],[115.9027948,39.0662611],[115.9030742,39.0663346],[115.9033232,39.0665382],[115.9035812,39.0667916],[115.9037573,39.0671136],[115.9038023,39.0675183],[115.9037368,39.0678021],[115.9035908,39.0679838],[115.903483,39.0680757],[115.9035137,39.0681824],[115.9034354,39.0682903],[115.9033754,39.0684274],[115.9032321,39.0685016],[115.9030109,39.0685422],[115.9027124,39.0686801],[115.9024696,39.0687814],[115.902245,39.0688967],[115.9021909,39.0690807],[115.9019922,39.0691528],[115.9018611,39.0691092],[115.9016001,39.0691786],[115.9015113,39.0691694],[115.9014207,39.0692909],[115.9012108,39.0693111],[115.9011621,39.0693883],[115.901341,39.06946],[115.9014333,39.0695635],[115.9015573,39.0696505],[115.9017353,39.0697102],[115.901914,39.069723],[115.9019967,39.0697652],[115.9019874,39.0698419],[115.9020265,39.069906],[115.9021598,39.0700028],[115.9022645,39.0700595],[115.9024707,39.0701992],[115.9024906,39.0703184],[115.9025137,39.0704038],[115.9026384,39.0705596],[115.9028039,39.0706759],[115.9026832,39.0708182],[115.9026935,39.0708771],[115.9028085,39.0708463],[115.9030159,39.0708738],[115.9030637,39.0709968],[115.9031675,39.0711217],[115.9032123,39.0712787],[115.9033336,39.0713338],[115.9034303,39.0713641],[115.9035524,39.0712833],[115.9036782,39.0712392],[115.9037759,39.0710982],[115.9039104,39.0709744],[115.9040319,39.0709516],[115.904142,39.070928],[115.9043415,39.0709927]]]}},{"type":"Feature","id":"way/1458283480","properties":{"osm_id":"1458283480","class":"water"},"geometry":{"type":"Polygon","coordinates":[[[115.9042176,39.0606509],[115.9039403,39.0606413],[115.9038101,39.0606571],[115.9035763,39.0606492],[115.9034666,39.0607213],[115.9034408,39.0607795],[115.9034587,39.0608159],[115.9034673,39.0609643],[115.9035003,39.0610831],[115.9034765,39.0612187],[115.9034922,39.0613361],[115.9036051,39.0614179],[115.9036724,39.0615563],[115.903642,39.0616046],[115.9035671,39.0616137],[115.9034246,39.0617468],[115.9034199,39.0618509],[115.9035646,39.0619645],[115.9036821,39.0621476],[115.9036821,39.0623225],[115.9035641,39.0624696],[115.9034105,39.062581],[115.9031737,39.0628108],[115.902983,39.0628882],[115.9026891,39.0628918],[115.902477,39.0629557],[115.9022058,39.0632095],[115.9021172,39.0631746],[115.9020948,39.0631321],[115.9024105,39.0629001],[115.9025529,39.0628266],[115.9026602,39.062807],[115.902836,39.0628195],[115.9029666,39.0628195],[115.903116,39.0627556],[115.9031797,39.0626445],[115.9032667,39.0625352],[115.903426,39.0624308],[115.9035286,39.0623056],[115.9035545,39.0621778],[115.9034963,39.0620509],[115.9034017,39.0619605],[115.90334,39.0618697],[115.9033409,39.0617517],[115.9033775,39.0616445],[115.9035077,39.0614975],[115.9034737,39.0614006],[115.9033756,39.0612648],[115.9033709,39.0612128],[115.9033624,39.0611526],[115.9034073,39.0610491],[115.9033771,39.0609695],[115.9033478,39.0608516],[115.9033576,39.0607749],[115.9032575,39.0606467],[115.9031465,39.0605337],[115.903129,39.0604862],[115.9031979,39.0604862],[115.9033545,39.0605857],[115.9034315,39.0605944],[115.903559,39.0605588],[115.9036627,39.0605493],[115.9038197,39.0605546],[115.9040387,39.0605688],[115.9041318,39.0605586],[115.9041947,39.0605261],[115.9042176,39.0606509]]]}},{"type":"Feature","id":"way/1458283481","properties":{"osm_id":"1458283481","class":"water"},"geometry":{"type":"Polygon","coordinates":[[[115.9079721,39.0578171],[115.9080752,39.0577684],[115.9081645,39.0571772],[115.9084562,39.0571322],[115.9085659,39.0570955],[115.9088529,39.0568748],[115.9089842,39.0567731],[115.9089734,39.0566164],[115.9091537,39.0565625],[115.9094485,39.0565748],[115.9095978,39.0565836],[115.9099521,39.0565173],[115.9101681,39.0564379],[115.9102739,39.0564169],[115.9105009,39.0562761],[115.9105941,39.0562021],[115.9105226,39.0560861],[115.9103807,39.0560801],[115.9102014,39.0558729],[115.9099683,39.0557155],[115.9095702,39.0556516],[115.9092383,39.0555651],[115.9088957,39.0555406],[115.908677,39.055569],[115.9081863,39.0559477],[115.907685,39.0559261],[115.9073167,39.0558006],[115.9074072,39.0557],[115.907635,39.05581],[115.9077034,39.05581],[115.9079289,39.0557982],[115.9082135,39.0558215],[115.908339,39.0557021],[115.9084864,39.0556026],[115.9086439,39.0555042],[115.9088477,39.05547],[115.9091418,39.0554854],[115.9095105,39.055523],[115.9097687,39.0555539],[115.9099852,39.0555887],[115.9102059,39.0556629],[115.9103799,39.0557708],[115.9105962,39.0559039],[115.9107261,39.0560076],[115.911057,39.0559987],[115.9111764,39.0560233],[115.9111978,39.0561519],[115.9112287,39.0562221],[115.9113306,39.0562671],[115.9112852,39.0563694],[115.911107,39.0563657],[115.9110132,39.0564188],[115.9107129,39.0564242],[115.9105554,39.0564654],[115.9102576,39.0565176],[115.9099056,39.0566002],[115.9097279,39.0566653],[115.909587,39.0567955],[115.9092935,39.0569226],[115.9090611,39.0569062],[115.9088518,39.0570423],[115.9085963,39.0571867],[115.9083561,39.0572668],[115.9082711,39.0574847],[115.9082381,39.0575679],[115.9081987,39.0577267],[115.9081412,39.0578282],[115.9081577,39.0578816],[115.9079721,39.0578171]]]}},{"type":"Feature","id":"way/1458283482","properties":{"osm_id":"1458283482","class":"water"},"geometry":{"type":"Polygon","coordinates":[[[115.9061972,39.057888],[115.9060729,39.0577454],[115.9059464,39.0576458],[115.905734,39.0576406],[115.9056255,39.0576362],[115.9054213,39.0575965],[115.9052035,39.0575965],[115.9050411,39.0576516],[115.9048494,39.0576247],[115.9047714,39.0574971],[115.9047659,39.0573536],[115.9047294,39.0571665],[115.9047639,39.057031],[115.9045693,39.0569856],[115.9043404,39.0569596],[115.9040719,39.0568279],[115.9039639,39.0567258],[115.9039209,39.0566046],[115.9039084,39.0564808],[115.9039002,39.0563533],[115.9037977,39.0563837],[115.9038018,39.0565738],[115.9038088,39.0567094],[115.903888,39.0567971],[115.9042284,39.0569574],[115.9045555,39.0570617],[115.9046516,39.0571362],[115.9046644,39.0574086],[115.9046735,39.0575408],[115.9047346,39.0576519],[115.9048038,39.057733],[115.9050135,39.0577303],[115.9052579,39.0576533],[115.9055161,39.0576886],[115.905681,39.0577948],[115.9058425,39.0577877],[115.9059273,39.0578266],[115.905982,39.0579092],[115.9061972,39.057888]]]}}],"metadata":{"source":"OpenStreetMap closed ways","bounds":[115.90189349694752,39.05390488560329,115.91815137669799,39.066528871175876],"kind":"water","featureCount":7,"intersectionId":"demo_17","radiusMeters":700,"fallback":"Baidu vector base map"}}
