{"type":"FeatureCollection","features":[{"type":"Feature","id":"way/1001665944","properties":{"osm_id":"1001665944","class":"water"},"geometry":{"type":"Polygon","coordinates":[[[115.9045757,39.0713816],[115.9052029,39.0716167],[115.9062519,39.0719861],[115.9068358,39.0721372],[115.9075604,39.0720533],[115.9081768,39.0721372],[115.9086093,39.0722548],[115.9092257,39.0725906],[115.9101773,39.0727249],[115.9104585,39.0728173],[115.9107721,39.0730104],[115.9110641,39.0730271],[115.911594,39.0728928],[115.9120174,39.0731038],[115.9125386,39.0733663],[115.9129967,39.0734926],[115.9136319,39.0734275],[115.9142678,39.073755],[115.9151734,39.0737911],[115.9156708,39.0739506],[115.9166225,39.0742445],[115.9176174,39.0742697],[115.9180716,39.0744879],[115.9185474,39.0745047],[115.9191313,39.0747398],[115.9194233,39.0748069],[115.920256,39.0746474],[115.9206669,39.0747062],[115.9213698,39.075],[115.9220835,39.0751847],[115.923046,39.0753107],[115.9240517,39.075319],[115.924441,39.0755877],[115.9250249,39.0757808],[115.9264416,39.0760074],[115.9268633,39.076083],[115.9294803,39.0761502],[115.9312971,39.0761502],[115.9322595,39.0761502],[115.9359579,39.0760494],[115.9370825,39.0759487],[115.9385749,39.076125],[115.9384992,39.0758395],[115.9367041,39.0756968],[115.9353631,39.0758395],[115.9333733,39.0758144],[115.9326396,39.0757478],[115.9319533,39.0759133],[115.9300867,39.075883],[115.9270126,39.075813],[115.9250033,39.0755625],[115.923932,39.0751552],[115.9229162,39.0751092],[115.9213806,39.0747734],[115.9210017,39.0744657],[115.9200382,39.0741971],[115.9190113,39.0743596],[115.9180666,39.0741519],[115.9168789,39.0739195],[115.9157169,39.073802],[115.9150829,39.0735887],[115.9138816,39.073306],[115.9131769,39.0731788],[115.9126909,39.0732304],[115.9123337,39.0729796],[115.9113993,39.0726913],[115.9109019,39.0728676],[115.9103396,39.072515],[115.9096583,39.0725318],[115.9092257,39.0724731],[115.9085661,39.0721037],[115.9077442,39.071877],[115.906652,39.0718602],[115.9062627,39.071793],[115.9052245,39.0713229],[115.9046514,39.0710626],[115.9045757,39.0713816]]]}},{"type":"Feature","id":"way/1154819228","properties":{"osm_id":"1154819228","class":"water"},"geometry":{"type":"Polygon","coordinates":[[[115.9244288,39.0647148],[115.9243952,39.0643822],[115.9244115,39.0642627],[115.9245027,39.0641531],[115.9246636,39.063967],[115.9247884,39.0637872],[115.9248287,39.0635675],[115.9247144,39.0633683],[115.9246037,39.0631924],[115.9245195,39.0631126],[115.9244565,39.0630296],[115.9244281,39.0628858],[115.9244857,39.0627482],[115.9244638,39.0626344],[115.9243065,39.0625213],[115.9241607,39.0623986],[115.9240916,39.0622873],[115.9239571,39.0620602],[115.9238732,39.0619497],[115.9237708,39.0618213],[115.9236399,39.0616395],[115.923605,39.0614121],[115.92368,39.0613306],[115.9237901,39.0612612],[115.9239819,39.0610658],[115.9240423,39.0609182],[115.9239983,39.0607396],[115.9238338,39.0605303],[115.9236552,39.0603714],[115.9234581,39.0603202],[115.9232491,39.0603112],[115.9231308,39.0602339],[115.9230242,39.0601193],[115.9229741,39.0600343],[115.9227722,39.05992],[115.9225179,39.0598989],[115.9223948,39.0598301],[115.9222573,39.0597212],[115.9219758,39.0597016],[115.9218171,39.0596757],[115.9216178,39.0596393],[115.9215051,39.0595869],[115.921347,39.0595881],[115.9210959,39.0595167],[115.920892,39.0594507],[115.9206631,39.0594197],[115.9204313,39.0593801],[115.9202846,39.0593431],[115.9201339,39.0592779],[115.9200042,39.0591322],[115.9197617,39.0590016],[115.9195852,39.059003],[115.9194388,39.0590121],[115.919226,39.0589654],[115.9189273,39.0588386],[115.9186296,39.0587148],[115.9185168,39.0586529],[115.9177652,39.0584078],[115.9175761,39.0584815],[115.916949,39.0582943],[115.9169228,39.0582464],[115.9167361,39.0581951],[115.9167305,39.0581536],[115.9165488,39.0580886],[115.9165153,39.0581433],[115.916415,39.0581035],[115.9163837,39.0580466],[115.9159501,39.0579098],[115.9158183,39.0579546],[115.915418,39.0578252],[115.915418,39.0577498],[115.9148106,39.0575659],[115.9148106,39.0575304],[115.914558,39.0574554],[115.9144701,39.0574855],[115.9138056,39.0572612],[115.9137592,39.0572806],[115.9136289,39.057234],[115.9134597,39.0571413],[115.9133596,39.0571089],[115.9132682,39.0570376],[115.9130813,39.0570048],[115.9127815,39.0569188],[115.9125978,39.0569265],[115.9124774,39.0569191],[115.9123186,39.0568479],[115.91219,39.0568047],[115.9121172,39.0567628],[115.912058,39.0567398],[115.9120297,39.0566728],[115.9122354,39.0563459],[115.9123405,39.0563407],[115.9126343,39.0564671],[115.9128872,39.0565138],[115.9130736,39.0565816],[115.9132398,39.0566052],[115.9134097,39.0565512],[115.9135219,39.0564505],[115.9135509,39.056402],[115.9138414,39.0564921],[115.913791,39.0565873],[115.913758,39.0566536],[115.9137606,39.0567973],[115.9138118,39.0569323],[115.9141001,39.0570241],[115.9141609,39.0570298],[115.9145604,39.0571563],[115.9146805,39.0571563],[115.9147935,39.0571441],[115.9151962,39.0572622],[115.9156333,39.0574225],[115.9158638,39.0575284],[115.9161901,39.0576896],[115.9164714,39.0577617],[115.9166075,39.0577961],[115.9167838,39.0578415],[115.9168831,39.0579255],[115.9170394,39.0578937],[115.9172642,39.0579761],[115.9174317,39.058014],[115.9175199,39.058014],[115.9176079,39.0580678],[115.9177423,39.0581193],[115.9184244,39.05836],[115.9186606,39.0583669],[115.9188127,39.0583812],[115.9192461,39.0584923],[115.9196511,39.05869],[115.9197984,39.0587958],[115.9200993,39.0589049],[115.920484,39.0589161],[115.920772,39.0588933],[115.9209356,39.0589269],[115.9210933,39.0590756],[115.9212236,39.0592211],[115.9214358,39.0594006],[115.9216389,39.0594508],[115.9219153,39.0594066],[115.9222607,39.0592917],[115.922368,39.0591599],[115.922488,39.0591083],[115.9226207,39.0589399],[115.9225889,39.0588396],[115.9226457,39.0586782],[115.9227553,39.0585988],[115.9228171,39.058384],[115.922694,39.0582698],[115.9224756,39.0582419],[115.9223505,39.0581165],[115.9223373,39.0579965],[115.9223843,39.0578655],[115.9226292,39.0576698],[115.9228492,39.0575436],[115.9229227,39.0574186],[115.9229631,39.0572104],[115.9229023,39.0570799],[115.9228076,39.0570941],[115.9227648,39.0572039],[115.9226918,39.0571995],[115.922615,39.0570929],[115.9225683,39.0569439],[115.9224074,39.0567582],[115.9222933,39.0565109],[115.9222933,39.0563031],[115.9223225,39.0561516],[115.9223899,39.056038],[115.9225016,39.0559521],[115.922697,39.0559034],[115.9228308,39.0558972],[115.9229205,39.0558479],[115.922929,39.0556513],[115.9230321,39.0555247],[115.923161,39.0555232],[115.9232626,39.0555858],[115.9232794,39.0556858],[115.9232643,39.0557569],[115.9232412,39.0558327],[115.9232546,39.0559073],[115.9233356,39.0559212],[115.9234555,39.0558319],[115.9235497,39.0556813],[115.923697,39.0556537],[115.9238594,39.0556484],[115.923876,39.055536],[115.9238051,39.0554405],[115.9238039,39.0552671],[115.9239945,39.0550836],[115.924356,39.0549772],[115.9246966,39.0549713],[115.9249313,39.0550424],[115.9251972,39.0551715],[115.9252564,39.0553229],[115.9252521,39.0554757],[115.9251246,39.0556106],[115.925029,39.0556951],[115.9250395,39.0557944],[115.9251604,39.0557716],[115.9253513,39.0557064],[115.9257027,39.0555883],[115.9258821,39.0555998],[115.926035,39.0557016],[115.9261064,39.0559224],[115.9262451,39.0560767],[115.9264239,39.0561436],[115.9266476,39.0561843],[115.9267781,39.0563224],[115.9269774,39.0563655],[115.9270873,39.0563453],[115.9274285,39.0564013],[115.9276506,39.0563744],[115.9279433,39.0562712],[115.9283063,39.0562712],[115.9288058,39.0560862],[115.928935,39.0560924],[115.9289512,39.0561306],[115.928966,39.0561656],[115.9289391,39.0562123],[115.9289838,39.0563247],[115.9290394,39.0563549],[115.9290112,39.0563651],[115.9289692,39.0563802],[115.9288112,39.0564351],[115.928704,39.0563943],[115.9285498,39.0564228],[115.9283707,39.0565185],[115.9283158,39.0565735],[115.9283433,39.0566542],[115.9284102,39.0566827],[115.92835,39.0568469],[115.9282717,39.0569374],[115.9280901,39.0569933],[115.9279759,39.0570083],[115.9278786,39.0570155],[115.9276505,39.0570561],[115.9275567,39.0570529],[115.9274674,39.0569953],[115.9272675,39.056952],[115.927147,39.056933],[115.9270337,39.0568945],[115.9268775,39.0568893],[115.9267229,39.0567943],[115.9266403,39.056736],[115.9263783,39.056703],[115.92605,39.0567094],[115.9259572,39.0567398],[115.9259627,39.0568525],[115.9259936,39.0569175],[115.9258925,39.0570138],[115.9257507,39.0569895],[115.9255068,39.056952],[115.9253997,39.0569986],[115.925324,39.0571254],[115.9252933,39.0572506],[115.9253787,39.0573144],[115.9256151,39.0574289],[115.9257779,39.0574365],[115.9258995,39.0573745],[115.9259728,39.0573018],[115.9260538,39.0573881],[115.9260704,39.0574596],[115.9260179,39.0575902],[115.9257897,39.0577658],[115.9254474,39.0578751],[115.9252606,39.0578692],[115.9250337,39.0578464],[115.9248061,39.057707],[115.9247998,39.0576421],[115.9245165,39.057599],[115.9243485,39.057621],[115.9241927,39.0576547],[115.9242211,39.0577371],[115.924005,39.0578164],[115.9239232,39.0578399],[115.9238145,39.0578711],[115.9236326,39.0578976],[115.9234743,39.0578799],[115.9232928,39.0578799],[115.9232171,39.0579024],[115.9231248,39.057983],[115.9230677,39.0580886],[115.9230956,39.0582219],[115.9231945,39.0583161],[115.9232126,39.0583908],[115.9232173,39.0585228],[115.9232297,39.0586548],[115.9231556,39.0587744],[115.9230433,39.0588917],[115.922995,39.0589786],[115.9229893,39.0591205],[115.9230077,39.0592795],[115.923058,39.0593564],[115.9231009,39.0593848],[115.9231686,39.0593523],[115.9231991,39.0592364],[115.9232244,39.0592132],[115.9232462,39.0592412],[115.9232368,39.0593493],[115.923226,39.0594513],[115.9232474,39.0595514],[115.9233152,39.0596534],[115.923452,39.059715],[115.9238017,39.0598349],[115.9239607,39.0598403],[115.9241848,39.0597798],[115.9243167,39.0597271],[115.9245014,39.0596905],[115.9246459,39.0596789],[115.9248217,39.0596944],[115.9249362,39.0597703],[115.9250294,39.0598447],[115.9250562,39.0600081],[115.9250369,39.0601785],[115.9249174,39.0602564],[115.9247775,39.0602931],[115.9245282,39.0602832],[115.9242735,39.0603088],[115.9241702,39.0603413],[115.9241194,39.060433],[115.9241412,39.060525],[115.9242657,39.0606587],[115.924391,39.0607627],[115.9244591,39.0608691],[115.9245266,39.0609921],[115.9245388,39.0610575],[115.9245265,39.0611945],[115.9244637,39.061406],[115.9243799,39.061583],[115.9243019,39.0618369],[115.9243337,39.0620851],[115.9244542,39.062276],[115.924632,39.0624029],[115.9247287,39.0624751],[115.9248244,39.0626043],[115.9248919,39.0627298],[115.9249427,39.0628849],[115.9249427,39.0630054],[115.9248864,39.0631084],[115.9248983,39.063187],[115.9249779,39.0632506],[115.9250465,39.0632943],[115.9250961,39.0633738],[115.9251055,39.0636459],[115.9250681,39.0638225],[115.9250953,39.0639722],[115.9251069,39.0641196],[115.9250264,39.0643108],[115.9247499,39.0644648],[115.9245797,39.0646167],[115.9245102,39.0647359],[115.9244288,39.0647148]]]}},{"type":"Feature","id":"way/1349426492","properties":{"osm_id":"1349426492","class":"water"},"geometry":{"type":"Polygon","coordinates":[[[115.9025776,39.0793275],[115.9020225,39.0794424],[115.9014722,39.0795287],[115.900826,39.0795688],[115.9003031,39.0795817],[115.8997724,39.0795411],[115.8993248,39.0794084],[115.8990792,39.0792606],[115.8988078,39.0790992],[115.8986339,39.0790098],[115.8983033,39.0790175],[115.898163,39.0790763],[115.8976973,39.0791411],[115.8973728,39.0791647],[115.897111,39.0792871],[115.8969751,39.0793294],[115.8966725,39.0794939],[115.8964947,39.0795161],[115.8963767,39.0793558],[115.8967734,39.0792124],[115.8970354,39.0791253],[115.8973173,39.0790796],[115.8977077,39.0790084],[115.8978983,39.078972],[115.8979673,39.0787571],[115.8980688,39.0784616],[115.8982318,39.0781171],[115.8985678,39.0778461],[115.8988222,39.0776457],[115.8992667,39.077464],[115.8995675,39.0772427],[115.8997316,39.0770082],[115.8999134,39.0766067],[115.8998497,39.0763905],[115.8996949,39.0760958],[115.8995868,39.0758351],[115.8996709,39.0755886],[115.8998682,39.0753898],[115.8998827,39.0752458],[115.8996629,39.0749604],[115.8997013,39.0747966],[115.899748,39.0746499],[115.8997425,39.0744508],[115.8998297,39.0742986],[115.9000097,39.0742745],[115.9002626,39.0743182],[115.9005788,39.074303],[115.9006485,39.0742769],[115.9007075,39.0743103],[115.900708,39.0744043],[115.9005538,39.0744279],[115.9004018,39.0744339],[115.9002747,39.0744313],[115.9001228,39.0743931],[115.9000109,39.0743816],[115.8999213,39.074417],[115.8998805,39.0744984],[115.8999189,39.0746197],[115.8999594,39.0746878],[115.8999209,39.0748119],[115.8998393,39.0748991],[115.8997963,39.0749468],[115.8998216,39.0750242],[115.8999174,39.0751084],[115.8999859,39.0752203],[115.89998,39.0753384],[115.8999548,39.075467],[115.8998838,39.0755977],[115.8998051,39.0756931],[115.899737,39.0758323],[115.8997264,39.0759062],[115.8997727,39.0760546],[115.8999015,39.0762631],[115.9000019,39.0764992],[115.8999915,39.0767523],[115.8998271,39.0771234],[115.899722,39.0772773],[115.8995715,39.0774181],[115.8994133,39.077527],[115.8992348,39.0776171],[115.8989962,39.0777661],[115.8986518,39.077989],[115.8984299,39.0781275],[115.8982987,39.0783386],[115.8981941,39.0784719],[115.898129,39.0786165],[115.8981155,39.0787144],[115.8981702,39.0788395],[115.8982418,39.0789099],[115.8984111,39.0789139],[115.8985193,39.0788512],[115.8985995,39.0787489],[115.8986382,39.0786742],[115.8986921,39.078444],[115.8987622,39.078324],[115.898931,39.0782155],[115.8991205,39.0781601],[115.8994071,39.0781129],[115.8998018,39.078052],[115.8999821,39.0780299],[115.9000676,39.0779646],[115.9002161,39.0780085],[115.9003845,39.0779992],[115.9005085,39.0779255],[115.9006594,39.0778716],[115.9009441,39.0778322],[115.9012484,39.077833],[115.9015209,39.0778544],[115.9017119,39.0779098],[115.9018949,39.0779355],[115.902142,39.0780153],[115.9024465,39.0780723],[115.9026716,39.0781289],[115.9028601,39.0781947],[115.9029733,39.0782738],[115.9030251,39.0783504],[115.902989,39.0783826],[115.9028577,39.0782758],[115.9026597,39.0781963],[115.9024966,39.078179],[115.9024515,39.0782171],[115.9025339,39.0783204],[115.9026177,39.0784036],[115.9027638,39.0784326],[115.9029601,39.0784528],[115.9029778,39.0785167],[115.9030507,39.0785942],[115.9031658,39.0786066],[115.9032134,39.078703],[115.903331,39.0787601],[115.9035291,39.078809],[115.9036592,39.0788023],[115.9037391,39.0787337],[115.9037188,39.0785994],[115.903628,39.078398],[115.9034947,39.0782126],[115.9033425,39.07804],[115.9031729,39.0779044],[115.9029838,39.0777941],[115.9027568,39.077683],[115.9025541,39.0776134],[115.9023978,39.0775375],[115.9022799,39.0774431],[115.9021534,39.077325],[115.9020158,39.077082],[115.9019267,39.0768475],[115.9018587,39.0766721],[115.9018829,39.0765392],[115.9019574,39.0763496],[115.9020075,39.0761579],[115.9020275,39.0759749],[115.9020295,39.0758357],[115.90198,39.0756441],[115.9018783,39.0754515],[115.9018763,39.0753528],[115.901956,39.0753484],[115.9020347,39.0755126],[115.9021179,39.0756418],[115.902195,39.0757634],[115.9022246,39.0759791],[115.9021864,39.0760897],[115.9020601,39.0764169],[115.9020122,39.0766826],[115.9021111,39.0768814],[115.9021805,39.0770734],[115.9022668,39.0771757],[115.9025623,39.0774894],[115.9027604,39.0775606],[115.9030053,39.0776947],[115.90317,39.0777983],[115.9033373,39.077915],[115.9035328,39.0780885],[115.9036763,39.07823],[115.9037401,39.0783635],[115.9038376,39.0784493],[115.9039343,39.0785778],[115.9040592,39.0787331],[115.9041472,39.0788675],[115.9041724,39.0789032],[115.9044427,39.0788786],[115.9048157,39.078927],[115.9050755,39.0790016],[115.9055175,39.0791135],[115.9059124,39.0792405],[115.9060387,39.0792771],[115.9064405,39.079482],[115.9068454,39.079774],[115.9073135,39.0802281],[115.9075965,39.0806126],[115.9077717,39.0808813],[115.9079353,39.0811722],[115.9080625,39.081562],[115.9082778,39.0820387],[115.908578,39.0823815],[115.9089437,39.0826341],[115.9097844,39.082728],[115.9101183,39.0831281],[115.9102056,39.0836116],[115.910139,39.0841201],[115.9101994,39.0844523],[115.9107003,39.0848328],[115.9111823,39.0849911],[115.9117689,39.0849145],[115.912275,39.0847566],[115.9127074,39.0846011],[115.9127099,39.0846952],[115.9124162,39.0848036],[115.9120693,39.084951],[115.9116372,39.085063],[115.9112703,39.0851174],[115.9107394,39.0851554],[115.910359,39.0852019],[115.9100598,39.0852435],[115.90968,39.085388],[115.9093648,39.0855548],[115.9091004,39.0857142],[115.9086613,39.0859262],[115.9082415,39.0861261],[115.9081479,39.0864118],[115.9082022,39.0867921],[115.9080964,39.0868128],[115.9080374,39.0864888],[115.9078564,39.0862137],[115.9074759,39.0858767],[115.9072501,39.0856941],[115.9070457,39.0855137],[115.9067422,39.0852278],[115.9065552,39.0850427],[115.9064042,39.0848168],[115.9062452,39.0844519],[115.906184,39.0841581],[115.9062056,39.0838363],[115.9063136,39.0835813],[115.9064136,39.0833069],[115.9066786,39.083021],[115.9069402,39.0827787],[115.9071545,39.082551],[115.9073626,39.0822963],[115.9075114,39.0819777],[115.9075934,39.0817272],[115.9076315,39.081434],[115.9076208,39.0811196],[115.9075185,39.080858],[115.9073708,39.0805755],[115.9071916,39.0803408],[115.906938,39.0800761],[115.9066245,39.0798281],[115.9062423,39.0795652],[115.9059933,39.0794153],[115.9054455,39.079209],[115.9048811,39.0790484],[115.904345,39.0789877],[115.9039177,39.0789947],[115.9034367,39.0789355],[115.9031923,39.0790307],[115.9028762,39.0791844],[115.9026346,39.0792652],[115.9025776,39.0793275]]]}}],"metadata":{"source":"OpenStreetMap closed ways","bounds":[115.90828963276576,39.062777698808816,115.9245495561398,39.075401684381404],"kind":"water","featureCount":3,"intersectionId":"demo_18","radiusMeters":700,"fallback":"Baidu vector base map"}}
