{"type":"FeatureCollection","features":[{"type":"Feature","id":"way/1195186175","properties":{"osm_id":"1195186175","class":"water"},"geometry":{"type":"Polygon","coordinates":[[[116.1544722,39.014599],[116.1547673,39.0142155],[116.155647,39.0136153],[116.1558831,39.0134069],[116.1567628,39.0114895],[116.1583507,39.0087217],[116.1592734,39.0076379],[116.1594021,39.0075379],[116.1596596,39.0074045],[116.1598849,39.0073545],[116.1612153,39.0072044],[116.1616337,39.0072044],[116.161977,39.0071127],[116.1631679,39.0059455],[116.1665797,39.0042697],[116.1708712,39.0022771],[116.1744654,39.0004428],[116.1780703,38.9986751],[116.1792505,38.997958],[116.1804092,38.9974911],[116.1816108,38.9971326],[116.1830163,38.9963655],[116.1858487,38.9948645],[116.1879623,38.9938306],[116.1902293,38.9927466],[116.2006867,39.0019602],[116.1996996,39.0022854],[116.1983371,39.0028607],[116.1903441,39.0079131],[116.1878657,39.0095137],[116.1862993,39.0101056],[116.1851406,39.0107142],[116.1787033,39.014699],[116.1724591,39.0185502],[116.1667728,39.0219344],[116.1544722,39.014599]]]}},{"type":"Feature","id":"way/1195186176","properties":{"osm_id":"1195186176","class":"water"},"geometry":{"type":"Polygon","coordinates":[[[116.1442852,39.040453],[116.1467314,39.0385113],[116.1514628,39.0347779],[116.1544883,39.0322027],[116.1548316,39.0317694],[116.1551857,39.0299525],[116.1554003,39.0292857],[116.1559152,39.0286356],[116.1579001,39.0273188],[116.1636722,39.0238515],[116.1642837,39.0235681],[116.1644554,39.0234847],[116.1654317,39.0228679],[116.1667728,39.0219344],[116.1544722,39.014599],[116.1542201,39.0151241],[116.1539894,39.0152784],[116.1535871,39.0153617],[116.1525893,39.0154326],[116.1523211,39.0155118],[116.1522353,39.0155451],[116.1520797,39.015641],[116.1519885,39.0157285],[116.1517739,39.0160661],[116.1515272,39.0169706],[116.15098,39.0187461],[116.1504918,39.0196547],[116.1495262,39.0205674],[116.1476594,39.022547],[116.1460447,39.0241307],[116.1447358,39.0251392],[116.1427724,39.026377],[116.1403745,39.0276855],[116.1381,39.0288065],[116.1374134,39.0291232],[116.1373115,39.0291482],[116.1370861,39.0292857],[116.1367857,39.0297025],[116.1363995,39.0299275],[116.1442852,39.040453]]]}}],"metadata":{"source":"OpenStreetMap closed ways","bounds":[116.13865055576164,39.01268584936007,116.15489895361071,39.025309834932656],"kind":"water","featureCount":2,"intersectionId":"demo_10","radiusMeters":700,"fallback":"Baidu vector base map"}}
