{"type":"FeatureCollection","features":[{"type":"Feature","id":"way/1040215877","properties":{"osm_id":"1040215877","class":"green"},"geometry":{"type":"Polygon","coordinates":[[[116.1670851,39.0397071],[116.1658566,39.0380487],[116.1678039,39.0372279],[116.1677825,39.037157],[116.1682599,39.0370404],[116.1691021,39.0381737],[116.1691611,39.0385487],[116.1690377,39.0387946],[116.1670851,39.0397071]]]}}],"metadata":{"source":"OpenStreetMap closed ways","bounds":[116.1661784404999,39.03335945430862,116.18243159160765,39.04598343988121],"kind":"green","featureCount":1,"intersectionId":"demo_7","radiusMeters":700,"fallback":"Baidu vector base map"}}
