{"type":"FeatureCollection","features":[{"type":"Feature","id":"way/1195186176","properties":{"osm_id":"1195186176","class":"water"},"geometry":{"type":"Polygon","coordinates":[[[116.1442852,39.040453],[116.1467314,39.0385113],[116.1514628,39.0347779],[116.1544883,39.0322027],[116.1548316,39.0317694],[116.1551857,39.0299525],[116.1554003,39.0292857],[116.1559152,39.0286356],[116.1579001,39.0273188],[116.1636722,39.0238515],[116.1642837,39.0235681],[116.1644554,39.0234847],[116.1654317,39.0228679],[116.1667728,39.0219344],[116.1544722,39.014599],[116.1542201,39.0151241],[116.1539894,39.0152784],[116.1535871,39.0153617],[116.1525893,39.0154326],[116.1523211,39.0155118],[116.1522353,39.0155451],[116.1520797,39.015641],[116.1519885,39.0157285],[116.1517739,39.0160661],[116.1515272,39.0169706],[116.15098,39.0187461],[116.1504918,39.0196547],[116.1495262,39.0205674],[116.1476594,39.022547],[116.1460447,39.0241307],[116.1447358,39.0251392],[116.1427724,39.026377],[116.1403745,39.0276855],[116.1381,39.0288065],[116.1374134,39.0291232],[116.1373115,39.0291482],[116.1370861,39.0292857],[116.1367857,39.0297025],[116.1363995,39.0299275],[116.1442852,39.040453]]]}}],"metadata":{"source":"OpenStreetMap closed ways","bounds":[116.1661784404999,39.03335945430862,116.18243159160765,39.04598343988121],"kind":"water","featureCount":1,"intersectionId":"demo_7","radiusMeters":700,"fallback":"Baidu vector base map"}}
