{"type":"FeatureCollection","features":[{"type":"Feature","id":"way/495266523","properties":{"osm_id":"495266523","class":"green"},"geometry":{"type":"Polygon","coordinates":[[[116.1007422,38.9915833],[116.1033327,38.9913721],[116.1035741,38.9931607],[116.1009836,38.9933719],[116.1007422,38.9915833]]]}},{"type":"Feature","id":"way/641538718","properties":{"osm_id":"641538718","class":"green"},"geometry":{"type":"Polygon","coordinates":[[[115.8627935,39.0597131],[115.8629578,39.058772],[115.8637398,39.0588544],[115.8635755,39.0597955],[115.8627935,39.0597131]]]}},{"type":"Feature","id":"way/916884499","properties":{"osm_id":"916884499","class":"green"},"geometry":{"type":"Polygon","coordinates":[[[115.8673056,39.0674496],[115.8673481,39.0661433],[115.867382,39.0660997],[115.8709306,39.0662553],[115.8710431,39.066385],[115.870939,39.0676214],[115.8708135,39.0677201],[115.8674008,39.0675149],[115.8673056,39.0674496]]]}},{"type":"Feature","id":"way/916884508","properties":{"osm_id":"916884508","class":"green"},"geometry":{"type":"Polygon","coordinates":[[[115.9043507,39.0548681],[115.9044421,39.0456339],[115.8975864,39.0443444],[115.8976189,39.0549128],[115.9043507,39.0548681]]]}},{"type":"Feature","id":"way/917242901","properties":{"osm_id":"917242901","class":"green"},"geometry":{"type":"Polygon","coordinates":[[[115.9042611,39.0698524],[115.9043451,39.0706788],[115.9044516,39.071726],[115.8986218,39.0706349],[115.8984872,39.0703222],[115.8984661,39.0700626],[115.8977365,39.0688465],[115.8977365,39.0636152],[115.9042666,39.0656753],[115.904343,39.0675883],[115.9048176,39.0682134],[115.9042611,39.0698524]]]}},{"type":"Feature","id":"way/921069278","properties":{"osm_id":"921069278","class":"green"},"geometry":{"type":"Polygon","coordinates":[[[115.8855442,39.0397284],[115.8863354,39.0386739],[115.8880077,39.039065],[115.8876301,39.0402871],[115.8855442,39.0397284]]]}},{"type":"Feature","id":"way/921069283","properties":{"osm_id":"921069283","class":"green"},"geometry":{"type":"Polygon","coordinates":[[[115.8826468,39.0590844],[115.8826821,39.0571343],[115.88406,39.0571324],[115.8863371,39.0571423],[115.8862955,39.0585014],[115.8862981,39.0599168],[115.8861047,39.0598862],[115.8844767,39.0594241],[115.8836621,39.0592295],[115.8828691,39.0591044],[115.8826468,39.0590844]]]}},{"type":"Feature","id":"way/988787501","properties":{"osm_id":"988787501","class":"green"},"geometry":{"type":"Polygon","coordinates":[[[115.9488762,39.1003531],[115.9485208,39.0975882],[115.9485099,39.0969048],[115.9485099,39.0962214],[115.9485208,39.0955379],[115.9485438,39.0948207],[115.9485788,39.0941038],[115.9486258,39.0933873],[115.949878,39.0813162],[115.9476806,39.0801748],[115.9473774,39.0800891],[115.9470715,39.0800093],[115.9467632,39.0799354],[115.9464526,39.0798675],[115.9460686,39.0797925],[115.9456819,39.0797267],[115.9452927,39.0796702],[115.9449014,39.0796229],[115.9267886,39.0776788],[115.92613,39.0775889],[115.9254729,39.0774927],[115.9248174,39.0773903],[115.924205,39.0772887],[115.9235942,39.0771817],[115.922985,39.0770692],[115.9223775,39.0769513],[115.9113014,39.074706],[115.9058845,39.073599],[115.9056547,39.0735625],[115.905423,39.0735345],[115.9051898,39.073515],[115.9049557,39.0735041],[115.9047212,39.0735018],[115.9044978,39.0735076],[115.904275,39.0735212],[115.9040531,39.0735426],[115.9038328,39.0735717],[115.9036144,39.0736084],[115.9012513,39.0741541],[115.9010539,39.0741791],[115.9008554,39.074198],[115.9006554,39.0742106],[115.9004549,39.0742169],[115.9002542,39.0742169],[115.9000537,39.0742106],[115.8998536,39.074198],[115.8984075,39.0740286],[115.8855621,39.0715951],[115.8851089,39.0715188],[115.8846537,39.0714498],[115.8841968,39.0713881],[115.8837502,39.0713352],[115.8833022,39.0712893],[115.8828532,39.0712505],[115.8824033,39.0712188],[115.8716915,39.0706513],[115.8716542,39.0891345],[115.8714628,39.0891134],[115.8712685,39.0891265],[115.8711719,39.0919494],[115.8709359,39.0945308],[115.8762876,39.0948169],[115.8812076,39.0954],[115.8825568,39.0955317],[115.8832354,39.0955442],[115.8833404,39.0984221],[115.8899328,39.1018202],[115.8916778,39.1004158],[115.8919283,39.1002842],[115.8921868,39.1001964],[115.8924615,39.1001462],[115.8927442,39.1001337],[115.893027,39.10014],[115.8933098,39.1001588],[115.8941823,39.1002465],[115.8947478,39.1002842],[115.8950386,39.1002842],[115.8953295,39.1002716],[115.8959112,39.1002027],[115.8961858,39.1001525],[115.898149,39.099908],[115.8987226,39.0998077],[115.8993043,39.0997011],[115.899579,39.0996572],[115.9001445,39.099607],[115.9004353,39.0996008],[115.9007181,39.0996008],[115.9010008,39.0996133],[115.9012836,39.0996321],[115.9024308,39.0996321],[115.9027136,39.099607],[115.9029802,39.0995443],[115.9032468,39.0994691],[115.9040385,39.0992246],[115.9043132,39.0991744],[115.9074397,39.0986541],[115.9077709,39.0986227],[115.9080618,39.0986164],[115.9083445,39.0986164],[115.9086273,39.0986352],[115.9092009,39.0986478],[115.9094756,39.0986102],[115.9097503,39.0985663],[115.9100169,39.098491],[115.9102915,39.0984283],[115.9105743,39.0984033],[115.9108651,39.0984033],[115.9111479,39.0984346],[115.9117054,39.09856],[115.9119881,39.0986039],[115.9225391,39.0984472],[115.9235247,39.0984848],[115.9237994,39.0985475],[115.9240741,39.0986227],[115.9243326,39.098723],[115.92632,39.0998829],[115.9265705,39.100002],[115.9302383,39.1016634],[115.9304968,39.101745],[115.934714,39.1027857],[115.9380667,39.1034377],[115.9400541,39.1039768],[115.9412498,39.1041649],[115.9423243,39.1041461],[115.9425366,39.1041034],[115.9427459,39.1040524],[115.9429516,39.1039933],[115.9431533,39.1039263],[115.9433503,39.1038514],[115.9435292,39.1037749],[115.9437033,39.103692],[115.9438722,39.1036028],[115.9440355,39.1035075],[115.9441929,39.1034064],[115.944344,39.1032998],[115.9465818,39.101444],[115.9475352,39.1008798],[115.9488762,39.1003531]]]}},{"type":"Feature","id":"way/993475608","properties":{"osm_id":"993475608","class":"green"},"geometry":{"type":"Polygon","coordinates":[[[116.0592495,39.047456],[116.0610612,39.0462978],[116.0611659,39.0465084],[116.0612522,39.0482169],[116.0592495,39.047456]]]}},{"type":"Feature","id":"way/995537897","properties":{"osm_id":"995537897","class":"green"},"geometry":{"type":"Polygon","coordinates":[[[115.8463111,39.0461173],[115.8461837,39.0458039],[115.8462545,39.0443196],[115.8476489,39.0443196],[115.847656,39.0460183],[115.8475923,39.0461173],[115.8475145,39.0461943],[115.8463819,39.0462052],[115.8463111,39.0461173]]]}},{"type":"Feature","id":"way/1001688829","properties":{"osm_id":"1001688829","class":"green"},"geometry":{"type":"Polygon","coordinates":[[[115.9225785,39.0627686],[115.9239307,39.0627475],[115.923977,39.0648111],[115.926276,39.0648088],[115.9262795,39.0628052],[115.9263852,39.0628198],[115.9263783,39.0624992],[115.9263767,39.0624688],[115.9263446,39.0621687],[115.9263446,39.0620385],[115.9263395,39.0620027],[115.9263303,39.0619856],[115.9263076,39.0619678],[115.9262859,39.0619572],[115.9262588,39.061949],[115.9262332,39.0619431],[115.9261974,39.06194],[115.9258311,39.061937],[115.9258066,39.060203],[115.9258555,39.0595675],[115.9261161,39.058607],[115.9263381,39.0586183],[115.9269426,39.0578336],[115.9277762,39.0578372],[115.9283751,39.0577853],[115.9288035,39.057837],[115.9300572,39.0578402],[115.9314525,39.0580982],[115.9332963,39.058111],[115.9334532,39.0580826],[115.9335249,39.058064],[115.9337739,39.0580207],[115.9357916,39.0578046],[115.9386695,39.0575688],[115.9412041,39.0575753],[115.9451929,39.0565682],[115.9477397,39.0559251],[115.9494688,39.0557913],[115.9494116,39.0547035],[115.949062,39.0546085],[115.9434982,39.0561299],[115.9412755,39.0561567],[115.9356582,39.0561141],[115.9311173,39.0550372],[115.9294208,39.0546286],[115.9285808,39.0545687],[115.9285156,39.0547811],[115.9278499,39.0547714],[115.9276843,39.0542959],[115.9266156,39.0543231],[115.9263949,39.0543526],[115.9262206,39.0533529],[115.9260069,39.0528712],[115.925907,39.0527821],[115.9231334,39.0527604],[115.9201021,39.0595314],[115.9217371,39.0601344],[115.9226227,39.0615626],[115.9225785,39.0627686]]]}},{"type":"Feature","id":"way/1001688831","properties":{"osm_id":"1001688831","class":"green"},"geometry":{"type":"Polygon","coordinates":[[[115.9195029,39.059406],[115.9118227,39.0570116],[115.9122518,39.0562385],[115.9199522,39.0585729],[115.9195029,39.059406]]]}},{"type":"Feature","id":"way/1001688832","properties":{"osm_id":"1001688832","class":"green"},"geometry":{"type":"Polygon","coordinates":[[[115.9046779,39.0552651],[115.8973825,39.0552614],[115.8946275,39.0555233],[115.8946274,39.0572662],[115.8866923,39.0571865],[115.8866971,39.059335],[115.8917393,39.0593156],[115.8938079,39.0597868],[115.8938378,39.060122],[115.8961209,39.0606685],[115.8960676,39.0624215],[115.9024132,39.064522],[115.9024353,39.0642878],[115.9022616,39.0640324],[115.9019974,39.0638047],[115.9017438,39.0634673],[115.9011644,39.0631758],[115.9009311,39.0628717],[115.9008935,39.0624781],[115.9006414,39.0621199],[115.900239,39.0618137],[115.8999852,39.0614381],[115.8999896,39.060862],[115.9004161,39.0603246],[115.900467,39.0598831],[115.9003597,39.0594124],[115.8999594,39.0589374],[115.8996785,39.0582752],[115.8995926,39.0579128],[115.8996248,39.0575004],[115.8997107,39.0571589],[115.8997375,39.0569277],[115.8998018,39.0566777],[115.8999011,39.0565549],[115.900172,39.0564299],[115.9004697,39.0562279],[115.9007111,39.0561341],[115.9010062,39.056157],[115.9012422,39.0560987],[115.9016164,39.0559894],[115.9021193,39.0559946],[115.9025618,39.0560633],[115.9031634,39.0560019],[115.9037232,39.0558738],[115.9041551,39.0557092],[115.9045944,39.055511],[115.9046701,39.0553906],[115.9046779,39.0552651]]]}},{"type":"Feature","id":"way/1001688833","properties":{"osm_id":"1001688833","class":"green"},"geometry":{"type":"Polygon","coordinates":[[[115.9212082,39.074406],[115.9239741,39.0749983],[115.9238654,39.0743579],[115.9233337,39.0712222],[115.9259633,39.0657109],[115.9260314,39.0651291],[115.9240831,39.0651502],[115.9240422,39.0675304],[115.9213268,39.0741182],[115.9212082,39.074406]]]}},{"type":"Feature","id":"way/1001688834","properties":{"osm_id":"1001688834","class":"green"},"geometry":{"type":"Polygon","coordinates":[[[115.9044516,39.071726],[115.9043451,39.0706788],[115.9160652,39.0735949],[115.9213268,39.0741182],[115.9212082,39.074406],[115.9239741,39.0749983],[115.9238654,39.0743579],[115.9245059,39.0749198],[115.9271423,39.0756761],[115.9319136,39.0756981],[115.9321179,39.0749154],[115.9336575,39.0750106],[115.9341566,39.0745199],[115.9343115,39.0740692],[115.9380856,39.075127],[115.9389576,39.0752856],[115.9386169,39.0762376],[115.9333714,39.0763751],[115.9275673,39.0762164],[115.9186703,39.0750529],[115.9088604,39.0728423],[115.9044516,39.071726]]]}},{"type":"Feature","id":"way/1003924502","properties":{"osm_id":"1003924502","class":"green"},"geometry":{"type":"Polygon","coordinates":[[[116.0817319,38.9835024],[116.0815367,38.9833128],[116.0812928,38.9828703],[116.0811952,38.9823141],[116.081179,38.9813408],[116.0808862,38.9813281],[116.0809513,38.9802157],[116.0810326,38.9795078],[116.0809188,38.9790653],[116.0805285,38.9791159],[116.0804797,38.978863],[116.0809676,38.9788378],[116.0809025,38.9780793],[116.0805773,38.9768151],[116.0803984,38.9756646],[116.0804634,38.974944],[116.0811952,38.9746406],[116.0822035,38.9741349],[116.0842687,38.9736545],[116.0859599,38.9732373],[116.087456,38.9728327],[116.0883179,38.9727569],[116.0890009,38.9729212],[116.0899441,38.9731109],[116.0903181,38.9732626],[116.090432,38.9736292],[116.0904482,38.974274],[116.0891148,38.9745268],[116.0877162,38.9747923],[116.0867405,38.9753992],[116.0865454,38.9759807],[116.0857973,38.9758669],[116.0849029,38.9758922],[116.0844313,38.9757405],[116.0842037,38.9758037],[116.084041,38.9762841],[116.0834719,38.9767139],[116.0832117,38.9774472],[116.0829515,38.9781298],[116.0827238,38.9792929],[116.0827726,38.9801272],[116.082984,38.9809362],[116.0833906,38.9833886],[116.0817319,38.9835024]]]}},{"type":"Feature","id":"way/1004385668","properties":{"osm_id":"1004385668","class":"green"},"geometry":{"type":"Polygon","coordinates":[[[116.0155102,38.9855549],[116.0139003,38.9859973],[116.0147947,38.9877922],[116.014811,38.9887718],[116.0149248,38.9893658],[116.0150712,38.9896818],[116.0153639,38.9901053],[116.015681,38.9904149],[116.0159818,38.9907309],[116.0161607,38.9909268],[116.0162908,38.9911923],[116.0164778,38.9915841],[116.0165591,38.9920897],[116.0166974,38.9924246],[116.0168844,38.9927216],[116.0170307,38.9929365],[116.0172096,38.993303],[116.0173722,38.9935874],[116.0174454,38.9938339],[116.0176243,38.994232],[116.0178357,38.9947059],[116.0179739,38.9950851],[116.0181528,38.995578],[116.0183479,38.9959951],[116.0185187,38.9963995],[116.018722,38.996804],[116.0188927,38.9971894],[116.0194944,38.9986807],[116.0192586,38.999142],[116.019161,38.9993695],[116.0191773,38.9996475],[116.019218,38.9998434],[116.0195188,39.0005259],[116.0205677,39.0009619],[116.0209661,39.0017201],[116.0209986,39.0019223],[116.0209092,39.0026743],[116.0208767,39.0033819],[116.021023,39.004216],[116.020836,39.0046014],[116.0205108,39.005366],[116.0207872,39.0061431],[116.0215434,39.0064022],[116.0219662,39.0063706],[116.0219906,39.006598],[116.0219418,39.0070403],[116.0220882,39.0075458],[116.0223484,39.0077164],[116.0221288,39.0102815],[116.0241209,39.0110966],[116.0253649,39.0112356],[116.0281051,39.017888],[116.0321299,39.0268517],[116.0336504,39.0265359],[116.0155102,38.9855549]]]}},{"type":"Feature","id":"way/1004385669","properties":{"osm_id":"1004385669","class":"green"},"geometry":{"type":"Polygon","coordinates":[[[116.0336504,39.0265359],[116.0340777,39.0278464],[116.0345655,39.0291476],[116.0348745,39.0294129],[116.0350534,39.0308277],[116.0350534,39.0323436],[116.032419,39.0418296],[116.0314107,39.0456439],[116.0240929,39.0461365],[116.0245482,39.0448609],[116.0307928,39.0423096],[116.0315896,39.0398719],[116.032547,39.0366467],[116.0326906,39.0358111],[116.0329866,39.035166],[116.0331345,39.0346679],[116.0328906,39.0334678],[116.0329393,39.0327099],[116.0332971,39.0318383],[116.0333296,39.030714],[116.0330207,39.0288571],[116.0321299,39.0268517],[116.0336504,39.0265359]]]}},{"type":"Feature","id":"way/1004385670","properties":{"osm_id":"1004385670","class":"green"},"geometry":{"type":"Polygon","coordinates":[[[116.0273127,39.0865018],[116.0316221,39.0841161],[116.0276055,39.0793571],[116.0260443,39.0765799],[116.0251011,39.0753048],[116.0252312,39.0724643],[116.0251987,39.071227],[116.0247974,39.0711521],[116.0232337,39.0708601],[116.0230835,39.0713932],[116.0232766,39.0717431],[116.0234053,39.0721429],[116.0229547,39.0728092],[116.0216029,39.0735922],[116.0217102,39.0746583],[116.0215171,39.0755578],[116.0209163,39.0763074],[116.0193713,39.0770071],[116.0190065,39.0774235],[116.0193284,39.0777566],[116.0189421,39.0780232],[116.0191996,39.0784229],[116.0185988,39.0786561],[116.0187276,39.0790559],[116.0197361,39.0786561],[116.0203369,39.0786228],[116.0205515,39.0789226],[116.021045,39.0788394],[116.0211952,39.0785895],[116.0216244,39.0786728],[116.0221823,39.0785395],[116.0234697,39.0775234],[116.0246499,39.0780898],[116.0257871,39.0785229],[116.0263665,39.0791892],[116.0266884,39.0798554],[116.0267527,39.0807549],[116.0266025,39.0814711],[116.0263021,39.0820541],[116.0260446,39.0827537],[116.0259373,39.0833366],[116.0260232,39.0840529],[116.0263665,39.0846192],[116.0269673,39.0850355],[116.0273106,39.0854186],[116.0274608,39.0859183],[116.0273127,39.0865018]]]}},{"type":"Feature","id":"way/1004385671","properties":{"osm_id":"1004385671","class":"green"},"geometry":{"type":"Polygon","coordinates":[[[116.0232337,39.0708601],[116.0280402,39.0537659],[116.0279973,39.0532827],[116.0277612,39.0527994],[116.0272248,39.0526495],[116.0262807,39.0526495],[116.0254867,39.0526828],[116.024843,39.0524828],[116.0243495,39.0520996],[116.024328,39.0518163],[116.0241993,39.0512664],[116.0217531,39.0513497],[116.0218389,39.0518663],[116.0183199,39.0526828],[116.0184057,39.0507332],[116.0192211,39.0506832],[116.0190924,39.0479836],[116.023577,39.0477503],[116.023856,39.0467171],[116.0313661,39.0462005],[116.0302126,39.0505827],[116.0247974,39.0711521],[116.0232337,39.0708601]]]}},{"type":"Feature","id":"way/1005075670","properties":{"osm_id":"1005075670","class":"green"},"geometry":{"type":"Polygon","coordinates":[[[115.9338143,39.0288147],[115.9334081,39.0275037],[115.9355298,39.0274877],[115.9357909,39.0288028],[115.9338143,39.0288147]]]}},{"type":"Feature","id":"way/1040215869","properties":{"osm_id":"1040215869","class":"green"},"geometry":{"type":"Polygon","coordinates":[[[116.1475595,39.049134],[116.1504244,39.0480324],[116.152116,39.0496566],[116.148893,39.0510476],[116.1475595,39.049134]]]}},{"type":"Feature","id":"way/1040215875","properties":{"osm_id":"1040215875","class":"green"},"geometry":{"type":"Polygon","coordinates":[[[116.158049,39.0634568],[116.1568044,39.0617907],[116.1573302,39.0615741],[116.1579524,39.0613616],[116.158462,39.061295],[116.1589502,39.0612492],[116.1597227,39.062757],[116.158049,39.0634568]]]}},{"type":"Feature","id":"way/1040215876","properties":{"osm_id":"1040215876","class":"green"},"geometry":{"type":"Polygon","coordinates":[[[116.1596798,39.0656726],[116.1584245,39.0638108],[116.158625,39.0637179],[116.1584406,39.0634693],[116.1607687,39.0624571],[116.1608814,39.0624571],[116.1610262,39.062732],[116.1599426,39.0631902],[116.1609994,39.0651145],[116.1596798,39.0656726]]]}},{"type":"Feature","id":"way/1040215877","properties":{"osm_id":"1040215877","class":"green"},"geometry":{"type":"Polygon","coordinates":[[[116.1670851,39.0397071],[116.1658566,39.0380487],[116.1678039,39.0372279],[116.1677825,39.037157],[116.1682599,39.0370404],[116.1691021,39.0381737],[116.1691611,39.0385487],[116.1690377,39.0387946],[116.1670851,39.0397071]]]}},{"type":"Feature","id":"way/1075564151","properties":{"osm_id":"1075564151","class":"green"},"geometry":{"type":"Polygon","coordinates":[[[116.1509951,39.0566965],[116.1510079,39.0567291],[116.1510488,39.0567971],[116.1510873,39.056818],[116.1511247,39.0568198],[116.1511632,39.056798],[116.1511842,39.0567518],[116.1511927,39.0567033],[116.1511942,39.0566542],[116.1511885,39.0566261],[116.1511666,39.0566061],[116.1511236,39.0566025],[116.1510736,39.0566129],[116.151031,39.0566296],[116.1509985,39.0566526],[116.1509898,39.0566746],[116.1509951,39.0566965]]]}},{"type":"Feature","id":"way/1075564152","properties":{"osm_id":"1075564152","class":"green"},"geometry":{"type":"Polygon","coordinates":[[[116.1512625,39.0566158],[116.1512718,39.0566657],[116.151301,39.0566965],[116.1513337,39.0566974],[116.1513629,39.056682],[116.1513722,39.0566548],[116.151373,39.0566286],[116.1513757,39.0565904],[116.1513696,39.0565527],[116.1513594,39.0565369],[116.1513383,39.056536],[116.1513185,39.0565387],[116.1512893,39.0565523],[116.1512753,39.056565],[116.1512636,39.0565913],[116.1512625,39.0566158]]]}},{"type":"Feature","id":"way/1075564153","properties":{"osm_id":"1075564153","class":"green"},"geometry":{"type":"Polygon","coordinates":[[[116.1511518,39.0557461],[116.1511444,39.0557634],[116.1511472,39.0557795],[116.1511589,39.0557942],[116.1512279,39.0558822],[116.1512916,39.0559811],[116.1513447,39.0561006],[116.1513907,39.0562147],[116.1514226,39.0563191],[116.1514456,39.0564373],[116.1514704,39.0565404],[116.1514881,39.0565747],[116.1515075,39.0565885],[116.1515275,39.056584],[116.1515334,39.0565767],[116.1515293,39.0565577],[116.1514983,39.0564548],[116.1514809,39.0563711],[116.1514632,39.0562666],[116.1514376,39.0561485],[116.1514039,39.0560564],[116.151342,39.0559217],[116.1512748,39.0558345],[116.151219,39.0557761],[116.1511987,39.0557561],[116.1511774,39.0557486],[116.1511518,39.0557461]]]}},{"type":"Feature","id":"way/1075564154","properties":{"osm_id":"1075564154","class":"green"},"geometry":{"type":"Polygon","coordinates":[[[116.1514073,39.0559632],[116.1515266,39.0560778],[116.1516017,39.0561871],[116.1516393,39.0562954],[116.1516513,39.0563839],[116.151646,39.056461],[116.1516125,39.0565193],[116.1515883,39.0565391],[116.1515682,39.0564496],[116.1515333,39.056309],[116.1514958,39.0561861],[116.1514636,39.0560799],[116.1514073,39.0559632]]]}},{"type":"Feature","id":"way/1075564155","properties":{"osm_id":"1075564155","class":"green"},"geometry":{"type":"Polygon","coordinates":[[[116.1515651,39.0558031],[116.151539,39.055833],[116.1515266,39.0558796],[116.1515436,39.0559179],[116.1515882,39.0559825],[116.1516499,39.0560435],[116.1516961,39.0560842],[116.1517469,39.0561141],[116.1517623,39.0561069],[116.1517639,39.0560818],[116.1516884,39.0559418],[116.1516468,39.0558617],[116.1516191,39.0558222],[116.151599,39.0558043],[116.1515651,39.0558031]]]}},{"type":"Feature","id":"way/1075564156","properties":{"osm_id":"1075564156","class":"green"},"geometry":{"type":"Polygon","coordinates":[[[116.1512201,39.0556033],[116.1512355,39.0555734],[116.1512694,39.0555543],[116.1513294,39.0555459],[116.1513895,39.055559],[116.1514234,39.0555866],[116.1514681,39.0556296],[116.151522,39.0556978],[116.1515266,39.0557481],[116.1515097,39.0557899],[116.1514789,39.0558174],[116.1514481,39.0558198],[116.151428,39.0558091],[116.1512601,39.0556583],[116.1512293,39.0556272],[116.1512201,39.0556033]]]}},{"type":"Feature","id":"way/1075564157","properties":{"osm_id":"1075564157","class":"green"},"geometry":{"type":"Polygon","coordinates":[[[116.1526305,39.0574944],[116.1526716,39.0574988],[116.1527097,39.0574853],[116.1527487,39.0574489],[116.1527636,39.0574018],[116.1527495,39.0573653],[116.1527233,39.0573139],[116.1526736,39.0572438],[116.1526196,39.0572159],[116.1525643,39.0572067],[116.1525183,39.057214],[116.1525004,39.0572336],[116.1525026,39.0572524],[116.1525886,39.0574402],[116.1526082,39.0574764],[116.1526305,39.0574944]]]}},{"type":"Feature","id":"way/1075564158","properties":{"osm_id":"1075564158","class":"green"},"geometry":{"type":"Polygon","coordinates":[[[116.1525769,39.0571628],[116.1525305,39.0571657],[116.1524722,39.057151],[116.1524376,39.0571207],[116.1523873,39.0570586],[116.1523494,39.0569869],[116.1523266,39.0569356],[116.1523182,39.0568865],[116.1523339,39.0568797],[116.1523628,39.056891],[116.1524823,39.0570111],[116.1525515,39.0570787],[116.1525821,39.0571169],[116.1525923,39.0571393],[116.1525769,39.0571628]]]}},{"type":"Feature","id":"way/1075564159","properties":{"osm_id":"1075564159","class":"green"},"geometry":{"type":"Polygon","coordinates":[[[116.1523197,39.0571904],[116.1522502,39.0570533],[116.1521648,39.0569486],[116.152062,39.0568698],[116.1519688,39.056818],[116.1518798,39.0567836],[116.151798,39.0567775],[116.1517639,39.056784],[116.1518543,39.0568418],[116.1519946,39.0569347],[116.1521137,39.0570207],[116.1522168,39.0570948],[116.1523197,39.0571904]]]}},{"type":"Feature","id":"way/1075564160","properties":{"osm_id":"1075564160","class":"green"},"geometry":{"type":"Polygon","coordinates":[[[116.1524368,39.05747],[116.1524138,39.0574665],[116.1523972,39.0574567],[116.1523864,39.0574415],[116.152322,39.0573515],[116.1522426,39.0572597],[116.1521349,39.0571649],[116.1520298,39.0570775],[116.1519285,39.0570045],[116.1518075,39.0569306],[116.1517043,39.0568631],[116.1516745,39.0568341],[116.1516687,39.0568142],[116.1516837,39.0568029],[116.1516947,39.0568026],[116.151714,39.0568147],[116.151814,39.0568864],[116.1518991,39.0569394],[116.1520074,39.0570029],[116.1521271,39.0570786],[116.1522137,39.0571467],[116.1523339,39.057255],[116.1523985,39.0573434],[116.1524364,39.0574099],[116.1524487,39.0574335],[116.1524467,39.0574515],[116.1524368,39.05747]]]}},{"type":"Feature","id":"way/1075564161","properties":{"osm_id":"1075564161","class":"green"},"geometry":{"type":"Polygon","coordinates":[[[116.1515172,39.0569663],[116.151466,39.0569354],[116.1514458,39.0569004],[116.151461,39.0568779],[116.1514926,39.0568658],[116.1515277,39.0568729],[116.1515574,39.0568853],[116.1516015,39.0569023],[116.1516408,39.056925],[116.1516534,39.0569397],[116.151644,39.0569544],[116.1516312,39.0569664],[116.1516016,39.0569794],[116.1515804,39.0569826],[116.1515452,39.0569776],[116.1515172,39.0569663]]]}},{"type":"Feature","id":"way/1075564162","properties":{"osm_id":"1075564162","class":"green"},"geometry":{"type":"Polygon","coordinates":[[[116.1512949,39.057107],[116.1512647,39.0570823],[116.1512087,39.0570211],[116.1512044,39.0569848],[116.1512208,39.0569587],[116.1512641,39.0569434],[116.1513263,39.056952],[116.1513848,39.0569702],[116.1514405,39.0569934],[116.1514691,39.0570111],[116.1514809,39.0570358],[116.1514636,39.0570666],[116.1514273,39.0570952],[116.1513876,39.0571158],[116.1513457,39.0571264],[116.1513169,39.0571215],[116.1512949,39.057107]]]}},{"type":"Feature","id":"way/1075606202","properties":{"osm_id":"1075606202","class":"green"},"geometry":{"type":"Polygon","coordinates":[[[116.1517773,39.0565293],[116.1517793,39.0565633],[116.1518444,39.0566493],[116.151883,39.0566698],[116.1519287,39.0566856],[116.1519501,39.0566832],[116.1519552,39.0566753],[116.1519044,39.0565719],[116.1518759,39.0565356],[116.151823,39.0564804],[116.1518047,39.0564709],[116.1517905,39.0564772],[116.1517773,39.0565293]]]}},{"type":"Feature","id":"way/1076314402","properties":{"osm_id":"1076314402","class":"green"},"geometry":{"type":"Polygon","coordinates":[[[115.8506928,39.0674885],[115.8507101,39.0672934],[115.8518999,39.0673471],[115.8519221,39.067356],[115.8519348,39.067369],[115.8519438,39.0673842],[115.8519331,39.0675298],[115.8519212,39.0675463],[115.8519065,39.0675535],[115.8518866,39.0675566],[115.8506928,39.0674885]]]}},{"type":"Feature","id":"way/1076314403","properties":{"osm_id":"1076314403","class":"green"},"geometry":{"type":"Polygon","coordinates":[[[115.8520265,39.0675283],[115.8520341,39.0675455],[115.8520509,39.06756],[115.8520692,39.0675668],[115.852225,39.0675716],[115.8522441,39.0675662],[115.8522593,39.0675579],[115.8522685,39.0675437],[115.852283,39.067386],[115.8522761,39.067373],[115.8522657,39.0673635],[115.8522494,39.0673599],[115.8520807,39.0673552],[115.8520597,39.0673617],[115.8520471,39.0673712],[115.8520349,39.0673878],[115.8520265,39.0675283]]]}},{"type":"Feature","id":"way/1076314405","properties":{"osm_id":"1076314405","class":"green"},"geometry":{"type":"Polygon","coordinates":[[[115.852366,39.0675438],[115.8523706,39.0675598],[115.8523912,39.0675746],[115.8529457,39.0675979],[115.8529571,39.0674038],[115.8528114,39.0674026],[115.8528114,39.067382],[115.8523729,39.067376],[115.852366,39.0675438]]]}},{"type":"Feature","id":"way/1127568424","properties":{"osm_id":"1127568424","class":"green"},"geometry":{"type":"Polygon","coordinates":[[[115.937191,39.0298845],[115.9371991,39.0282236],[115.9383895,39.0282272],[115.938381,39.0298881],[115.937191,39.0298845]]]}},{"type":"Feature","id":"way/1127568436","properties":{"osm_id":"1127568436","class":"green"},"geometry":{"type":"Polygon","coordinates":[[[115.9388565,39.029616],[115.9388541,39.0286635],[115.9393669,39.0286626],[115.9393696,39.0296152],[115.9388565,39.029616]]]}},{"type":"Feature","id":"way/1127568438","properties":{"osm_id":"1127568438","class":"green"},"geometry":{"type":"Polygon","coordinates":[[[115.9371457,39.024811],[115.9371151,39.0247696],[115.9371115,39.0236808],[115.9385626,39.0236491],[115.9385777,39.024824],[115.9371457,39.024811]]]}},{"type":"Feature","id":"way/1135154543","properties":{"osm_id":"1135154543","class":"green"},"geometry":{"type":"Polygon","coordinates":[[[116.0852404,39.0152606],[116.0858211,39.0152971],[116.0859628,39.0139345],[116.0853822,39.013898],[116.0852404,39.0152606]]]}},{"type":"Feature","id":"way/1135154545","properties":{"osm_id":"1135154545","class":"green"},"geometry":{"type":"Polygon","coordinates":[[[116.0816583,39.0138695],[116.0771322,39.0135741],[116.0770369,39.0134996],[116.0770429,39.0134147],[116.0775525,39.0134496],[116.0775579,39.0134793],[116.077582,39.0135126],[116.0776263,39.0135335],[116.0817079,39.0138081],[116.0817455,39.0138206],[116.0817428,39.0138612],[116.0816771,39.0138529],[116.0816583,39.0138695]]]}},{"type":"Feature","id":"way/1135154577","properties":{"osm_id":"1135154577","class":"green"},"geometry":{"type":"Polygon","coordinates":[[[116.0886616,39.0152794],[116.0885838,39.0152377],[116.0886602,39.0145531],[116.0893233,39.0145978],[116.089301,39.0147978],[116.0889645,39.0147751],[116.0889068,39.0152913],[116.0886616,39.0152794]]]}},{"type":"Feature","id":"way/1135154578","properties":{"osm_id":"1135154578","class":"green"},"geometry":{"type":"Polygon","coordinates":[[[116.0889955,39.0150501],[116.0897425,39.015095],[116.0897631,39.0148872],[116.0890161,39.0148424],[116.0889955,39.0150501]]]}},{"type":"Feature","id":"way/1135154579","properties":{"osm_id":"1135154579","class":"green"},"geometry":{"type":"Polygon","coordinates":[[[116.0860531,39.0152533],[116.0862127,39.0137091],[116.0872051,39.0137195],[116.0877067,39.0138018],[116.0876852,39.0139998],[116.0869225,39.0139499],[116.0868584,39.0145411],[116.0876087,39.0145902],[116.087655,39.0141629],[116.0886172,39.0142259],[116.0884886,39.0154127],[116.0860531,39.0152533]]]}},{"type":"Feature","id":"way/1135154581","properties":{"osm_id":"1135154581","class":"green"},"geometry":{"type":"Polygon","coordinates":[[[116.0904224,39.0143207],[116.0903889,39.0143385],[116.0903597,39.0146423],[116.0908787,39.0146735],[116.0908341,39.01512],[116.0912434,39.0151446],[116.0912138,39.0154412],[116.0915725,39.0154628],[116.092232,39.0155025],[116.0926213,39.0155259],[116.0929191,39.0155439],[116.0926321,39.0153842],[116.0924748,39.0152967],[116.0917675,39.0149032],[116.0915677,39.0148105],[116.0909602,39.0145333],[116.0904224,39.0143207]]]}},{"type":"Feature","id":"way/1154819240","properties":{"osm_id":"1154819240","class":"green"},"geometry":{"type":"Polygon","coordinates":[[[115.898537,39.0735661],[115.8986187,39.0711494],[115.9022653,39.0718431],[115.9071228,39.0728184],[115.9119989,39.0740544],[115.9142095,39.0745668],[115.9175676,39.0752784],[115.9203103,39.0757769],[115.9228695,39.076146],[115.926722,39.0764406],[115.9268486,39.0771472],[115.9250202,39.0769427],[115.9241051,39.0768406],[115.9126332,39.0745753],[115.9064424,39.0732455],[115.9051474,39.0730278],[115.9040097,39.0730671],[115.9024721,39.0734234],[115.9017917,39.0736249],[115.9009266,39.0737408],[115.8999398,39.0737733],[115.898537,39.0735661]]]}},{"type":"Feature","id":"way/1165568669","properties":{"osm_id":"1165568669","class":"green"},"geometry":{"type":"Polygon","coordinates":[[[116.0446823,39.002105],[116.0516315,39.001657],[116.0527088,39.0001359],[116.0525722,38.9984615],[116.0561834,38.9980959],[116.0559861,38.9949356],[116.0543171,38.9941573],[116.0520563,38.9943932],[116.0510549,38.9849586],[116.0552123,38.9847699],[116.0549999,38.9743549],[116.0499018,38.9745673],[116.047641,38.9751452],[116.0465334,38.9756289],[116.0440451,38.9756525],[116.0406463,38.9740482],[116.0365041,38.9738477],[116.0348958,38.9739893],[116.0334241,38.9744611],[116.0316337,38.974756],[116.0297826,38.9745437],[116.028675,38.9739893],[116.027064,38.9743163],[116.0254759,38.9743399],[116.0236046,38.9743302],[116.0215505,38.9750616],[116.0196658,38.9764458],[116.0201933,38.9773832],[116.0199268,38.9782372],[116.0173903,38.9798198],[116.0172163,38.980584],[116.0188887,38.9845791],[116.0209823,38.9900888],[116.0259135,39.002182],[116.0274073,39.0058819],[116.0310968,39.0058078],[116.0334026,39.0050647],[116.0331364,39.0042779],[116.0338454,39.0041026],[116.0323599,39.0010123],[116.0424194,38.9995442],[116.0427627,39.0004614],[116.0446823,39.002105]]]}},{"type":"Feature","id":"way/1171875912","properties":{"osm_id":"1171875912","class":"green"},"geometry":{"type":"Polygon","coordinates":[[[115.8821722,39.0592158],[115.8821813,39.059461],[115.8820369,39.0595871],[115.8786988,39.0602456],[115.8786988,39.0579618],[115.8821722,39.0592158]]]}},{"type":"Feature","id":"way/1182162630","properties":{"osm_id":"1182162630","class":"green"},"geometry":{"type":"Polygon","coordinates":[[[115.9295286,39.0545961],[115.9307917,39.0549132],[115.9307584,39.0509719],[115.9341664,39.0510342],[115.9341983,39.0494538],[115.9357996,39.0494637],[115.9357996,39.0471798],[115.9331649,39.0472689],[115.9327124,39.0473572],[115.9332608,39.048068],[115.933232,39.0499886],[115.9296213,39.0499605],[115.9295286,39.0545961]]]}},{"type":"Feature","id":"way/1184170017","properties":{"osm_id":"1184170017","class":"green"},"geometry":{"type":"Polygon","coordinates":[[[115.8536156,39.0429637],[115.8548886,39.0429632],[115.8548923,39.0420023],[115.8536853,39.0420065],[115.8536156,39.0421107],[115.8536156,39.0429637]]]}},{"type":"Feature","id":"way/1189940958","properties":{"osm_id":"1189940958","class":"green"},"geometry":{"type":"Polygon","coordinates":[[[116.1087505,38.989071],[116.1124627,38.9887332],[116.112232,38.9871071],[116.109936,38.9873156],[116.1085896,38.9876283],[116.1087505,38.989071]]]}},{"type":"Feature","id":"way/1190073614","properties":{"osm_id":"1190073614","class":"green"},"geometry":{"type":"Polygon","coordinates":[[[115.9407145,39.0749594],[115.9410579,39.074343],[115.9416372,39.0741764],[115.9424311,39.07371],[115.9444696,39.0710613],[115.9450919,39.0708447],[115.9494907,39.0708281],[115.9494263,39.0698618],[115.9497911,39.0473349],[115.9515706,39.0476951],[115.9531824,39.0483272],[115.95496,39.0491948],[115.9555999,39.0509977],[115.9556705,39.0522841],[115.9551492,39.0581983],[115.9541685,39.0631811],[115.95316,39.0679127],[115.9514434,39.0728771],[115.9429461,39.0747262],[115.9407145,39.0749594]]]}},{"type":"Feature","id":"way/1192568460","properties":{"osm_id":"1192568460","class":"green"},"geometry":{"type":"Polygon","coordinates":[[[115.9431025,39.0337456],[115.9432604,39.0344533],[115.9442942,39.0347821],[115.9454441,39.0358966],[115.9464696,39.0374788],[115.9474545,39.0392866],[115.9475177,39.0416737],[115.9524846,39.0408006],[115.9542171,39.0407474],[115.9563064,39.0410374],[115.9562996,39.0377158],[115.9540217,39.0376884],[115.9535479,39.0373414],[115.9520442,39.0337609],[115.9500691,39.0303338],[115.9498235,39.0292193],[115.9503246,39.0275935],[115.9457305,39.0276174],[115.9457507,39.0282134],[115.9456966,39.0285909],[115.9453647,39.0289703],[115.9450396,39.0292556],[115.944632,39.0295204],[115.9437019,39.0303872],[115.9430239,39.0313718],[115.9427684,39.0324252],[115.9429158,39.0332648],[115.9431025,39.0337456]]]}},{"type":"Feature","id":"way/1192568461","properties":{"osm_id":"1192568461","class":"green"},"geometry":{"type":"Polygon","coordinates":[[[115.945785,39.0272271],[115.9456572,39.0267538],[115.945726,39.0263187],[115.947986,39.0212881],[115.9519557,39.0213187],[115.9513858,39.0237691],[115.9503148,39.0272576],[115.945785,39.0272271]]]}},{"type":"Feature","id":"way/1192568462","properties":{"osm_id":"1192568462","class":"green"},"geometry":{"type":"Polygon","coordinates":[[[115.9481727,39.0208682],[115.9485461,39.0192804],[115.9485264,39.0189139],[115.9483859,39.0185628],[115.9482808,39.018433],[115.9459126,39.0147063],[115.9456846,39.0137002],[115.9460051,39.0126261],[115.9468406,39.0125774],[115.9476145,39.0122176],[115.9462599,39.0095833],[115.9491818,39.0090483],[115.9508141,39.0122625],[115.9519543,39.0131969],[115.9537932,39.0138217],[115.9555226,39.0140279],[115.9578789,39.0136297],[115.960954,39.0132148],[115.9626075,39.0122642],[115.9638818,39.0113291],[115.9661999,39.0099023],[115.9688447,39.0118382],[115.9675628,39.0120234],[115.9661577,39.0126772],[115.9648375,39.0140016],[115.9643513,39.0145173],[115.9636519,39.0148059],[115.9630574,39.0149705],[115.9622324,39.0150405],[115.9609617,39.0150388],[115.9601355,39.0149948],[115.9595775,39.0152062],[115.9590945,39.0156178],[115.9585022,39.0157428],[115.9579099,39.0157845],[115.9575739,39.0161151],[115.9573737,39.0166388],[115.9574954,39.0169624],[115.9586005,39.0179207],[115.9596218,39.0189394],[115.9602375,39.020885],[115.9576061,39.0208503],[115.9574835,39.0193304],[115.9570526,39.018279],[115.9561575,39.0176585],[115.9557989,39.0171547],[115.9550711,39.0167107],[115.9540879,39.0164669],[115.9530887,39.0166784],[115.9522419,39.0173113],[115.9513641,39.0181341],[115.9513865,39.0187497],[115.951645,39.019232],[115.9518346,39.0208765],[115.9481727,39.0208682]]]}},{"type":"Feature","id":"way/1192568470","properties":{"osm_id":"1192568470","class":"green"},"geometry":{"type":"Polygon","coordinates":[[[115.9524498,39.0429453],[115.9524453,39.0427571],[115.9524586,39.0427358],[115.9524836,39.0427242],[115.9525269,39.0427229],[115.9525669,39.0427332],[115.9526052,39.0427591],[115.9526052,39.0428134],[115.9526185,39.0429725],[115.9526535,39.0430359],[115.9527284,39.0431044],[115.9528283,39.0431393],[115.9529749,39.0431626],[115.9539357,39.0431484],[115.9540156,39.0431264],[115.9540939,39.043076],[115.9541405,39.0430371],[115.9543037,39.0430501],[115.954416,39.0431283],[115.9540046,39.0432997],[115.9527892,39.0433365],[115.9524863,39.0432515],[115.9524498,39.0429453]]]}},{"type":"Feature","id":"way/1192568471","properties":{"osm_id":"1192568471","class":"green"},"geometry":{"type":"Polygon","coordinates":[[[115.952442,39.0426204],[115.9524803,39.0426517],[115.9525452,39.0426491],[115.9525918,39.0426181],[115.9526135,39.0425806],[115.9526035,39.0417464],[115.9525852,39.0417257],[115.9524091,39.0417114],[115.9524342,39.042292],[115.952442,39.0426204]]]}},{"type":"Feature","id":"way/1192568473","properties":{"osm_id":"1192568473","class":"green"},"geometry":{"type":"Polygon","coordinates":[[[115.953154,39.0423789],[115.9532838,39.0423795],[115.9532846,39.0422892],[115.9532447,39.0422464],[115.9527911,39.0422464],[115.9526808,39.042313],[115.9527022,39.0429343],[115.9527543,39.0430129],[115.9528524,39.0430629],[115.9529781,39.043089],[115.9539006,39.0430819],[115.954011,39.0430438],[115.9540753,39.0429724],[115.954106,39.0428939],[115.9540968,39.0423178],[115.9540447,39.0422535],[115.9535788,39.0422511],[115.9535267,39.042294],[115.9535261,39.0423682],[115.9536752,39.0423713],[115.9536757,39.0423383],[115.9539281,39.0423397],[115.9539321,39.0429399],[115.9529438,39.0429442],[115.9529365,39.0423451],[115.9531543,39.0423415],[115.953154,39.0423789]]]}},{"type":"Feature","id":"way/1192568474","properties":{"osm_id":"1192568474","class":"green"},"geometry":{"type":"Polygon","coordinates":[[[115.9537259,39.042175],[115.9540508,39.0421773],[115.954109,39.0421369],[115.9541182,39.0419202],[115.9536033,39.0418322],[115.9536095,39.0419821],[115.9537167,39.0419845],[115.9537259,39.042175]]]}},{"type":"Feature","id":"way/1192568475","properties":{"osm_id":"1192568475","class":"green"},"geometry":{"type":"Polygon","coordinates":[[[115.9531037,39.042175],[115.9527574,39.0421797],[115.9527022,39.0421273],[115.9527084,39.0417727],[115.9527452,39.0417322],[115.953303,39.0417893],[115.9532999,39.0418774],[115.9532141,39.041875],[115.9532049,39.041975],[115.9530976,39.0419845],[115.9531037,39.042175]]]}},{"type":"Feature","id":"way/1192568476","properties":{"osm_id":"1192568476","class":"green"},"geometry":{"type":"Polygon","coordinates":[[[115.9527174,39.0415963],[115.9532673,39.041655],[115.9532419,39.0411641],[115.952701,39.0411757],[115.9527174,39.0415963]]]}},{"type":"Feature","id":"way/1192568477","properties":{"osm_id":"1192568477","class":"green"},"geometry":{"type":"Polygon","coordinates":[[[115.9542201,39.0429296],[115.9541949,39.041981],[115.9542243,39.0419418],[115.954536,39.0419839],[115.9545168,39.0427471],[115.954304,39.0427406],[115.9542956,39.0429557],[115.9542201,39.0429296]]]}},{"type":"Feature","id":"way/1192568478","properties":{"osm_id":"1192568478","class":"green"},"geometry":{"type":"Polygon","coordinates":[[[115.9535527,39.0416876],[115.9541068,39.0417723],[115.9541146,39.0411754],[115.9537163,39.0411539],[115.9535902,39.0411566],[115.9536031,39.041329],[115.9535443,39.0413322],[115.9535527,39.0416876]]]}},{"type":"Feature","id":"way/1192568479","properties":{"osm_id":"1192568479","class":"green"},"geometry":{"type":"Polygon","coordinates":[[[115.9542705,39.0417984],[115.9542117,39.041756],[115.9542029,39.0411802],[115.9545557,39.0411992],[115.954539,39.0418637],[115.9542705,39.0417984]]]}},{"type":"Feature","id":"way/1196927701","properties":{"osm_id":"1196927701","class":"green"},"geometry":{"type":"Polygon","coordinates":[[[115.9576629,39.0213823],[115.958422,39.0234974],[115.9586746,39.0246609],[115.959252,39.0258524],[115.9603166,39.0268476],[115.9621209,39.0277307],[115.9635825,39.0293847],[115.9639794,39.0303378],[115.9647914,39.0308004],[115.9680573,39.0316834],[115.969988,39.0319357],[115.9714495,39.032216],[115.9731276,39.0328187],[115.9739756,39.0331411],[115.9744628,39.0337578],[115.9763403,39.0337691],[115.9755249,39.0328077],[115.9748959,39.0324543],[115.9739035,39.0318796],[115.9709623,39.0307723],[115.968779,39.0299454],[115.9670117,39.02894],[115.9657838,39.0277447],[115.9651162,39.0265112],[115.9646651,39.0256702],[115.9636005,39.0252216],[115.9626803,39.0252636],[115.9613631,39.023988],[115.9604248,39.0214508],[115.9576629,39.0213823]]]}},{"type":"Feature","id":"way/1197265063","properties":{"osm_id":"1197265063","class":"green"},"geometry":{"type":"Polygon","coordinates":[[[115.9783996,39.0407612],[115.9783389,39.0378385],[115.978263,39.0373318],[115.9780354,39.0363536],[115.9765333,39.0340082],[115.9745153,39.0339847],[115.976154,39.0369546],[115.9768975,39.0380742],[115.9770188,39.0390524],[115.9768519,39.0395002],[115.9763361,39.0400423],[115.9760781,39.0407612],[115.9783996,39.0407612]]]}},{"type":"Feature","id":"way/1198948435","properties":{"osm_id":"1198948435","class":"green"},"geometry":{"type":"Polygon","coordinates":[[[115.9199412,39.0507987],[115.920705,39.0507964],[115.9207035,39.0504963],[115.9202097,39.0504977],[115.9202106,39.050695],[115.9199407,39.0506957],[115.9199412,39.0507987]]]}},{"type":"Feature","id":"way/1203447280","properties":{"osm_id":"1203447280","class":"green"},"geometry":{"type":"Polygon","coordinates":[[[116.0067713,39.0473685],[116.0069078,39.042648],[116.0101761,39.0424586],[116.0136005,39.0418069],[116.0176948,39.0404772],[116.0217663,39.0391548],[116.0326906,39.0358111],[116.032547,39.0366467],[116.0315896,39.0398719],[116.0307928,39.0423096],[116.0245482,39.0448609],[116.0240929,39.0461365],[116.0067713,39.0473685]]]}},{"type":"Feature","id":"way/1238887099","properties":{"osm_id":"1238887099","class":"green"},"geometry":{"type":"Polygon","coordinates":[[[115.9364293,39.0628151],[115.9362167,39.0628076],[115.9361082,39.0627133],[115.9360892,39.0624336],[115.9365098,39.0625469],[115.9364293,39.0628151]]]}},{"type":"Feature","id":"way/1277782360","properties":{"osm_id":"1277782360","class":"green"},"geometry":{"type":"Polygon","coordinates":[[[115.920858,39.0341464],[115.9231021,39.0341085],[115.9237363,39.0339822],[115.9242242,39.0337548],[115.9262732,39.0325295],[115.9268749,39.0322137],[115.927444,39.0320368],[115.9279482,39.0319737],[115.9309078,39.0319863],[115.9315746,39.0321126],[115.9320949,39.0323021],[115.9344529,39.0337422],[115.9351359,39.0339948],[115.9430365,39.0340112],[115.9431625,39.03447],[115.9406345,39.0344473],[115.9357529,39.0347148],[115.9351675,39.0347022],[115.934452,39.0345506],[115.9337202,39.0341969],[115.9324192,39.0334137],[115.9316549,39.0332243],[115.930606,39.0331485],[115.930106,39.0332874],[115.9290275,39.0339777],[115.9279635,39.0344243],[115.9264387,39.0350807],[115.9255508,39.0358714],[115.9247274,39.0370643],[115.9244672,39.0374558],[115.9236541,39.0377211],[115.9209058,39.0377478],[115.920858,39.0341464]]]}},{"type":"Feature","id":"way/1287611629","properties":{"osm_id":"1287611629","class":"green"},"geometry":{"type":"Polygon","coordinates":[[[116.0066313,39.0473408],[116.0067451,39.0426299],[115.9920054,39.0425541],[115.9899564,39.0422889],[115.987696,39.0417584],[115.9847363,39.0412532],[115.9749792,39.0411142],[115.9703033,39.0411648],[115.9676201,39.0416321],[115.9648718,39.0422762],[115.9620748,39.0423899],[115.9548922,39.0413795],[115.9517861,39.0413668],[115.9468588,39.0422131],[115.9079591,39.0420615],[115.903871,39.0417051],[115.9003949,39.0411552],[115.8959875,39.0398552],[115.8896789,39.0373052],[115.8874903,39.0411052],[115.8997652,39.0435217],[115.9047219,39.0444716],[115.9113094,39.0452549],[115.9194848,39.0457382],[115.9363149,39.0447216],[115.9487617,39.0448716],[115.9545553,39.0450216],[115.9600699,39.0462048],[115.9658504,39.0475713],[115.9726525,39.0483045],[115.9840111,39.0484712],[115.9930877,39.0481379],[116.0010407,39.0476879],[116.0066313,39.0473408]]]}},{"type":"Feature","id":"way/1309408860","properties":{"osm_id":"1309408860","class":"green"},"geometry":{"type":"Polygon","coordinates":[[[115.8404232,39.0555096],[115.8404052,39.0549632],[115.8394075,39.0544844],[115.8378637,39.0539197],[115.8374554,39.0534639],[115.8374609,39.0530564],[115.8356553,39.0530328],[115.833866,39.0499592],[115.8337505,39.0492852],[115.8337339,39.0464708],[115.8327996,39.0467745],[115.8319181,39.044449],[115.8304473,39.0447901],[115.832324,39.0492808],[115.8323865,39.0530628],[115.828989,39.0530261],[115.8270386,39.0532029],[115.8238371,39.0540277],[115.8208329,39.0540394],[115.8176466,39.0531793],[115.8164631,39.0560307],[115.8177832,39.0558893],[115.8216067,39.0559246],[115.8231543,39.0561956],[115.8249751,39.0562781],[115.8270841,39.0559482],[115.8277062,39.0561249],[115.8281873,39.0573031],[115.8282025,39.0575977],[115.8300081,39.0575977],[115.8300081,39.0568083],[115.8298108,39.0562427],[115.833604,39.0548407],[115.8377987,39.054876],[115.8404232,39.0555096]]]}},{"type":"Feature","id":"way/1313790675","properties":{"osm_id":"1313790675","class":"green"},"geometry":{"type":"Polygon","coordinates":[[[115.8258201,39.0652801],[115.8265091,39.0650226],[115.8270705,39.0646957],[115.8279636,39.0622388],[115.8279552,39.0596886],[115.8281422,39.0587871],[115.828173,39.0577882],[115.8290905,39.0577648],[115.8290905,39.0596769],[115.8288289,39.0603779],[115.8287779,39.0623543],[115.8281591,39.0640895],[115.829148,39.0642588],[115.8300682,39.0642798],[115.8300592,39.0656878],[115.8259001,39.0654006],[115.8258201,39.0652801]]]}},{"type":"Feature","id":"way/1354873713","properties":{"osm_id":"1354873713","class":"green"},"geometry":{"type":"Polygon","coordinates":[[[115.9691319,39.0116625],[115.9699968,39.0112381],[115.9704823,39.0108019],[115.9709678,39.010177],[115.9720451,39.0073356],[115.9719692,39.0065928],[115.9701485,39.0028913],[115.9700271,39.0020895],[115.9700726,39.0017122],[115.9704823,39.0002855],[115.9706037,38.9998138],[115.9702851,38.9991439],[115.9696781,38.9985897],[115.9694506,38.9973869],[115.9731095,38.9974105],[115.9730242,38.9965556],[115.9719945,38.9962449],[115.9720805,38.9957893],[115.9730247,38.9955032],[115.9729496,38.9952684],[115.9706644,38.9955339],[115.9683581,38.9956181],[115.9662339,38.9955002],[115.9644739,38.9952408],[115.961418,38.9936045],[115.9586869,38.9936163],[115.9575338,38.9930621],[115.9570331,38.9915172],[115.9573365,38.9901256],[115.9579283,38.9893473],[115.9583986,38.9890407],[115.9559117,38.9868363],[115.9500398,38.9887469],[115.9453419,38.9891007],[115.9432777,38.9894967],[115.9440979,38.9917548],[115.9450517,38.9925639],[115.9449063,38.9938356],[115.9443747,38.9946737],[115.9441151,38.9960583],[115.9444059,39.0043476],[115.9457481,39.0044994],[115.9457933,39.0052366],[115.9485874,39.0053102],[115.949369,39.0019224],[115.9495159,39.0011995],[115.9482928,38.9972557],[115.9493657,38.9953796],[115.9518548,38.9922609],[115.9529277,38.9918023],[115.9540005,38.9925444],[115.9538074,38.9929947],[115.9550949,38.9939287],[115.9574123,38.9947625],[115.9604593,38.9950627],[115.9638806,38.9961967],[115.9640308,38.9972807],[115.9649106,38.9974308],[115.9649106,38.9966303],[115.965211,38.9963635],[115.9658333,38.9963468],[115.9675499,38.9968137],[115.9686871,38.998448],[115.9682483,38.9999348],[115.9677088,39.0019585],[115.9677102,39.004569],[115.9690373,39.0065877],[115.9686082,39.0077215],[115.9678572,39.0089959],[115.9665697,39.0096128],[115.9691319,39.0116625]]]}},{"type":"Feature","id":"way/1414415117","properties":{"osm_id":"1414415117","class":"green"},"geometry":{"type":"Polygon","coordinates":[[[116.10656,39.0309042],[116.1065797,39.0298972],[116.1082265,39.029868],[116.1082927,39.0310709],[116.1082999,39.0312959],[116.1078279,39.0313033],[116.1069695,39.0313168],[116.106957,39.0308959],[116.10656,39.0309042]]]}},{"type":"Feature","id":"way/1414415118","properties":{"osm_id":"1414415118","class":"green"},"geometry":{"type":"Polygon","coordinates":[[[116.1091027,39.0312182],[116.1084554,39.0312251],[116.1084107,39.0298652],[116.1090598,39.0298541],[116.1091027,39.0312182]]]}},{"type":"Feature","id":"way/1428942809","properties":{"osm_id":"1428942809","class":"green"},"geometry":{"type":"Polygon","coordinates":[[[115.8924578,39.0374229],[115.8928288,39.037432],[115.8928415,39.0370253],[115.8924681,39.037017],[115.8924578,39.0374229]]]}},{"type":"Feature","id":"way/1428942810","properties":{"osm_id":"1428942810","class":"green"},"geometry":{"type":"Polygon","coordinates":[[[115.8864278,39.0327507],[115.8869405,39.0327536],[115.8869492,39.0321726],[115.8864398,39.0321678],[115.8864278,39.0327507]]]}},{"type":"Feature","id":"way/1458279884","properties":{"osm_id":"1458279884","class":"green"},"geometry":{"type":"Polygon","coordinates":[[[115.9055211,39.0617397],[115.9061401,39.0617371],[115.9061762,39.0617274],[115.9061877,39.0617129],[115.9062006,39.06169],[115.9061992,39.0613108],[115.9061916,39.0612933],[115.9061624,39.061273],[115.906121,39.0612674],[115.9055253,39.0612691],[115.9055029,39.0612798],[115.9054883,39.0612966],[115.9054831,39.0613176],[115.9054841,39.0616871],[115.9054845,39.0617049],[115.9054938,39.0617201],[115.9055211,39.0617397]]]}},{"type":"Feature","id":"way/1472943586","properties":{"osm_id":"1472943586","class":"green"},"geometry":{"type":"Polygon","coordinates":[[[116.0900963,39.0624184],[116.0908473,39.0618242],[116.09285,39.0607634],[116.0933078,39.0605607],[116.0936439,39.0610161],[116.0950888,39.0602996],[116.0972166,39.0593027],[116.0984219,39.058714],[116.0980857,39.0583585],[116.0992122,39.0575949],[116.0991407,39.0580614],[116.0987258,39.0583113],[116.0986936,39.0584585],[116.098665,39.0586696],[116.0985935,39.0596859],[116.0992945,39.0596943],[116.0993052,39.0592749],[116.0993231,39.058714],[116.0996879,39.058589],[116.0997022,39.0577393],[116.1001778,39.0572838],[116.0997165,39.05722],[116.0996306,39.0570783],[116.1008645,39.0561508],[116.1014796,39.0565451],[116.1016369,39.0561897],[116.102016,39.0558898],[116.1019874,39.0553649],[116.1029637,39.0546373],[116.1032141,39.054965],[116.1037183,39.0544818],[116.1041689,39.0542485],[116.1044157,39.0541429],[116.1043513,39.0536069],[116.1046839,39.0533764],[116.1055923,39.0530682],[116.1068046,39.0521156],[116.1073018,39.0518156],[116.1076308,39.0523155],[116.1071372,39.0524738],[116.1072767,39.0527793],[116.107384,39.0530959],[116.1073232,39.0531876],[116.1064363,39.0534542],[116.1064721,39.0541374],[116.1073661,39.0539402],[116.1073876,39.0540957],[116.1076487,39.0540902],[116.1076594,39.0542401],[116.1079669,39.0542124],[116.1079777,39.0544568],[116.1073733,39.054715],[116.1075592,39.05499],[116.1079634,39.0549816],[116.1080313,39.0563952],[116.1080921,39.0576671],[116.106304,39.0584169],[116.1044908,39.0592749],[116.1037219,39.0596332],[116.1027742,39.0600081],[116.101873,39.0604052],[116.1016012,39.0605746],[116.1017549,39.0608245],[116.1013043,39.061141],[116.1011362,39.0609356],[116.1009145,39.0609605],[116.1009002,39.0611716],[116.1004639,39.0614937],[116.1002815,39.0617381],[116.099999,39.0618186],[116.0998989,39.0619713],[116.0997057,39.0620685],[116.0995663,39.0620796],[116.0995341,39.0622518],[116.0993016,39.0623934],[116.098876,39.0626267],[116.0985148,39.0627766],[116.0982681,39.0628433],[116.0977924,39.062996],[116.0978175,39.0632237],[116.0973955,39.0636957],[116.0968411,39.063854],[116.095661,39.0638957],[116.09496,39.0639401],[116.0948599,39.0630487],[116.0945237,39.0631126],[116.0945559,39.0639262],[116.0937834,39.0638373],[116.0932219,39.0636735],[116.0920597,39.063182],[116.0920525,39.0630321],[116.0938013,39.0632626],[116.0935116,39.062996],[116.0929001,39.0629238],[116.0922671,39.0628544],[116.0919667,39.0627683],[116.0916484,39.0628238],[116.0906721,39.062349],[116.0903466,39.0624795],[116.0900963,39.0624184]]]}},{"type":"Feature","id":"way/1473239402","properties":{"osm_id":"1473239402","class":"green"},"geometry":{"type":"Polygon","coordinates":[[[116.1082513,39.0525072],[116.1080295,39.0525197],[116.1080724,39.0535111],[116.1082727,39.0535195],[116.1082888,39.0536528],[116.1080438,39.0536778],[116.1081011,39.0547845],[116.108144,39.0556593],[116.108566,39.0556426],[116.1085624,39.0554413],[116.1089343,39.0554079],[116.1088413,39.0546734],[116.1085821,39.0547178],[116.1083872,39.0545526],[116.1083889,39.0544318],[116.1087877,39.0542124],[116.1085159,39.0533167],[116.1082513,39.0525072]]]}},{"type":"Feature","id":"way/1473239403","properties":{"osm_id":"1473239403","class":"green"},"geometry":{"type":"Polygon","coordinates":[[[116.1081493,39.0557259],[116.1089075,39.0557079],[116.1088092,39.0562799],[116.1081565,39.0562536],[116.1081493,39.0557259]]]}},{"type":"Feature","id":"way/1473239404","properties":{"osm_id":"1473239404","class":"green"},"geometry":{"type":"Polygon","coordinates":[[[116.1081744,39.0563869],[116.1081779,39.0563188],[116.1088002,39.0563313],[116.1087949,39.0564035],[116.1081744,39.0563869]]]}},{"type":"Feature","id":"way/1473239405","properties":{"osm_id":"1473239405","class":"green"},"geometry":{"type":"Polygon","coordinates":[[[116.1087645,39.0565243],[116.1081762,39.0565202],[116.1082083,39.0571922],[116.1082638,39.0573116],[116.1083925,39.0574463],[116.1083943,39.0573477],[116.1086965,39.0571783],[116.1087501,39.0567909],[116.1087645,39.0565243]]]}},{"type":"Feature","id":"way/1473239406","properties":{"osm_id":"1473239406","class":"green"},"geometry":{"type":"Polygon","coordinates":[[[116.1085588,39.0523801],[116.1079973,39.0514414],[116.1080796,39.0513664],[116.1086911,39.0511276],[116.1082405,39.0511303],[116.1085231,39.0509304],[116.1091024,39.050786],[116.1091668,39.051122],[116.1106867,39.0509637],[116.1106974,39.0508471],[116.1101717,39.0508943],[116.1101467,39.0507332],[116.1106939,39.0506832],[116.1106903,39.0505277],[116.1121601,39.0504638],[116.1122531,39.0524718],[116.109553,39.0524162],[116.1085588,39.0523801]]]}},{"type":"Feature","id":"way/1473239407","properties":{"osm_id":"1473239407","class":"green"},"geometry":{"type":"Polygon","coordinates":[[[116.1086089,39.052544],[116.1089665,39.0535938],[116.1092383,39.0549657],[116.109292,39.05561],[116.1092991,39.0565681],[116.1092526,39.0570679],[116.1098248,39.0568763],[116.1104685,39.0567458],[116.1107868,39.0565819],[116.1112732,39.0565486],[116.111359,39.056382],[116.1116094,39.0564098],[116.1117846,39.056307],[116.1120421,39.0562515],[116.1125964,39.0560487],[116.1130077,39.0559627],[116.1132616,39.0558405],[116.1134762,39.0558044],[116.1136657,39.0557349],[116.1138767,39.0557433],[116.1145741,39.0555933],[116.1147172,39.0554822],[116.1149747,39.0554544],[116.1151785,39.0554656],[116.1160475,39.0552295],[116.1170274,39.0548185],[116.1181826,39.0544491],[116.1186153,39.054363],[116.1197633,39.0539437],[116.1216659,39.0532938],[116.1228961,39.0529744],[116.1236436,39.0526162],[116.1234755,39.0525856],[116.1217231,39.0526634],[116.1204142,39.0527273],[116.1185188,39.0526801],[116.1170203,39.0526412],[116.1170739,39.0534355],[116.1160046,39.0534549],[116.1159474,39.0529022],[116.1157328,39.0529078],[116.1157006,39.0526328],[116.11417,39.0526023],[116.1141879,39.0530578],[116.113959,39.0530633],[116.1139304,39.0526078],[116.1133403,39.0525967],[116.1133403,39.0531383],[116.1132437,39.0531355],[116.1132402,39.0530022],[116.1131293,39.0530022],[116.1130935,39.0525884],[116.1097569,39.0525412],[116.1086089,39.052544]]]}},{"type":"Feature","id":"way/1473239408","properties":{"osm_id":"1473239408","class":"green"},"geometry":{"type":"Polygon","coordinates":[[[116.1080367,39.0594409],[116.108144,39.0591632],[116.108051,39.0584606],[116.1075289,39.0586244],[116.1071569,39.0588244],[116.1065668,39.0590216],[116.105941,39.0593687],[116.1055905,39.0595881],[116.1053008,39.0596547],[116.1048645,39.0598463],[116.1046893,39.0598991],[116.1038775,39.0603989],[116.1026365,39.0613014],[116.1030084,39.0615874],[116.1029226,39.0618762],[116.1028046,39.0619845],[116.1027474,39.0629064],[116.1041457,39.0628287],[116.1040384,39.06382],[116.1024362,39.0636534],[116.1025435,39.0635034],[116.1025793,39.0630814],[116.1025006,39.0630064],[116.102658,39.0628731],[116.1026901,39.0620734],[116.1020965,39.0624399],[116.1018533,39.0624483],[116.1014563,39.0620984],[116.1010093,39.0625038],[116.1006731,39.0628981],[116.1004693,39.0632841],[116.1005623,39.0634063],[116.1005623,39.0636173],[116.1007196,39.0637395],[116.1009592,39.0638089],[116.1009878,39.0639227],[116.1008591,39.0640616],[116.1007804,39.0643809],[116.1008877,39.064542],[116.1008591,39.0647141],[116.1009056,39.0649085],[116.1007375,39.0651501],[116.1007446,39.0654388],[116.1008519,39.0656415],[116.100995,39.0658137],[116.1009878,39.066083],[116.1008627,39.0662274],[116.1009056,39.0664357],[116.1011345,39.0665856],[116.1012274,39.0667189],[116.1011774,39.0669105],[116.1012668,39.0670049],[116.1012525,39.0672159],[116.1014277,39.0673603],[116.1018283,39.0675019],[116.102826,39.067774],[116.1028082,39.0674325],[116.1034161,39.0674797],[116.1033875,39.0672159],[116.1032087,39.06673],[116.1033947,39.0664884],[116.1034555,39.066369],[116.1033982,39.0661552],[116.1038131,39.0662746],[116.103974,39.0665051],[116.1041278,39.0666134],[116.1042816,39.0664385],[116.1041135,39.0663885],[116.1041671,39.066208],[116.1040634,39.0659692],[116.1043388,39.0660192],[116.1043638,39.0658081],[116.1046428,39.0657221],[116.1045605,39.0655832],[116.1042566,39.0655388],[116.10416,39.0654166],[116.104303,39.0653056],[116.1044282,39.0653361],[116.1046893,39.0651945],[116.1048717,39.0651834],[116.1049325,39.0652556],[116.1053008,39.0646086],[116.1050505,39.0645558],[116.1051113,39.0642754],[116.1053116,39.0641865],[116.1050469,39.0640671],[116.1050648,39.0639533],[116.1053867,39.0638783],[116.1054367,39.0637117],[116.1050541,39.0636728],[116.1050827,39.063459],[116.1055154,39.0634035],[116.1056871,39.0628426],[116.1058051,39.0627176],[116.1062557,39.0626871],[116.1070425,39.0611154],[116.1075861,39.0602462],[116.1080367,39.0594409]]]}},{"type":"Feature","id":"way/1473239409","properties":{"osm_id":"1473239409","class":"green"},"geometry":{"type":"Polygon","coordinates":[[[116.100033,39.0648849],[116.0999436,39.0647849],[116.1001617,39.0645711],[116.1001295,39.0643323],[116.1003227,39.0642351],[116.1003727,39.0641102],[116.1005158,39.064199],[116.1005623,39.064349],[116.1005122,39.0644739],[116.1003191,39.0646072],[116.1002726,39.064846],[116.1001975,39.0649099],[116.100033,39.0648849]]]}},{"type":"Feature","id":"way/1473239410","properties":{"osm_id":"1473239410","class":"green"},"geometry":{"type":"Polygon","coordinates":[[[116.0961456,39.0653791],[116.0961134,39.065232],[116.0960097,39.0651875],[116.0960633,39.065082],[116.0960812,39.0649654],[116.0959703,39.064896],[116.0957093,39.064921],[116.0956449,39.0648155],[116.0957057,39.0646266],[116.0960383,39.0644489],[116.0957772,39.0643795],[116.0955805,39.0644239],[116.0953051,39.0646322],[116.0953123,39.0649404],[116.0961456,39.0653791]]]}},{"type":"Feature","id":"way/1473239411","properties":{"osm_id":"1473239411","class":"green"},"geometry":{"type":"Polygon","coordinates":[[[116.096614,39.0648071],[116.0965246,39.0647044],[116.0963816,39.0645322],[116.0963959,39.0644101],[116.0966784,39.064399],[116.0969431,39.0643045],[116.0973508,39.0643351],[116.0975582,39.0643406],[116.0978622,39.0641768],[116.0979766,39.0641685],[116.097433,39.0646516],[116.0971719,39.0647349],[116.0969359,39.0648349],[116.096614,39.0648071]]]}},{"type":"Feature","id":"way/1473239412","properties":{"osm_id":"1473239412","class":"green"},"geometry":{"type":"Polygon","coordinates":[[[116.0973007,39.0655041],[116.0974652,39.0655485],[116.0975761,39.0656457],[116.0977835,39.0655541],[116.0980231,39.0654985],[116.098041,39.0654014],[116.0979373,39.065343],[116.0977263,39.0654263],[116.0975975,39.0654402],[116.0974759,39.0653069],[116.0973615,39.0653375],[116.0973007,39.0655041]]]}},{"type":"Feature","id":"way/1473239413","properties":{"osm_id":"1473239413","class":"green"},"geometry":{"type":"Polygon","coordinates":[[[116.0983128,39.0657707],[116.0984809,39.0656624],[116.0985059,39.0654652],[116.0984415,39.0653097],[116.0982949,39.065182],[116.0980589,39.0651376],[116.0979301,39.0650015],[116.097923,39.0648127],[116.098066,39.0646322],[116.0982234,39.064435],[116.0983521,39.0644378],[116.098395,39.0645628],[116.0984701,39.0647655],[116.0987169,39.064821],[116.0988921,39.0649182],[116.0989529,39.065132],[116.0988778,39.0653541],[116.0988349,39.0656762],[116.0986847,39.0659206],[116.0984844,39.065965],[116.0984415,39.0660816],[116.0984558,39.0661788],[116.0983235,39.0661927],[116.0981268,39.0661039],[116.0979051,39.0659511],[116.0978193,39.0658151],[116.0979945,39.0657595],[116.0983128,39.0657707]]]}},{"type":"Feature","id":"way/1473239414","properties":{"osm_id":"1473239414","class":"green"},"geometry":{"type":"Polygon","coordinates":[[[116.0987527,39.0647433],[116.0987419,39.0645961],[116.0988135,39.0645461],[116.0989315,39.0645767],[116.0988743,39.0646905],[116.0987527,39.0647433]]]}},{"type":"Feature","id":"way/1473239415","properties":{"osm_id":"1473239415","class":"green"},"geometry":{"type":"Polygon","coordinates":[[[116.098345,39.0642907],[116.0985381,39.0641129],[116.0985774,39.0642795],[116.0987205,39.0643129],[116.0989529,39.0642101],[116.0988993,39.0640963],[116.098674,39.0640991],[116.0986275,39.0640241],[116.0987992,39.0639852],[116.0989029,39.0638936],[116.0989351,39.0637547],[116.099121,39.063602],[116.0991782,39.0636298],[116.0990781,39.0638131],[116.0990423,39.0640435],[116.0991317,39.0640602],[116.0990459,39.0643823],[116.0987241,39.0644045],[116.098556,39.064374],[116.098345,39.0642907]]]}},{"type":"Feature","id":"way/1473239416","properties":{"osm_id":"1473239416","class":"green"},"geometry":{"type":"Polygon","coordinates":[[[116.0980052,39.063527],[116.0981447,39.0632855],[116.0984308,39.0631105],[116.0989601,39.0628689],[116.0994,39.0626385],[116.0993284,39.0627606],[116.0983378,39.0633632],[116.0980052,39.063527]]]}},{"type":"Feature","id":"way/1473239417","properties":{"osm_id":"1473239417","class":"green"},"geometry":{"type":"Polygon","coordinates":[[[116.0995538,39.0640213],[116.0996682,39.0637048],[116.0998792,39.0633604],[116.1000365,39.0632077],[116.0998613,39.0635326],[116.099636,39.0639769],[116.0995538,39.0640213]]]}},{"type":"Feature","id":"way/1473239418","properties":{"osm_id":"1473239418","class":"green"},"geometry":{"type":"Polygon","coordinates":[[[116.0943932,39.0645128],[116.0950762,39.0648793],[116.0950512,39.0645267],[116.0948045,39.0645794],[116.0945613,39.0644684],[116.0943932,39.0645128]]]}},{"type":"Feature","id":"way/1473239419","properties":{"osm_id":"1473239419","class":"green"},"geometry":{"type":"Polygon","coordinates":[[[116.0964746,39.0660789],[116.0966033,39.0659789],[116.0979301,39.0665787],[116.0978193,39.0665981],[116.0970968,39.0663676],[116.0964746,39.0660789]]]}},{"type":"Feature","id":"way/1473239420","properties":{"osm_id":"1473239420","class":"green"},"geometry":{"type":"Polygon","coordinates":[[[116.096471,39.0663843],[116.0968036,39.0666231],[116.0968143,39.0667786],[116.096682,39.0668369],[116.0965175,39.0668813],[116.0961634,39.0667953],[116.0960597,39.0666647],[116.0960132,39.0665287],[116.0957629,39.0665231],[116.0956485,39.0663232],[116.0955233,39.0663371],[116.0954303,39.0665814],[116.0955519,39.0666287],[116.0954267,39.0667508],[116.0955161,39.0668425],[116.0959274,39.0669119],[116.096378,39.0669452],[116.0968644,39.0669202],[116.0971219,39.0668397],[116.0971863,39.0666981],[116.0971612,39.0666231],[116.0967356,39.0664398],[116.096471,39.0663843]]]}},{"type":"Feature","id":"way/1473239421","properties":{"osm_id":"1473239421","class":"green"},"geometry":{"type":"Polygon","coordinates":[[[116.09626,39.0667758],[116.0964495,39.0668286],[116.0965819,39.0668286],[116.0964674,39.0667258],[116.09626,39.0667758]]]}},{"type":"Feature","id":"way/1473239422","properties":{"osm_id":"1473239422","class":"green"},"geometry":{"type":"Polygon","coordinates":[[[116.0947973,39.0662621],[116.0947723,39.0660733],[116.0948831,39.0659845],[116.0948366,39.0659178],[116.0946686,39.0659206],[116.0945291,39.0660039],[116.0944683,39.0660983],[116.0946113,39.0662149],[116.0947973,39.0662621]]]}},{"type":"Feature","id":"way/1473239423","properties":{"osm_id":"1473239423","class":"green"},"geometry":{"type":"Polygon","coordinates":[[[116.095391,39.0661761],[116.095391,39.0659317],[116.0954553,39.0658401],[116.0954875,39.0660233],[116.095602,39.0660511],[116.09577,39.0659983],[116.0956806,39.0660789],[116.0954911,39.0661844],[116.095391,39.0661761]]]}},{"type":"Feature","id":"way/1473239424","properties":{"osm_id":"1473239424","class":"green"},"geometry":{"type":"Polygon","coordinates":[[[116.0943288,39.0657651],[116.0944075,39.0655985],[116.0947437,39.0654402],[116.0946113,39.0655596],[116.0944218,39.0657318],[116.0943288,39.0657651]]]}},{"type":"Feature","id":"way/1473239425","properties":{"osm_id":"1473239425","class":"green"},"geometry":{"type":"Polygon","coordinates":[[[116.094032,39.0657068],[116.0940463,39.0655152],[116.0940177,39.0653292],[116.0941965,39.0651265],[116.094175,39.0649987],[116.0941071,39.0649265],[116.093846,39.0648432],[116.0938281,39.0647127],[116.0942501,39.0648849],[116.0944397,39.0650876],[116.09469,39.0651514],[116.094783,39.0652209],[116.0943288,39.0652764],[116.0942036,39.0653236],[116.0942144,39.0655513],[116.0941858,39.0656346],[116.094032,39.0657068]]]}},{"type":"Feature","id":"way/1473239426","properties":{"osm_id":"1473239426","class":"green"},"geometry":{"type":"Polygon","coordinates":[[[116.096403,39.0651181],[116.0964281,39.0649376],[116.096446,39.0648654],[116.0966427,39.0649848],[116.0965711,39.0650765],[116.096403,39.0651181]]]}},{"type":"Feature","id":"way/1473239427","properties":{"osm_id":"1473239427","class":"green"},"geometry":{"type":"Polygon","coordinates":[[[116.0986168,39.0664981],[116.0989172,39.0660483],[116.0989959,39.065804],[116.0991461,39.0656929],[116.0992963,39.0657457],[116.0993749,39.0659872],[116.0992676,39.0661427],[116.099307,39.0663204],[116.0994179,39.0664815],[116.0997755,39.0669063],[116.0996789,39.0669008],[116.0993106,39.0666731],[116.0990602,39.0663843],[116.0990996,39.0662177],[116.0988635,39.0663926],[116.099003,39.066562],[116.0989279,39.0666536],[116.0986168,39.0664981]]]}},{"type":"Feature","id":"way/1473239428","properties":{"osm_id":"1473239428","class":"green"},"geometry":{"type":"Polygon","coordinates":[[[116.1003513,39.0665204],[116.1002833,39.0662843],[116.1003834,39.0660705],[116.1004657,39.0658567],[116.1002833,39.0658762],[116.1001546,39.0657845],[116.1000008,39.0657679],[116.0999507,39.0655513],[116.1000687,39.0654402],[116.1001724,39.065493],[116.1001868,39.0652764],[116.1003906,39.0653736],[116.1003799,39.0656818],[116.1005694,39.0657651],[116.1006552,39.0659373],[116.1005766,39.0661177],[116.1004156,39.0662038],[116.1003727,39.0663954],[116.1004729,39.0665759],[116.1007125,39.0666425],[116.1008019,39.0667814],[116.1006839,39.0669674],[116.100598,39.0669507],[116.1005873,39.0667897],[116.100455,39.066687],[116.1003513,39.0665204]]]}},{"type":"Feature","id":"way/1473239429","properties":{"osm_id":"1473239429","class":"green"},"geometry":{"type":"Polygon","coordinates":[[[116.1089021,39.0625482],[116.1087484,39.0602767],[116.1132902,39.0599296],[116.117428,39.0596603],[116.1203641,39.0594187],[116.1206931,39.0601434],[116.1209649,39.0611598],[116.1210293,39.0618651],[116.1212403,39.0619345],[116.1212582,39.0623955],[116.1207325,39.0632452],[116.1202604,39.0645947],[116.1197812,39.0646003],[116.1196024,39.0643698],[116.1192877,39.0643698],[116.1191732,39.0642726],[116.1189193,39.0643476],[116.1189765,39.0648779],[116.1190552,39.0650251],[116.1201317,39.0648668],[116.1197526,39.0663496],[116.1192483,39.0684709],[116.1188585,39.0700064],[116.1185295,39.0714835],[116.1174959,39.0716112],[116.1175389,39.071825],[116.1184723,39.0717417],[116.1181432,39.0726857],[116.1169988,39.0724664],[116.1155326,39.0721915],[116.1146492,39.0719777],[116.1134404,39.0717001],[116.1111767,39.0710282],[116.108709,39.0702368],[116.108566,39.0700175],[116.1074144,39.0696232],[116.1063344,39.0691262],[116.1048109,39.0684015],[116.1044854,39.0682183],[116.1044854,39.0680434],[116.1052865,39.0680017],[116.1058909,39.0680517],[116.1086375,39.0683571],[116.108616,39.0691234],[116.1073787,39.0687542],[116.106338,39.0683793],[116.1062128,39.0682821],[116.1059374,39.0682738],[116.1059195,39.0684821],[116.1067456,39.0687403],[116.1083872,39.0692456],[116.11103,39.0700952],[116.1137659,39.0709199],[116.1162872,39.0716917],[116.1163837,39.071775],[116.1165303,39.0717945],[116.1165554,39.0715279],[116.1161298,39.0714863],[116.1136228,39.0707033],[116.1113519,39.0700036],[116.1087305,39.0691318],[116.1087698,39.0682877],[116.1105329,39.0684154],[116.1115057,39.068296],[116.1129612,39.0683543],[116.1143989,39.0683654],[116.1142988,39.0675519],[116.1140377,39.066569],[116.1146743,39.0664551],[116.1155862,39.0663024],[116.1153895,39.0654277],[116.1142272,39.0658831],[116.1139125,39.0644281],[116.1134328,39.0644809],[116.1132988,39.0636261],[116.11314,39.0633091],[116.113115,39.0622955],[116.1089021,39.0625482]]]}},{"type":"Feature","id":"way/1473247172","properties":{"osm_id":"1473247172","class":"green"},"geometry":{"type":"Polygon","coordinates":[[[116.1096603,39.059906],[116.1095995,39.05967],[116.1091096,39.0598338],[116.1087376,39.0599976],[116.1084122,39.0599643],[116.1086912,39.0594534],[116.1088986,39.059334],[116.1089129,39.0587119],[116.1090953,39.0578788],[116.1099536,39.0576233],[116.1104471,39.0573845],[116.1109728,39.0572845],[116.1114377,39.0571013],[116.1116344,39.0570457],[116.1119634,39.0568347],[116.1124069,39.0567819],[116.1129398,39.0566486],[116.1131901,39.0566042],[116.1133475,39.0564959],[116.1137051,39.0564681],[116.1142809,39.0562792],[116.1145562,39.0562209],[116.1151606,39.0560265],[116.1156434,39.0559099],[116.1161405,39.0559071],[116.1164588,39.055771],[116.1175532,39.0552906],[116.1185474,39.0550268],[116.11942,39.0548379],[116.1195559,39.0546491],[116.119867,39.0544991],[116.1201746,39.054413],[116.1203319,39.0546074],[116.1203856,39.0548685],[116.1216623,39.0547352],[116.1216087,39.0545213],[116.1204178,39.0547574],[116.1204571,39.0544519],[116.1208577,39.0541242],[116.1211402,39.0539742],[116.1219055,39.0538215],[116.1224098,39.0538326],[116.1231858,39.0537076],[116.1236972,39.0535271],[116.1238546,39.0532938],[116.1238546,39.0532216],[116.1247022,39.0529467],[116.1257893,39.0525995],[116.1267049,39.0522524],[116.1265761,39.0524245],[116.1261005,39.0527078],[116.1261076,39.0529244],[116.126594,39.05293],[116.1267371,39.0530661],[116.1271447,39.0549684],[116.127767,39.0548879],[116.127978,39.0560293],[116.1282462,39.0559988],[116.1284715,39.0570429],[116.1260754,39.0581676],[116.1250812,39.0587397],[116.1247451,39.0588369],[116.1227316,39.0589841],[116.1198634,39.0592507],[116.1156613,39.0595644],[116.113562,39.0596589],[116.1125893,39.0597477],[116.1112017,39.0598366],[116.1103184,39.0599005],[116.1096603,39.059906]]]}},{"type":"Feature","id":"way/1473247173","properties":{"osm_id":"1473247173","class":"green"},"geometry":{"type":"Polygon","coordinates":[[[116.1235577,39.0598019],[116.1243195,39.0592104],[116.1240262,39.0591604],[116.1220235,39.0593576],[116.1215979,39.0594825],[116.1212546,39.0595242],[116.1210222,39.0594992],[116.1211724,39.0605239],[116.1212761,39.0618346],[116.1213583,39.0622372],[116.1218447,39.0615513],[116.1226351,39.0606183],[116.1235577,39.0598019]]]}},{"type":"Feature","id":"way/1473263238","properties":{"osm_id":"1473263238","class":"green"},"geometry":{"type":"Polygon","coordinates":[[[116.1238305,39.0603054],[116.1258154,39.0587836],[116.1271028,39.0581727],[116.1272494,39.0598055],[116.1274318,39.0615133],[116.1269813,39.0615346],[116.1237805,39.0616855],[116.1223696,39.0617924],[116.1231975,39.0608219],[116.1238305,39.0603054]]]}},{"type":"Feature","id":"way/1473263239","properties":{"osm_id":"1473263239","class":"green"},"geometry":{"type":"Polygon","coordinates":[[[116.1236982,39.074898],[116.1228149,39.0746175],[116.1227183,39.0737013],[116.1237304,39.0740095],[116.1237912,39.073904],[116.1227648,39.0735625],[116.1225001,39.0734431],[116.1223464,39.0724547],[116.1226539,39.0723603],[116.124603,39.0729906],[116.1250071,39.0729795],[116.1252181,39.0742649],[116.1236982,39.074898]]]}},{"type":"Feature","id":"way/1473263240","properties":{"osm_id":"1473263240","class":"green"},"geometry":{"type":"Polygon","coordinates":[[[116.1225788,39.0745343],[116.1225502,39.073879],[116.1224644,39.0738818],[116.1224143,39.0740762],[116.1222498,39.0740234],[116.1222391,39.073557],[116.12132,39.0733015],[116.1209874,39.0733015],[116.1209981,39.0730017],[116.1214022,39.0730017],[116.1214094,39.0731599],[116.1220746,39.0733126],[116.1223106,39.0729434],[116.1221389,39.0722576],[116.1207049,39.0717967],[116.1192851,39.0713081],[116.1190312,39.0712136],[116.1189525,39.0716551],[116.1196105,39.0716634],[116.1196427,39.0721715],[116.1189811,39.0721993],[116.1189596,39.0725519],[116.1193852,39.0726158],[116.1192636,39.0730156],[116.1199217,39.073296],[116.1208515,39.0737513],[116.1217241,39.0741844],[116.1225788,39.0745343]]]}},{"type":"Feature","id":"way/1473263241","properties":{"osm_id":"1473263241","class":"green"},"geometry":{"type":"Polygon","coordinates":[[[116.1250071,39.0729795],[116.1249821,39.0728216],[116.1247461,39.0713344],[116.1252396,39.0711428],[116.1252718,39.0713761],[116.1254542,39.0713289],[116.1255293,39.0718425],[116.125751,39.0718203],[116.1258332,39.0723617],[116.1267345,39.0720535],[116.1265914,39.0709152],[116.1267595,39.0708846],[116.1271815,39.0733307],[116.1252181,39.0742649],[116.1250071,39.0729795]]]}},{"type":"Feature","id":"way/1473263242","properties":{"osm_id":"1473263242","class":"green"},"geometry":{"type":"Polygon","coordinates":[[[116.1284082,39.072756],[116.1283688,39.0726005],[116.1285298,39.0725644],[116.1284332,39.0722062],[116.1289661,39.0720952],[116.1290447,39.0724839],[116.1284082,39.072756]]]}},{"type":"Feature","id":"way/1473263243","properties":{"osm_id":"1473263243","class":"green"},"geometry":{"type":"Polygon","coordinates":[[[116.1311619,39.0714066],[116.129853,39.071215],[116.1287443,39.0709568],[116.1276214,39.0705431],[116.1266129,39.0700378],[116.1254077,39.0693381],[116.1239521,39.0681969],[116.123641,39.0678748],[116.123101,39.0673667],[116.1223392,39.0662949],[116.1218278,39.0654008],[116.1215346,39.0646483],[116.1206906,39.0647677],[116.1203758,39.0659562],[116.1199217,39.0676888],[116.1195104,39.0694769],[116.119117,39.0710818],[116.1194102,39.071265],[116.1216633,39.0719786],[116.1222605,39.0721757],[116.1223821,39.0723284],[116.1227469,39.0722062],[116.1241095,39.072681],[116.1246459,39.072842],[116.1249821,39.0728216],[116.1247461,39.0713344],[116.1252396,39.0711428],[116.1252718,39.0713761],[116.1254542,39.0713289],[116.1255293,39.0718425],[116.125751,39.0718203],[116.1258332,39.0723617],[116.1267345,39.0720535],[116.1265914,39.0709152],[116.1267595,39.0708846],[116.1271815,39.0733307],[116.1284082,39.072756],[116.1283688,39.0726005],[116.1285298,39.0725644],[116.1284332,39.0722062],[116.1283259,39.0716676],[116.1288838,39.0716565],[116.1289661,39.0720952],[116.1290447,39.0724839],[116.1305289,39.0717509],[116.1311619,39.0714066]]]}},{"type":"Feature","id":"way/1473263244","properties":{"osm_id":"1473263244","class":"green"},"geometry":{"type":"Polygon","coordinates":[[[116.126595,39.0698643],[116.1263446,39.0686787],[116.1253898,39.068948],[116.1252932,39.0686093],[116.1262695,39.0683149],[116.1263232,39.0684538],[116.1283831,39.0679456],[116.1286513,39.06937],[116.126595,39.0698643]]]}},{"type":"Feature","id":"way/1473263245","properties":{"osm_id":"1473263245","class":"green"},"geometry":{"type":"Polygon","coordinates":[[[116.1253075,39.0684732],[116.1252324,39.0681011],[116.1261612,39.0678443],[116.1262767,39.0678124],[116.1262445,39.0676152],[116.1281471,39.0671515],[116.1283259,39.0678401],[116.1263733,39.068351],[116.1263375,39.0681928],[116.1253075,39.0684732]]]}},{"type":"Feature","id":"way/1473263246","properties":{"osm_id":"1473263246","class":"green"},"geometry":{"type":"Polygon","coordinates":[[[116.1283724,39.0676624],[116.1281936,39.0667767],[116.1300997,39.0658631],[116.1308829,39.0666073],[116.1308758,39.0666684],[116.1292236,39.0670238],[116.12927,39.0672543],[116.1283724,39.0676624]]]}},{"type":"Feature","id":"way/1473263247","properties":{"osm_id":"1473263247","class":"green"},"geometry":{"type":"Polygon","coordinates":[[[116.1282007,39.0666739],[116.128097,39.0658909],[116.1288516,39.0657854],[116.1288516,39.0656771],[116.1292629,39.0655994],[116.1292522,39.0655355],[116.1288945,39.0655605],[116.1283474,39.0656965],[116.1282115,39.0657104],[116.1281936,39.0656188],[116.1280863,39.0656355],[116.1278288,39.0644942],[116.1267202,39.0645359],[116.1266915,39.0642804],[116.1256902,39.0645525],[116.1257188,39.0651884],[116.1247353,39.0652773],[116.1246137,39.0644553],[116.1237518,39.0644776],[116.1237447,39.0647636],[116.1216669,39.0646553],[116.1216812,39.0645831],[116.1237018,39.0643693],[116.1233871,39.0618646],[116.1238484,39.0618368],[116.1240022,39.0627726],[116.1241989,39.0627587],[116.1241917,39.0625616],[116.1244492,39.0625477],[116.1244743,39.0627476],[116.1247747,39.0627199],[116.1247389,39.0625033],[116.1245315,39.0625171],[116.124485,39.0623089],[116.124156,39.0623339],[116.1240952,39.0618507],[116.1241738,39.0617841],[116.126992,39.0616869],[116.1269813,39.0615346],[116.1274318,39.0615133],[116.127768,39.0616952],[116.1279719,39.0630142],[116.1292486,39.0629864],[116.1293916,39.0639416],[116.1293881,39.064422],[116.1295418,39.0653911],[116.1300282,39.0658215],[116.1282007,39.0666739]]]}},{"type":"Feature","id":"way/1473263248","properties":{"osm_id":"1473263248","class":"green"},"geometry":{"type":"Polygon","coordinates":[[[116.1237447,39.0647636],[116.1239485,39.0666726],[116.1249678,39.0665143],[116.1250858,39.0668586],[116.1259584,39.0667336],[116.1261265,39.0667697],[116.1271243,39.0664921],[116.127321,39.0669891],[116.1280861,39.0667721],[116.1281435,39.0667559],[116.1282007,39.0666739],[116.128097,39.0658909],[116.1280863,39.0656355],[116.1278288,39.0644942],[116.1267202,39.0645359],[116.1266915,39.0642804],[116.1256902,39.0645525],[116.1257188,39.0651884],[116.1247353,39.0652773],[116.1246137,39.0644553],[116.1237518,39.0644776],[116.1237447,39.0647636]]]}},{"type":"Feature","id":"way/1473263249","properties":{"osm_id":"1473263249","class":"green"},"geometry":{"type":"Polygon","coordinates":[[[116.1237447,39.0647636],[116.1216669,39.0646553],[116.1221533,39.065623],[116.1226253,39.066381],[116.1234085,39.0674028],[116.124156,39.0681331],[116.1251752,39.068966],[116.1259978,39.0695325],[116.126595,39.0698643],[116.1263446,39.0686787],[116.1253898,39.068948],[116.1252932,39.0686093],[116.1252503,39.0684968],[116.1253075,39.0684732],[116.1252324,39.0681011],[116.1261612,39.0678443],[116.1260907,39.0674917],[116.128097,39.0669724],[116.1280861,39.0667721],[116.127321,39.0669891],[116.1271243,39.0664921],[116.1261265,39.0667697],[116.1259584,39.0667336],[116.1250858,39.0668586],[116.1249678,39.0665143],[116.1239485,39.0666726],[116.1237447,39.0647636]]]}},{"type":"Feature","id":"way/1473263250","properties":{"osm_id":"1473263250","class":"green"},"geometry":{"type":"Polygon","coordinates":[[[116.1207549,39.064658],[116.1208121,39.0644137],[116.1213486,39.0631947],[116.1217205,39.0625838],[116.1223142,39.0618757],[116.1226504,39.0618701],[116.1228542,39.0637334],[116.1215489,39.0638583],[116.1214559,39.0638694],[116.1215131,39.0644609],[116.1214237,39.064572],[116.1207549,39.064658]]]}},{"type":"Feature","id":"way/1473263251","properties":{"osm_id":"1473263251","class":"green"},"geometry":{"type":"Polygon","coordinates":[[[116.1308829,39.0666073],[116.1309974,39.0666753],[116.1310117,39.0665837],[116.1309545,39.066306],[116.1314122,39.06622],[116.1312084,39.0652759],[116.1311512,39.0649982],[116.13079,39.0650287],[116.1306863,39.0645373],[116.1302964,39.0628767],[116.1292486,39.0629864],[116.1293916,39.0639416],[116.1293881,39.064422],[116.1295418,39.0653911],[116.1300282,39.0658215],[116.1300997,39.0658631],[116.1308829,39.0666073]]]}},{"type":"Feature","id":"way/1473263252","properties":{"osm_id":"1473263252","class":"green"},"geometry":{"type":"Polygon","coordinates":[[[116.1308758,39.0666684],[116.1310832,39.0677527],[116.1301391,39.0681442],[116.1302106,39.0683996],[116.1313228,39.0679942],[116.1313979,39.0684524],[116.1299281,39.0690827],[116.1300175,39.069824],[116.1312835,39.0692409],[116.1315124,39.0702099],[116.1317234,39.0712039],[116.1315124,39.0713344],[116.1308436,39.0712428],[116.1298566,39.0710596],[116.1287944,39.0708069],[116.1277179,39.0704265],[116.1268096,39.0700045],[116.126595,39.0698643],[116.1286513,39.06937],[116.1283831,39.0679456],[116.1283724,39.0676624],[116.12927,39.0672543],[116.1292236,39.0670238],[116.1308758,39.0666684]]]}},{"type":"Feature","id":"way/1477500059","properties":{"osm_id":"1477500059","class":"green"},"geometry":{"type":"Polygon","coordinates":[[[116.1143168,39.0791015],[116.1151966,39.078835],[116.1154362,39.0798677],[116.1158868,39.0817805],[116.1157259,39.0819193],[116.1154577,39.0820109],[116.1154966,39.0821374],[116.1155878,39.0824851],[116.1159991,39.0834973],[116.1162909,39.0834371],[116.1166056,39.0848861],[116.116636,39.0850194],[116.1157795,39.0852095],[116.1156347,39.0848209],[116.1153557,39.0848931],[116.1155256,39.0853289],[116.1158189,39.0852567],[116.1164644,39.0867279],[116.1165663,39.0869861],[116.1164483,39.087093],[116.1162069,39.0871443],[116.1162373,39.0878466],[116.1161032,39.0878605],[116.1161532,39.0884767],[116.1162909,39.088474],[116.1162534,39.0880506],[116.1172494,39.0878744],[116.1173906,39.0884073],[116.1162033,39.0886294],[116.1158761,39.08856],[116.1154684,39.0886044],[116.1154469,39.0882283],[116.1152163,39.0882005],[116.1149123,39.0882436],[116.1149015,39.0881422],[116.1143115,39.0881478],[116.1142256,39.0881089],[116.1140933,39.0881186],[116.1140736,39.0875676],[116.1145421,39.087458],[116.1145529,39.0879993],[116.1149105,39.0879965],[116.1148998,39.0873983],[116.115693,39.087235],[116.1159512,39.0871818],[116.1153074,39.085644],[116.1150907,39.085078],[116.1149337,39.0846682],[116.1145636,39.0837508],[116.1143155,39.0831271],[116.1142632,39.0829957],[116.1140343,39.0824502],[116.1149051,39.0822628],[116.1146744,39.0815965],[116.1145385,39.0812134],[116.1147102,39.0808095],[116.1145368,39.0798254],[116.1143991,39.0792535],[116.1143168,39.0791015]]]}},{"type":"Feature","id":"way/1477500086","properties":{"osm_id":"1477500086","class":"green"},"geometry":{"type":"Polygon","coordinates":[[[116.137655,39.0815252],[116.1371722,39.080151],[116.1364856,39.0803037],[116.1342325,39.0796346],[116.1340466,39.079643],[116.1338034,39.0785575],[116.1373332,39.0796513],[116.1411061,39.0807923],[116.1450472,39.0819666],[116.147007,39.082469],[116.1470142,39.082594],[116.1468711,39.0826523],[116.1452081,39.0829271],[116.1450615,39.0826078],[116.1439779,39.0827272],[116.1439493,39.0825745],[116.1430159,39.0825523],[116.1429157,39.0822192],[116.1414387,39.0818306],[116.141192,39.0817334],[116.1402335,39.0819166],[116.140137,39.081589],[116.1409917,39.0810644],[116.1409202,39.0809977],[116.1408487,39.0809838],[116.1408522,39.0808645],[116.1406985,39.0808645],[116.1407092,39.0811227],[116.1401048,39.0814697],[116.1400476,39.0812365],[116.1395755,39.0811865],[116.1395076,39.0811171],[116.137655,39.0815252]]]}},{"type":"Feature","id":"way/1486468585","properties":{"osm_id":"1486468585","class":"green"},"geometry":{"type":"Polygon","coordinates":[[[115.9611198,39.040888],[115.9611222,39.0399533],[115.9618581,39.0399545],[115.9618555,39.0408892],[115.9611198,39.040888]]]}},{"type":"Feature","id":"way/1489118102","properties":{"osm_id":"1489118102","class":"green"},"geometry":{"type":"Polygon","coordinates":[[[116.1825271,39.0141295],[116.1815097,39.0147805],[116.1814757,39.0153251],[116.1817127,39.0153306],[116.1817846,39.0153654],[116.1817672,39.0158808],[116.1817837,39.015959],[116.1819433,39.0159732],[116.1819299,39.0162879],[116.1819214,39.0164015],[116.1815911,39.0164011],[116.1815861,39.0159673],[116.1817178,39.0159671],[116.1817246,39.0154599],[116.181644,39.0153911],[116.1812693,39.0153887],[116.1812629,39.0152806],[116.1812361,39.0150292],[116.1808588,39.0151653],[116.1804583,39.0154223],[116.1803009,39.0154251],[116.1802956,39.0159892],[116.1798378,39.0159975],[116.1798306,39.015785],[116.1794909,39.0159739],[116.1794748,39.0173118],[116.1799254,39.0170854],[116.1805709,39.0168019],[116.1807229,39.0164379],[116.1810484,39.0164435],[116.1810448,39.0168547],[116.1829849,39.0168603],[116.1828562,39.0159864],[116.1825271,39.0141295]]]}},{"type":"Feature","id":"way/1489118103","properties":{"osm_id":"1489118103","class":"green"},"geometry":{"type":"Polygon","coordinates":[[[116.1792925,39.0161364],[116.1792818,39.0174245],[116.1788257,39.0176469],[116.178772,39.0178136],[116.1787112,39.0178539],[116.1787166,39.0179276],[116.1788901,39.0181124],[116.1788954,39.0181944],[116.1792692,39.0186654],[116.1792639,39.019338],[116.1790421,39.0193185],[116.1788185,39.0191685],[116.178679,39.0189698],[116.1786915,39.018589],[116.1783642,39.0185876],[116.1783106,39.0184028],[116.1781049,39.0181277],[116.1778724,39.0181013],[116.1776256,39.018161],[116.1774092,39.0179248],[116.1772875,39.017822],[116.1775415,39.0176983],[116.1775755,39.0178831],[116.1779064,39.0179012],[116.1780763,39.0179679],[116.1780709,39.0168103],[116.1792925,39.0161364]]]}}],"metadata":{"source":"OpenStreetMap closed ways and multipolygon outers","bounds":[115.81235541625588,38.950488261804324,116.20243159160765,39.09970018815715],"kind":"green","featureCount":135,"coverage":"xiongan_20","fallback":"Baidu vector base map"}}
