{
  "type": "FeatureCollection",
  "metadata": {
    "intersection_id": "demo_2",
    "center": {
      "longitude": 116.126756,
      "latitude": 38.99115
    },
    "radius_m": 600.0,
    "source_network": "TotalMap_20.signals.net.xml",
    "source_crs": "SUMO_XY",
    "output_crs": "WGS84",
    "metric_crs": "EPSG:32650",
    "simplify_tolerance_m": 0.0,
    "feature_count": 16,
    "vertex_count": 460,
    "generated_at": "2026-08-04T10:33:52.632728+00:00"
  },
  "features": [
    {
      "type": "Feature",
      "id": "-45801",
      "properties": {
        "edge_id": "-45801",
        "segment_index": 0,
        "lane_count": 4,
        "speed": 27.78,
        "priority": 1,
        "width_m": 13.4,
        "length_m": 585.438,
        "source_crs": "WGS84"
      },
      "geometry": {
        "type": "LineString",
        "coordinates": [
          [
            116.1265835,
            38.9911986
          ],
          [
            116.1227055,
            38.9911686
          ],
          [
            116.1226843,
            38.9911683
          ],
          [
            116.1226604,
            38.9911678
          ],
          [
            116.1226429,
            38.9911672
          ],
          [
            116.122625,
            38.9911665
          ],
          [
            116.1226066,
            38.9911657
          ],
          [
            116.1225881,
            38.9911649
          ],
          [
            116.1225693,
            38.991164
          ],
          [
            116.1225508,
            38.9911629
          ],
          [
            116.1225331,
            38.9911619
          ],
          [
            116.1225157,
            38.9911609
          ],
          [
            116.1224917,
            38.9911592
          ],
          [
            116.1224709,
            38.9911574
          ],
          [
            116.1198419,
            38.9909218
          ]
        ]
      }
    },
    {
      "type": "Feature",
      "id": "-46683",
      "properties": {
        "edge_id": "-46683",
        "segment_index": 0,
        "lane_count": 1,
        "speed": 22.22,
        "priority": 1,
        "width_m": 3.35,
        "length_m": 72.122,
        "source_crs": "WGS84"
      },
      "geometry": {
        "type": "LineString",
        "coordinates": [
          [
            116.1274162,
            38.9964235
          ],
          [
            116.1282489,
            38.9964237
          ]
        ]
      }
    },
    {
      "type": "Feature",
      "id": "-50674",
      "properties": {
        "edge_id": "-50674",
        "segment_index": 0,
        "lane_count": 2,
        "speed": 27.78,
        "priority": 1,
        "width_m": 6.7,
        "length_m": 675.418,
        "source_crs": "WGS84"
      },
      "geometry": {
        "type": "LineString",
        "coordinates": [
          [
            116.1262323,
            38.9860736
          ],
          [
            116.1330889,
            38.9889725
          ]
        ]
      }
    },
    {
      "type": "Feature",
      "id": "-50675",
      "properties": {
        "edge_id": "-50675",
        "segment_index": 0,
        "lane_count": 2,
        "speed": 27.78,
        "priority": 1,
        "width_m": 6.7,
        "length_m": 39.278,
        "source_crs": "WGS84"
      },
      "geometry": {
        "type": "LineString",
        "coordinates": [
          [
            116.1257674,
            38.985877
          ],
          [
            116.1261661,
            38.9860456
          ]
        ]
      }
    },
    {
      "type": "Feature",
      "id": "-51425",
      "properties": {
        "edge_id": "-51425",
        "segment_index": 0,
        "lane_count": 5,
        "speed": 27.78,
        "priority": 1,
        "width_m": 16.75,
        "length_m": 57.857,
        "source_crs": "WGS84"
      },
      "geometry": {
        "type": "LineString",
        "coordinates": [
          [
            116.1259167,
            38.991096
          ],
          [
            116.1265847,
            38.9911011
          ]
        ]
      }
    },
    {
      "type": "Feature",
      "id": "-51425.1575.425",
      "properties": {
        "edge_id": "-51425.1575.425",
        "segment_index": 0,
        "lane_count": 4,
        "speed": 27.78,
        "priority": 1,
        "width_m": 13.4,
        "length_m": 521.38,
        "source_crs": "WGS84"
      },
      "geometry": {
        "type": "LineString",
        "coordinates": [
          [
            116.1198484,
            38.9908353
          ],
          [
            116.1224833,
            38.9910715
          ],
          [
            116.1225026,
            38.9910731
          ],
          [
            116.1225251,
            38.9910747
          ],
          [
            116.1225414,
            38.9910757
          ],
          [
            116.1225589,
            38.9910767
          ],
          [
            116.1225767,
            38.9910777
          ],
          [
            116.1225947,
            38.9910785
          ],
          [
            116.1226128,
            38.9910794
          ],
          [
            116.1226307,
            38.9910801
          ],
          [
            116.122648,
            38.9910808
          ],
          [
            116.1226643,
            38.9910813
          ],
          [
            116.1226871,
            38.9910818
          ],
          [
            116.1227068,
            38.9910821
          ],
          [
            116.1258504,
            38.9911063
          ]
        ]
      }
    },
    {
      "type": "Feature",
      "id": "-52395",
      "properties": {
        "edge_id": "-52395",
        "segment_index": 0,
        "lane_count": 1,
        "speed": 22.22,
        "priority": 1,
        "width_m": 3.35,
        "length_m": 62.16,
        "source_crs": "WGS84"
      },
      "geometry": {
        "type": "LineString",
        "coordinates": [
          [
            116.1281338,
            38.9964453
          ],
          [
            116.1274161,
            38.9964451
          ]
        ]
      }
    },
    {
      "type": "Feature",
      "id": "-52650",
      "properties": {
        "edge_id": "-52650",
        "segment_index": 0,
        "lane_count": 2,
        "speed": 27.78,
        "priority": 1,
        "width_m": 6.7,
        "length_m": 681.833,
        "source_crs": "WGS84"
      },
      "geometry": {
        "type": "LineString",
        "coordinates": [
          [
            116.1331276,
            38.989038
          ],
          [
            116.1262059,
            38.9861115
          ]
        ]
      }
    },
    {
      "type": "Feature",
      "id": "-56733",
      "properties": {
        "edge_id": "-56733",
        "segment_index": 0,
        "lane_count": 2,
        "speed": 27.78,
        "priority": 1,
        "width_m": 6.7,
        "length_m": 60.756,
        "source_crs": "WGS84"
      },
      "geometry": {
        "type": "LineString",
        "coordinates": [
          [
            116.1256771,
            38.9859509
          ],
          [
            116.1257989,
            38.9864901
          ]
        ]
      }
    },
    {
      "type": "Feature",
      "id": "-56734",
      "properties": {
        "edge_id": "-56734",
        "segment_index": 0,
        "lane_count": 3,
        "speed": 27.78,
        "priority": 1,
        "width_m": 7.7,
        "length_m": 431.75,
        "source_crs": "WGS84"
      },
      "geometry": {
        "type": "LineString",
        "coordinates": [
          [
            116.1259678,
            38.9871754
          ],
          [
            116.1262886,
            38.9885948
          ],
          [
            116.1262897,
            38.9885997
          ],
          [
            116.1262909,
            38.9886047
          ],
          [
            116.1262922,
            38.9886103
          ],
          [
            116.1262935,
            38.9886161
          ],
          [
            116.1262949,
            38.988622
          ],
          [
            116.1262963,
            38.9886281
          ],
          [
            116.1262978,
            38.9886344
          ],
          [
            116.1262995,
            38.988641
          ],
          [
            116.126301,
            38.9886478
          ],
          [
            116.1263027,
            38.9886545
          ],
          [
            116.1263044,
            38.9886614
          ],
          [
            116.126306,
            38.9886685
          ],
          [
            116.1263077,
            38.9886753
          ],
          [
            116.1263095,
            38.9886825
          ],
          [
            116.1263113,
            38.9886895
          ],
          [
            116.1263131,
            38.9886965
          ],
          [
            116.1263148,
            38.9887035
          ],
          [
            116.1263166,
            38.9887104
          ],
          [
            116.1263183,
            38.9887173
          ],
          [
            116.1263199,
            38.9887239
          ],
          [
            116.1263215,
            38.9887305
          ],
          [
            116.1263231,
            38.9887368
          ],
          [
            116.1263247,
            38.988743
          ],
          [
            116.1263263,
            38.9887488
          ],
          [
            116.1263277,
            38.9887545
          ],
          [
            116.1263292,
            38.9887601
          ],
          [
            116.1263305,
            38.9887651
          ],
          [
            116.1263318,
            38.9887698
          ],
          [
            116.1265636,
            38.9896366
          ],
          [
            116.1265649,
            38.9896415
          ],
          [
            116.1265664,
            38.9896469
          ],
          [
            116.1265677,
            38.9896524
          ],
          [
            116.1265692,
            38.9896581
          ],
          [
            116.1265708,
            38.9896643
          ],
          [
            116.1265724,
            38.9896705
          ],
          [
            116.1265739,
            38.989677
          ],
          [
            116.1265756,
            38.9896835
          ],
          [
            116.1265771,
            38.9896902
          ],
          [
            116.1265788,
            38.9896972
          ],
          [
            116.1265804,
            38.9897042
          ],
          [
            116.1265821,
            38.9897112
          ],
          [
            116.1265838,
            38.9897183
          ],
          [
            116.1265855,
            38.9897254
          ],
          [
            116.1265871,
            38.9897326
          ],
          [
            116.1265888,
            38.9897396
          ],
          [
            116.1265904,
            38.9897468
          ],
          [
            116.1265919,
            38.9897536
          ],
          [
            116.1265935,
            38.9897606
          ],
          [
            116.126595,
            38.9897675
          ],
          [
            116.1265963,
            38.989774
          ],
          [
            116.1265979,
            38.9897805
          ],
          [
            116.1265991,
            38.9897867
          ],
          [
            116.1266006,
            38.9897928
          ],
          [
            116.1266018,
            38.9897988
          ],
          [
            116.1266029,
            38.9898042
          ],
          [
            116.126604,
            38.9898096
          ],
          [
            116.1266049,
            38.9898146
          ],
          [
            116.1268395,
            38.991005
          ]
        ]
      }
    },
    {
      "type": "Feature",
      "id": "-56735",
      "properties": {
        "edge_id": "-56735",
        "segment_index": 0,
        "lane_count": 2,
        "speed": 27.78,
        "priority": 1,
        "width_m": 6.7,
        "length_m": 44.104,
        "source_crs": "WGS84"
      },
      "geometry": {
        "type": "LineString",
        "coordinates": [
          [
            116.1258542,
            38.9867349
          ],
          [
            116.1259427,
            38.9871263
          ]
        ]
      }
    },
    {
      "type": "Feature",
      "id": "-56736",
      "properties": {
        "edge_id": "-56736",
        "segment_index": 0,
        "lane_count": 3,
        "speed": 27.78,
        "priority": 1,
        "width_m": 7.7,
        "length_m": 589.729,
        "source_crs": "WGS84"
      },
      "geometry": {
        "type": "LineString",
        "coordinates": [
          [
            116.1268859,
            38.9912408
          ],
          [
            116.1270848,
            38.9922502
          ],
          [
            116.1270857,
            38.9922552
          ],
          [
            116.1270868,
            38.9922606
          ],
          [
            116.1270879,
            38.9922664
          ],
          [
            116.1270889,
            38.9922723
          ],
          [
            116.1270899,
            38.9922784
          ],
          [
            116.127091,
            38.9922848
          ],
          [
            116.127092,
            38.9922914
          ],
          [
            116.1270931,
            38.992298
          ],
          [
            116.1270942,
            38.9923048
          ],
          [
            116.1270953,
            38.9923119
          ],
          [
            116.1270963,
            38.9923189
          ],
          [
            116.1270974,
            38.992326
          ],
          [
            116.1270984,
            38.9923333
          ],
          [
            116.1270994,
            38.9923404
          ],
          [
            116.1271005,
            38.9923477
          ],
          [
            116.1271015,
            38.992355
          ],
          [
            116.1271024,
            38.9923619
          ],
          [
            116.1271034,
            38.9923691
          ],
          [
            116.1271042,
            38.9923762
          ],
          [
            116.1271052,
            38.9923829
          ],
          [
            116.127106,
            38.9923897
          ],
          [
            116.1271068,
            38.9923962
          ],
          [
            116.1271075,
            38.9924026
          ],
          [
            116.1271082,
            38.9924089
          ],
          [
            116.1271088,
            38.9924148
          ],
          [
            116.1271094,
            38.9924204
          ],
          [
            116.12711,
            38.9924259
          ],
          [
            116.1271104,
            38.992431
          ],
          [
            116.1271967,
            38.9934225
          ],
          [
            116.1271972,
            38.9934275
          ],
          [
            116.1271976,
            38.9934327
          ],
          [
            116.1271981,
            38.9934383
          ],
          [
            116.1271986,
            38.9934444
          ],
          [
            116.127199,
            38.9934506
          ],
          [
            116.1271995,
            38.9934567
          ],
          [
            116.1272,
            38.9934633
          ],
          [
            116.1272005,
            38.9934701
          ],
          [
            116.127201,
            38.9934769
          ],
          [
            116.1272015,
            38.9934838
          ],
          [
            116.1272021,
            38.993491
          ],
          [
            116.1272025,
            38.993498
          ],
          [
            116.127203,
            38.9935052
          ],
          [
            116.1272035,
            38.9935124
          ],
          [
            116.127204,
            38.9935196
          ],
          [
            116.1272045,
            38.9935269
          ],
          [
            116.127205,
            38.993534
          ],
          [
            116.1272053,
            38.993541
          ],
          [
            116.1272059,
            38.993548
          ],
          [
            116.1272063,
            38.993555
          ],
          [
            116.1272067,
            38.9935616
          ],
          [
            116.1272071,
            38.9935681
          ],
          [
            116.1272075,
            38.9935745
          ],
          [
            116.1272078,
            38.9935807
          ],
          [
            116.1272081,
            38.9935865
          ],
          [
            116.1272085,
            38.9935922
          ],
          [
            116.1272087,
            38.9935973
          ],
          [
            116.127209,
            38.9936023
          ],
          [
            116.1272376,
            38.9941815
          ],
          [
            116.1272379,
            38.9941863
          ],
          [
            116.1272381,
            38.9941918
          ],
          [
            116.1272384,
            38.9941975
          ],
          [
            116.1272387,
            38.9942034
          ],
          [
            116.1272389,
            38.9942096
          ],
          [
            116.127239,
            38.9942157
          ],
          [
            116.1272393,
            38.9942223
          ],
          [
            116.1272395,
            38.994229
          ],
          [
            116.1272398,
            38.994236
          ],
          [
            116.12724,
            38.994243
          ],
          [
            116.1272402,
            38.9942499
          ],
          [
            116.1272405,
            38.994257
          ],
          [
            116.1272407,
            38.9942644
          ],
          [
            116.1272409,
            38.9942716
          ],
          [
            116.1272411,
            38.9942788
          ],
          [
            116.1272413,
            38.9942859
          ],
          [
            116.1272415,
            38.9942931
          ],
          [
            116.1272417,
            38.9943002
          ],
          [
            116.1272419,
            38.9943072
          ],
          [
            116.127242,
            38.9943142
          ],
          [
            116.1272421,
            38.9943207
          ],
          [
            116.1272423,
            38.9943272
          ],
          [
            116.1272424,
            38.9943337
          ],
          [
            116.1272426,
            38.9943398
          ],
          [
            116.1272426,
            38.9943458
          ],
          [
            116.1272427,
            38.9943513
          ],
          [
            116.1272428,
            38.9943567
          ],
          [
            116.1272428,
            38.9943616
          ],
          [
            116.1272575,
            38.9961749
          ],
          [
            116.1272575,
            38.99618
          ],
          [
            116.1272575,
            38.9961851
          ],
          [
            116.1272576,
            38.9961906
          ],
          [
            116.1272576,
            38.9961967
          ],
          [
            116.1272577,
            38.9962029
          ],
          [
            116.1272577,
            38.9962091
          ],
          [
            116.1272577,
            38.9962154
          ],
          [
            116.1272578,
            38.9962221
          ],
          [
            116.1272579,
            38.9962291
          ],
          [
            116.1272579,
            38.9962361
          ],
          [
            116.127258,
            38.9962432
          ],
          [
            116.127258,
            38.9962502
          ],
          [
            116.1272581,
            38.9962574
          ],
          [
            116.1272582,
            38.9962646
          ],
          [
            116.1272581,
            38.9962718
          ],
          [
            116.1272583,
            38.996279
          ],
          [
            116.1272583,
            38.9962862
          ],
          [
            116.1272583,
            38.9962933
          ],
          [
            116.1272583,
            38.9963002
          ],
          [
            116.1272584,
            38.9963069
          ],
          [
            116.1272585,
            38.9963136
          ],
          [
            116.1272585,
            38.9963202
          ],
          [
            116.1272586,
            38.9963266
          ],
          [
            116.1272585,
            38.9963326
          ],
          [
            116.1272587,
            38.9963384
          ],
          [
            116.1272587,
            38.9963442
          ],
          [
            116.1272587,
            38.9963494
          ],
          [
            116.1272587,
            38.9963543
          ],
          [
            116.1272598,
            38.9965386
          ]
        ]
      }
    },
    {
      "type": "Feature",
      "id": "-57184",
      "properties": {
        "edge_id": "-57184",
        "segment_index": 0,
        "lane_count": 1,
        "speed": 22.22,
        "priority": 1,
        "width_m": 3.35,
        "length_m": 52.855,
        "source_crs": "WGS84"
      },
      "geometry": {
        "type": "LineString",
        "coordinates": [
          [
            116.1261263,
            38.9861188
          ],
          [
            116.1260823,
            38.9861218
          ],
          [
            116.1260781,
            38.9861224
          ],
          [
            116.1260732,
            38.9861236
          ],
          [
            116.1260677,
            38.9861256
          ],
          [
            116.1260616,
            38.9861284
          ],
          [
            116.1260549,
            38.9861317
          ],
          [
            116.1260482,
            38.9861356
          ],
          [
            116.1260414,
            38.9861398
          ],
          [
            116.1260346,
            38.9861443
          ],
          [
            116.1260278,
            38.986149
          ],
          [
            116.1260211,
            38.9861538
          ],
          [
            116.1260147,
            38.9861586
          ],
          [
            116.1260086,
            38.9861632
          ],
          [
            116.1260029,
            38.9861675
          ],
          [
            116.1259976,
            38.9861715
          ],
          [
            116.1259928,
            38.986175
          ],
          [
            116.1259882,
            38.9861785
          ],
          [
            116.1259831,
            38.9861822
          ],
          [
            116.1259778,
            38.9861861
          ],
          [
            116.1259724,
            38.9861902
          ],
          [
            116.1259666,
            38.9861947
          ],
          [
            116.1259607,
            38.9861993
          ],
          [
            116.1259547,
            38.9862041
          ],
          [
            116.1259484,
            38.986209
          ],
          [
            116.1259423,
            38.986214
          ],
          [
            116.1259361,
            38.9862192
          ],
          [
            116.1259297,
            38.9862244
          ],
          [
            116.1259235,
            38.9862295
          ],
          [
            116.1259175,
            38.9862347
          ],
          [
            116.1259114,
            38.9862399
          ],
          [
            116.1259057,
            38.9862449
          ],
          [
            116.1259002,
            38.9862499
          ],
          [
            116.1258949,
            38.9862549
          ],
          [
            116.12589,
            38.9862597
          ],
          [
            116.1258854,
            38.9862643
          ],
          [
            116.1258812,
            38.9862686
          ],
          [
            116.1258774,
            38.9862727
          ],
          [
            116.1258742,
            38.9862766
          ],
          [
            116.1258711,
            38.9862805
          ],
          [
            116.1258677,
            38.9862851
          ],
          [
            116.1258642,
            38.9862903
          ],
          [
            116.1258606,
            38.9862959
          ],
          [
            116.125857,
            38.9863018
          ],
          [
            116.1258535,
            38.9863081
          ],
          [
            116.12585,
            38.9863144
          ],
          [
            116.1258468,
            38.9863209
          ],
          [
            116.1258438,
            38.9863274
          ],
          [
            116.1258411,
            38.9863339
          ],
          [
            116.1258387,
            38.9863403
          ],
          [
            116.1258366,
            38.9863463
          ],
          [
            116.1258351,
            38.986352
          ],
          [
            116.1258342,
            38.9863572
          ],
          [
            116.1258337,
            38.9863618
          ],
          [
            116.1258338,
            38.9863661
          ],
          [
            116.1258437,
            38.9864853
          ]
        ]
      }
    },
    {
      "type": "Feature",
      "id": "-57186",
      "properties": {
        "edge_id": "-57186",
        "segment_index": 0,
        "lane_count": 2,
        "speed": 27.78,
        "priority": 1,
        "width_m": 6.7,
        "length_m": 39.278,
        "source_crs": "WGS84"
      },
      "geometry": {
        "type": "LineString",
        "coordinates": [
          [
            116.1261397,
            38.9860836
          ],
          [
            116.125741,
            38.985915
          ]
        ]
      }
    },
    {
      "type": "Feature",
      "id": "-57228",
      "properties": {
        "edge_id": "-57228",
        "segment_index": 0,
        "lane_count": 3,
        "speed": 27.78,
        "priority": 1,
        "width_m": 7.7,
        "length_m": 588.127,
        "source_crs": "WGS84"
      },
      "geometry": {
        "type": "LineString",
        "coordinates": [
          [
            116.127077,
            38.9965442
          ],
          [
            116.1270748,
            38.9942343
          ],
          [
            116.1270749,
            38.9942291
          ],
          [
            116.1270748,
            38.9942242
          ],
          [
            116.1270748,
            38.9942188
          ],
          [
            116.1270747,
            38.9942128
          ],
          [
            116.1270747,
            38.9942067
          ],
          [
            116.1270746,
            38.9942005
          ],
          [
            116.1270745,
            38.994194
          ],
          [
            116.1270744,
            38.9941874
          ],
          [
            116.1270743,
            38.9941807
          ],
          [
            116.1270742,
            38.9941737
          ],
          [
            116.127074,
            38.9941666
          ],
          [
            116.1270738,
            38.9941595
          ],
          [
            116.1270738,
            38.9941523
          ],
          [
            116.1270736,
            38.9941451
          ],
          [
            116.1270735,
            38.9941379
          ],
          [
            116.1270733,
            38.9941309
          ],
          [
            116.1270731,
            38.9941238
          ],
          [
            116.1270729,
            38.9941168
          ],
          [
            116.1270728,
            38.9941099
          ],
          [
            116.1270725,
            38.994103
          ],
          [
            116.1270724,
            38.9940963
          ],
          [
            116.1270722,
            38.9940899
          ],
          [
            116.1270719,
            38.9940836
          ],
          [
            116.1270718,
            38.9940775
          ],
          [
            116.1270716,
            38.9940717
          ],
          [
            116.1270714,
            38.9940662
          ],
          [
            116.1270711,
            38.994061
          ],
          [
            116.1270709,
            38.9940561
          ],
          [
            116.1270501,
            38.9935676
          ],
          [
            116.1270498,
            38.9935627
          ],
          [
            116.1270496,
            38.9935576
          ],
          [
            116.1270493,
            38.9935522
          ],
          [
            116.1270489,
            38.9935464
          ],
          [
            116.1270486,
            38.9935402
          ],
          [
            116.1270482,
            38.9935341
          ],
          [
            116.1270477,
            38.9935277
          ],
          [
            116.1270473,
            38.993521
          ],
          [
            116.1270468,
            38.9935143
          ],
          [
            116.1270463,
            38.9935074
          ],
          [
            116.1270457,
            38.9935004
          ],
          [
            116.1270452,
            38.9934934
          ],
          [
            116.1270447,
            38.9934863
          ],
          [
            116.127044,
            38.9934791
          ],
          [
            116.1270434,
            38.9934719
          ],
          [
            116.1270428,
            38.993465
          ],
          [
            116.1270422,
            38.9934579
          ],
          [
            116.1270415,
            38.9934507
          ],
          [
            116.1270409,
            38.9934439
          ],
          [
            116.1270403,
            38.9934374
          ],
          [
            116.1270396,
            38.9934306
          ],
          [
            116.127039,
            38.993424
          ],
          [
            116.1270384,
            38.993418
          ],
          [
            116.1270377,
            38.9934119
          ],
          [
            116.1270372,
            38.9934062
          ],
          [
            116.1270365,
            38.9934008
          ],
          [
            116.1270359,
            38.9933955
          ],
          [
            116.1270353,
            38.9933908
          ],
          [
            116.1268988,
            38.992295
          ],
          [
            116.1268982,
            38.99229
          ],
          [
            116.1268975,
            38.9922849
          ],
          [
            116.1268968,
            38.9922793
          ],
          [
            116.1268961,
            38.9922735
          ],
          [
            116.1268952,
            38.9922674
          ],
          [
            116.1268945,
            38.9922612
          ],
          [
            116.1268936,
            38.9922547
          ],
          [
            116.1268927,
            38.9922481
          ],
          [
            116.1268918,
            38.9922414
          ],
          [
            116.1268908,
            38.9922344
          ],
          [
            116.1268899,
            38.9922276
          ],
          [
            116.1268889,
            38.9922204
          ],
          [
            116.1268879,
            38.9922133
          ],
          [
            116.1268869,
            38.9922062
          ],
          [
            116.1268859,
            38.992199
          ],
          [
            116.1268849,
            38.9921918
          ],
          [
            116.1268838,
            38.9921849
          ],
          [
            116.1268828,
            38.9921779
          ],
          [
            116.1268818,
            38.992171
          ],
          [
            116.1268809,
            38.9921642
          ],
          [
            116.1268799,
            38.9921576
          ],
          [
            116.126879,
            38.992151
          ],
          [
            116.1268781,
            38.9921449
          ],
          [
            116.1268771,
            38.9921389
          ],
          [
            116.1268763,
            38.9921331
          ],
          [
            116.1268754,
            38.9921276
          ],
          [
            116.1268746,
            38.9921224
          ],
          [
            116.1268738,
            38.9921174
          ],
          [
            116.1267715,
            38.9914637
          ],
          [
            116.1267707,
            38.9914589
          ],
          [
            116.1267699,
            38.9914538
          ],
          [
            116.126769,
            38.9914481
          ],
          [
            116.1267681,
            38.9914425
          ],
          [
            116.1267669,
            38.9914364
          ],
          [
            116.126766,
            38.9914302
          ],
          [
            116.1267648,
            38.9914239
          ],
          [
            116.1267637,
            38.9914174
          ],
          [
            116.1267624,
            38.9914107
          ],
          [
            116.1267612,
            38.9914037
          ],
          [
            116.12676,
            38.9913969
          ],
          [
            116.1267586,
            38.9913898
          ],
          [
            116.1267572,
            38.9913827
          ],
          [
            116.1267559,
            38.9913757
          ],
          [
            116.1267546,
            38.9913686
          ],
          [
            116.1267533,
            38.9913616
          ],
          [
            116.1267519,
            38.9913545
          ],
          [
            116.1267506,
            38.9913475
          ],
          [
            116.1267493,
            38.9913409
          ],
          [
            116.1267478,
            38.991334
          ],
          [
            116.1267466,
            38.9913275
          ],
          [
            116.1267453,
            38.9913212
          ],
          [
            116.126744,
            38.9913149
          ],
          [
            116.1267428,
            38.991309
          ],
          [
            116.1267417,
            38.9913034
          ],
          [
            116.1267404,
            38.9912978
          ],
          [
            116.1267394,
            38.9912927
          ],
          [
            116.1267383,
            38.9912879
          ],
          [
            116.1267319,
            38.9912589
          ]
        ]
      }
    },
    {
      "type": "Feature",
      "id": "-57229",
      "properties": {
        "edge_id": "-57229",
        "segment_index": 0,
        "lane_count": 3,
        "speed": 27.78,
        "priority": 1,
        "width_m": 7.7,
        "length_m": 569.812,
        "source_crs": "WGS84"
      },
      "geometry": {
        "type": "LineString",
        "coordinates": [
          [
            116.1266813,
            38.9910257
          ],
          [
            116.1263822,
            38.9896215
          ],
          [
            116.1263812,
            38.9896168
          ],
          [
            116.12638,
            38.9896115
          ],
          [
            116.1263788,
            38.9896061
          ],
          [
            116.1263775,
            38.9896003
          ],
          [
            116.1263763,
            38.9895944
          ],
          [
            116.1263749,
            38.9895883
          ],
          [
            116.1263734,
            38.9895819
          ],
          [
            116.1263719,
            38.9895754
          ],
          [
            116.1263703,
            38.9895686
          ],
          [
            116.1263687,
            38.9895617
          ],
          [
            116.1263672,
            38.9895548
          ],
          [
            116.1263656,
            38.9895479
          ],
          [
            116.1263639,
            38.989541
          ],
          [
            116.1263622,
            38.9895339
          ],
          [
            116.1263605,
            38.9895268
          ],
          [
            116.1263588,
            38.9895197
          ],
          [
            116.1263572,
            38.9895127
          ],
          [
            116.1263556,
            38.9895059
          ],
          [
            116.1263539,
            38.9894991
          ],
          [
            116.1263522,
            38.9894924
          ],
          [
            116.1263506,
            38.989486
          ],
          [
            116.126349,
            38.9894795
          ],
          [
            116.1263475,
            38.9894733
          ],
          [
            116.126346,
            38.9894674
          ],
          [
            116.1263446,
            38.9894617
          ],
          [
            116.1263432,
            38.9894563
          ],
          [
            116.1263419,
            38.9894513
          ],
          [
            116.1263406,
            38.9894464
          ],
          [
            116.1260695,
            38.9884117
          ],
          [
            116.1260683,
            38.9884068
          ],
          [
            116.1260668,
            38.9884014
          ],
          [
            116.1260655,
            38.9883959
          ],
          [
            116.126064,
            38.9883904
          ],
          [
            116.1260624,
            38.9883842
          ],
          [
            116.1260608,
            38.9883778
          ],
          [
            116.1260593,
            38.9883715
          ],
          [
            116.1260576,
            38.988365
          ],
          [
            116.1260559,
            38.9883582
          ],
          [
            116.1260541,
            38.9883514
          ],
          [
            116.1260524,
            38.9883445
          ],
          [
            116.1260506,
            38.9883375
          ],
          [
            116.1260489,
            38.9883304
          ],
          [
            116.1260472,
            38.9883233
          ],
          [
            116.1260454,
            38.9883163
          ],
          [
            116.1260436,
            38.9883093
          ],
          [
            116.1260419,
            38.9883022
          ],
          [
            116.1260402,
            38.9882951
          ],
          [
            116.1260385,
            38.9882884
          ],
          [
            116.1260369,
            38.9882817
          ],
          [
            116.1260353,
            38.988275
          ],
          [
            116.1260337,
            38.9882686
          ],
          [
            116.1260322,
            38.9882624
          ],
          [
            116.1260308,
            38.9882564
          ],
          [
            116.1260294,
            38.9882507
          ],
          [
            116.126028,
            38.988245
          ],
          [
            116.1260269,
            38.9882398
          ],
          [
            116.1260257,
            38.988235
          ],
          [
            116.1254959,
            38.9859758
          ]
        ]
      }
    }
  ]
}
