{
  "type": "FeatureCollection",
  "features": [
    {
      "type": "Feature",
      "id": "way/1189940958",
      "properties": {
        "osm_id": "1189940958",
        "class": "green"
      },
      "geometry": {
        "type": "Polygon",
        "coordinates": [
          [
            [
              116.1087505,
              38.989071
            ],
            [
              116.1124627,
              38.9887332
            ],
            [
              116.112232,
              38.9871071
            ],
            [
              116.109936,
              38.9873156
            ],
            [
              116.1085896,
              38.9876283
            ],
            [
              116.1087505,
              38.989071
            ]
          ]
        ]
      }
    },
    {
      "type": "Feature",
      "id": "vegetation-ground/tree--51425-11",
      "properties": {
        "class": "landscaped-roadside",
        "vegetation_cell": "-1:-1"
      },
      "geometry": {
        "type": "Polygon",
        "coordinates": [
          [
            [
              116.12511783650957,
              38.99105866914546
            ],
            [
              116.12488624402582,
              38.991047617026844
            ],
            [
              116.12488994113245,
              38.99100081607175
            ],
            [
              116.12512153361621,
              38.99101186819036
            ],
            [
              116.12511783650957,
              38.99105866914546
            ]
          ]
        ]
      }
    },
    {
      "type": "Feature",
      "id": "vegetation-ground/tree--51425-12",
      "properties": {
        "class": "landscaped-roadside",
        "vegetation_cell": "-1:-1"
      },
      "geometry": {
        "type": "Polygon",
        "coordinates": [
          [
            [
              116.12556123844274,
              38.991054316355566
            ],
            [
              116.12532924311245,
              38.99105737077692
            ],
            [
              116.12532822136069,
              38.9910104884133
            ],
            [
              116.12556021669099,
              38.991007433991946
            ],
            [
              116.12556123844274,
              38.991054316355566
            ]
          ]
        ]
      }
    },
    {
      "type": "Feature",
      "id": "vegetation-ground/tree--51425-13",
      "properties": {
        "class": "landscaped-roadside",
        "vegetation_cell": "-1:-1"
      },
      "geometry": {
        "type": "Polygon",
        "coordinates": [
          [
            [
              116.12599953800834,
              38.991063942639386
            ],
            [
              116.12576793816169,
              38.99105298412416
            ],
            [
              116.12577160395652,
              38.99100618168114
            ],
            [
              116.12600320380318,
              38.99101714019637
            ],
            [
              116.12599953800834,
              38.991063942639386
            ]
          ]
        ]
      }
    },
    {
      "type": "Feature",
      "id": "vegetation-ground/tree--51425-14",
      "properties": {
        "class": "landscaped-roadside",
        "vegetation_cell": "-1:-1"
      },
      "geometry": {
        "type": "Polygon",
        "coordinates": [
          [
            [
              116.12644131544224,
              38.99106426661211
            ],
            [
              116.12620942524245,
              38.99105803837858
            ],
            [
              116.12621150868404,
              38.99101117726008
            ],
            [
              116.12644339888382,
              38.99101740549361
            ],
            [
              116.12644131544224,
              38.99106426661211
            ]
          ]
        ]
      }
    },
    {
      "type": "Feature",
      "id": "vegetation-ground/tree--51425-9",
      "properties": {
        "class": "landscaped-roadside",
        "vegetation_cell": "-1:-1"
      },
      "geometry": {
        "type": "Polygon",
        "coordinates": [
          [
            [
              116.12423927640143,
              38.99104444886992
            ],
            [
              116.1240074129888,
              38.99105125294923
            ],
            [
              116.12400513691779,
              38.99100439724395
            ],
            [
              116.12423700033041,
              38.99099759316464
            ],
            [
              116.12423927640143,
              38.99104444886992
            ]
          ]
        ]
      }
    },
    {
      "type": "Feature",
      "id": "vegetation-ground/tree--56734-6",
      "properties": {
        "class": "landscaped-roadside",
        "vegetation_cell": "-1:-1"
      },
      "geometry": {
        "type": "Polygon",
        "coordinates": [
          [
            [
              116.12659999200653,
              38.98952122068414
            ],
            [
              116.12655926982296,
              38.9893436772147
            ],
            [
              116.126618660892,
              38.98933544794467
            ],
            [
              116.12665938307558,
              38.98951299141411
            ],
            [
              116.12659999200653,
              38.98952122068414
            ]
          ]
        ]
      }
    },
    {
      "type": "Feature",
      "id": "vegetation-ground/tree--56734-7",
      "properties": {
        "class": "landscaped-roadside",
        "vegetation_cell": "-1:-1"
      },
      "geometry": {
        "type": "Polygon",
        "coordinates": [
          [
            [
              116.12668265922649,
              38.98986078988025
            ],
            [
              116.12664933258239,
              38.98968231716178
            ],
            [
              116.12670903449977,
              38.989675582406186
            ],
            [
              116.12674236114387,
              38.98985405512465
            ],
            [
              116.12668265922649,
              38.98986078988025
            ]
          ]
        ]
      }
    },
    {
      "type": "Feature",
      "id": "vegetation-ground/tree--57229-5",
      "properties": {
        "class": "landscaped-roadside",
        "vegetation_cell": "-1:-1"
      },
      "geometry": {
        "type": "Polygon",
        "coordinates": [
          [
            [
              116.12616884354374,
              38.9890649682737
            ],
            [
              116.12621767917251,
              38.98924127121161
            ],
            [
              116.12615870308069,
              38.989251140072774
            ],
            [
              116.12610986745192,
              38.989074837134865
            ],
            [
              116.12616884354374,
              38.9890649682737
            ]
          ]
        ]
      }
    },
    {
      "type": "Feature",
      "id": "vegetation-ground/tree--57229-6",
      "properties": {
        "class": "landscaped-roadside",
        "vegetation_cell": "-1:-1"
      },
      "geometry": {
        "type": "Polygon",
        "coordinates": [
          [
            [
              116.12607829440299,
              38.98872914399512
            ],
            [
              116.1261320132966,
              38.9889045868309
            ],
            [
              116.1260733249224,
              38.98891544251796
            ],
            [
              116.12601960602879,
              38.98873999968218
            ],
            [
              116.12607829440299,
              38.98872914399512
            ]
          ]
        ]
      }
    },
    {
      "type": "Feature",
      "id": "vegetation-ground/tree--57229-7",
      "properties": {
        "class": "landscaped-roadside",
        "vegetation_cell": "-1:-1"
      },
      "geometry": {
        "type": "Polygon",
        "coordinates": [
          [
            [
              116.12599745774916,
              38.988393663055795
            ],
            [
              116.12603764975538,
              38.9885712794938
            ],
            [
              116.12597823427721,
              38.98857940162387
            ],
            [
              116.125938042271,
              38.98840178518587
            ],
            [
              116.12599745774916,
              38.988393663055795
            ]
          ]
        ]
      }
    },
    {
      "type": "Feature",
      "id": "vegetation-ground/tree--56734-1",
      "properties": {
        "class": "landscaped-roadside",
        "vegetation_cell": "-1:-2"
      },
      "geometry": {
        "type": "Polygon",
        "coordinates": [
          [
            [
              116.1261852596633,
              38.98784079523439
            ],
            [
              116.12615114421472,
              38.987662412573854
            ],
            [
              116.12621081600629,
              38.987655518414115
            ],
            [
              116.12624493145488,
              38.98783390107465
            ],
            [
              116.1261852596633,
              38.98784079523439
            ]
          ]
        ]
      }
    },
    {
      "type": "Feature",
      "id": "vegetation-ground/tree--56734-2",
      "properties": {
        "class": "landscaped-roadside",
        "vegetation_cell": "-1:-2"
      },
      "geometry": {
        "type": "Polygon",
        "coordinates": [
          [
            [
              116.1262708013417,
              38.98817877412596
            ],
            [
              116.12621896502982,
              38.98800298950058
            ],
            [
              116.12627776773799,
              38.98799251425171
            ],
            [
              116.12632960404987,
              38.98816829887709
            ],
            [
              116.1262708013417,
              38.98817877412596
            ]
          ]
        ]
      }
    },
    {
      "type": "Feature",
      "id": "vegetation-ground/tree--57229-11",
      "properties": {
        "class": "landscaped-roadside",
        "vegetation_cell": "-1:-2"
      },
      "geometry": {
        "type": "Polygon",
        "coordinates": [
          [
            [
              116.1256733623432,
              38.9870439001072
            ],
            [
              116.12572029820952,
              38.987220514486566
            ],
            [
              116.12566121793566,
              38.98722999943761
            ],
            [
              116.12561428206935,
              38.987053385058246
            ],
            [
              116.1256733623432,
              38.9870439001072
            ]
          ]
        ]
      }
    },
    {
      "type": "Feature",
      "id": "vegetation-ground/tree--57229-13",
      "properties": {
        "class": "landscaped-roadside",
        "vegetation_cell": "-1:-2"
      },
      "geometry": {
        "type": "Polygon",
        "coordinates": [
          [
            [
              116.12552190674188,
              38.986370112100026
            ],
            [
              116.12555613331853,
              38.986548481900044
            ],
            [
              116.12549646582897,
              38.986555398516906
            ],
            [
              116.12546223925233,
              38.98637702871689
            ],
            [
              116.12552190674188,
              38.986370112100026
            ]
          ]
        ]
      }
    },
    {
      "type": "Feature",
      "id": "vegetation-ground/tree--57229-8",
      "properties": {
        "class": "landscaped-roadside",
        "vegetation_cell": "-1:-2"
      },
      "geometry": {
        "type": "Polygon",
        "coordinates": [
          [
            [
              116.12590796455893,
              38.98805511233603
            ],
            [
              116.12595973397391,
              38.988230908870484
            ],
            [
              116.12590092728198,
              38.98824137060062
            ],
            [
              116.125849157867,
              38.98806557406616
            ],
            [
              116.12590796455893,
              38.98805511233603
            ]
          ]
        ]
      }
    },
    {
      "type": "Feature",
      "id": "vegetation-ground/tree--57229-9",
      "properties": {
        "class": "landscaped-roadside",
        "vegetation_cell": "-1:-2"
      },
      "geometry": {
        "type": "Polygon",
        "coordinates": [
          [
            [
              116.1258360362545,
              38.987718342863275
            ],
            [
              116.12587425515775,
              38.98789622221036
            ],
            [
              116.1258147517324,
              38.98790394560943
            ],
            [
              116.12577653282915,
              38.98772606626235
            ],
            [
              116.1258360362545,
              38.987718342863275
            ]
          ]
        ]
      }
    },
    {
      "type": "Feature",
      "id": "vegetation-ground/tree--45801-0",
      "properties": {
        "class": "landscaped-roadside",
        "vegetation_cell": "-1:0"
      },
      "geometry": {
        "type": "Polygon",
        "coordinates": [
          [
            [
              116.12621052106317,
              38.9912291863939
            ],
            [
              116.12644229285058,
              38.9912376692217
            ],
            [
              116.12643945521194,
              38.991284506411056
            ],
            [
              116.12620768342452,
              38.99127602358326
            ],
            [
              116.12621052106317,
              38.9912291863939
            ]
          ]
        ]
      }
    },
    {
      "type": "Feature",
      "id": "vegetation-ground/tree--45801-1",
      "properties": {
        "class": "landscaped-roadside",
        "vegetation_cell": "-1:0"
      },
      "geometry": {
        "type": "Polygon",
        "coordinates": [
          [
            [
              116.1257673595991,
              38.99123317803476
            ],
            [
              116.1259993033573,
              38.991228301197864
            ],
            [
              116.12600093473556,
              38.99127517313964
            ],
            [
              116.12576899097735,
              38.99128004997654
            ],
            [
              116.1257673595991,
              38.99123317803476
            ]
          ]
        ]
      }
    },
    {
      "type": "Feature",
      "id": "vegetation-ground/tree--45801-2",
      "properties": {
        "class": "landscaped-roadside",
        "vegetation_cell": "-1:0"
      },
      "geometry": {
        "type": "Polygon",
        "coordinates": [
          [
            [
              116.12532852900736,
              38.9912246323176
            ],
            [
              116.12556038821731,
              38.991231522370256
            ],
            [
              116.12555808338686,
              38.991278377226244
            ],
            [
              116.12532622417692,
              38.99127148717359
            ],
            [
              116.12532852900736,
              38.9912246323176
            ]
          ]
        ]
      }
    },
    {
      "type": "Feature",
      "id": "vegetation-ground/tree--45801-12",
      "properties": {
        "class": "landscaped-roadside",
        "vegetation_cell": "-2:-1"
      },
      "geometry": {
        "type": "Polygon",
        "coordinates": [
          [
            [
              116.12092132708898,
              38.99106092880305
            ],
            [
              116.1211515997492,
              38.99108307380518
            ],
            [
              116.12114419189942,
              38.99112960804608
            ],
            [
              116.1209139192392,
              38.99110746304395
            ],
            [
              116.12092132708898,
              38.99106092880305
            ]
          ]
        ]
      }
    },
    {
      "type": "Feature",
      "id": "vegetation-ground/tree--45801-14",
      "properties": {
        "class": "landscaped-roadside",
        "vegetation_cell": "-2:-1"
      },
      "geometry": {
        "type": "Polygon",
        "coordinates": [
          [
            [
              116.1200429403191,
              38.990987768847255
            ],
            [
              116.12027451930065,
              38.990998990581105
            ],
            [
              116.12027076545506,
              38.99104578880763
            ],
            [
              116.1200391864735,
              38.99103456707378
            ],
            [
              116.1200429403191,
              38.990987768847255
            ]
          ]
        ]
      }
    },
    {
      "type": "Feature",
      "id": "vegetation-ground/tree--51425-0",
      "properties": {
        "class": "landscaped-roadside",
        "vegetation_cell": "-2:-1"
      },
      "geometry": {
        "type": "Polygon",
        "coordinates": [
          [
            [
              116.12029270563164,
              38.9908350802628
            ],
            [
              116.12006325368122,
              38.990808278565815
            ],
            [
              116.12007221926831,
              38.99076191017659
            ],
            [
              116.12030167121873,
              38.99078871187357
            ],
            [
              116.12029270563164,
              38.9908350802628
            ]
          ]
        ]
      }
    },
    {
      "type": "Feature",
      "id": "vegetation-ground/tree--51425-2",
      "properties": {
        "class": "landscaped-roadside",
        "vegetation_cell": "-2:-1"
      },
      "geometry": {
        "type": "Polygon",
        "coordinates": [
          [
            [
              116.12116737084469,
              38.990915784079704
            ],
            [
              116.12093887190629,
              38.99088444747203
            ],
            [
              116.12094935449196,
              38.99083827167054
            ],
            [
              116.12117785343035,
              38.99086960827822
            ],
            [
              116.12116737084469,
              38.990915784079704
            ]
          ]
        ]
      }
    },
    {
      "type": "Feature",
      "id": "vegetation-ground/tree--51425-3",
      "properties": {
        "class": "landscaped-roadside",
        "vegetation_cell": "-2:-1"
      },
      "geometry": {
        "type": "Polygon",
        "coordinates": [
          [
            [
              116.12160587160567,
              38.99095410076996
            ],
            [
              116.12137693620564,
              38.99092475163878
            ],
            [
              116.12138675394932,
              38.99087848763572
            ],
            [
              116.12161568934935,
              38.9909078367669
            ],
            [
              116.12160587160567,
              38.99095410076996
            ]
          ]
        ]
      }
    },
    {
      "type": "Feature",
      "id": "vegetation-ground/tree--51425-5",
      "properties": {
        "class": "landscaped-roadside",
        "vegetation_cell": "-2:-1"
      },
      "geometry": {
        "type": "Polygon",
        "coordinates": [
          [
            [
              116.12248482865023,
              38.99102674954666
            ],
            [
              116.12225385395328,
              38.99100958028064
            ],
            [
              116.12225959734145,
              38.99096290416989
            ],
            [
              116.1224905720384,
              38.990980073435914
            ],
            [
              116.12248482865023,
              38.99102674954666
            ]
          ]
        ]
      }
    },
    {
      "type": "Feature",
      "id": "vegetation-ground/tree--45801-7",
      "properties": {
        "class": "landscaped-roadside",
        "vegetation_cell": "-2:0"
      },
      "geometry": {
        "type": "Polygon",
        "coordinates": [
          [
            [
              116.12312273443375,
              38.99121578673556
            ],
            [
              116.12335474643606,
              38.99121362892275
            ],
            [
              116.12335546825823,
              38.991260514655515
            ],
            [
              116.12312345625591,
              38.991262672468324
            ],
            [
              116.12312273443375,
              38.99121578673556
            ]
          ]
        ]
      }
    },
    {
      "type": "Feature",
      "id": "vegetation-ground/tree--56734-10",
      "properties": {
        "class": "landscaped-roadside",
        "vegetation_cell": "0:-1"
      },
      "geometry": {
        "type": "Polygon",
        "coordinates": [
          [
            [
              116.12687764394144,
              38.99087708812256
            ],
            [
              116.1268553848111,
              38.99069757724378
            ],
            [
              116.12691543400933,
              38.99069307904702
            ],
            [
              116.12693769313968,
              38.9908725899258
            ],
            [
              116.12687764394144,
              38.99087708812256
            ]
          ]
        ]
      }
    },
    {
      "type": "Feature",
      "id": "vegetation-ground/tree--50674-1",
      "properties": {
        "class": "landscaped-roadside",
        "vegetation_cell": "0:-2"
      },
      "geometry": {
        "type": "Polygon",
        "coordinates": [
          [
            [
              116.12704600095913,
              38.98634481735696
            ],
            [
              116.12684281372533,
              38.986257737589426
            ],
            [
              116.12687194327034,
              38.98621667685874
            ],
            [
              116.12707513050414,
              38.98630375662627
            ],
            [
              116.12704600095913,
              38.98634481735696
            ]
          ]
        ]
      }
    },
    {
      "type": "Feature",
      "id": "vegetation-ground/tree--50674-3",
      "properties": {
        "class": "landscaped-roadside",
        "vegetation_cell": "0:-2"
      },
      "geometry": {
        "type": "Polygon",
        "coordinates": [
          [
            [
              116.1278209198637,
              38.98667196513417
            ],
            [
              116.12761721052514,
              38.98658562541072
            ],
            [
              116.12764609251383,
              38.98654445917142
            ],
            [
              116.12784980185238,
              38.98663079889487
            ],
            [
              116.1278209198637,
              38.98667196513417
            ]
          ]
        ]
      }
    },
    {
      "type": "Feature",
      "id": "vegetation-ground/tree--50674-5",
      "properties": {
        "class": "landscaped-roadside",
        "vegetation_cell": "0:-2"
      },
      "geometry": {
        "type": "Polygon",
        "coordinates": [
          [
            [
              116.12859617560937,
              38.98699882709149
            ],
            [
              116.12839149225543,
              38.98691389037546
            ],
            [
              116.12841990491617,
              38.986872527303994
            ],
            [
              116.12862458827011,
              38.98695746402002
            ],
            [
              116.12859617560937,
              38.98699882709149
            ]
          ]
        ]
      }
    },
    {
      "type": "Feature",
      "id": "vegetation-ground/tree--50674-6",
      "properties": {
        "class": "landscaped-roadside",
        "vegetation_cell": "0:-2"
      },
      "geometry": {
        "type": "Polygon",
        "coordinates": [
          [
            [
              116.12898079969497,
              38.98716471766397
            ],
            [
              116.12877971516065,
              38.98707473758687
            ],
            [
              116.1288098149046,
              38.98703410177646
            ],
            [
              116.12901089943892,
              38.98712408185356
            ],
            [
              116.12898079969497,
              38.98716471766397
            ]
          ]
        ]
      }
    },
    {
      "type": "Feature",
      "id": "vegetation-ground/tree--50674-8",
      "properties": {
        "class": "landscaped-roadside",
        "vegetation_cell": "0:-2"
      },
      "geometry": {
        "type": "Polygon",
        "coordinates": [
          [
            [
              116.12975995647211,
              38.98748831355427
            ],
            [
              116.12955263662431,
              38.98740733183869
            ],
            [
              116.12957972627551,
              38.98736543597605
            ],
            [
              116.12978704612331,
              38.987446417691636
            ],
            [
              116.12975995647211,
              38.98748831355427
            ]
          ]
        ]
      }
    },
    {
      "type": "Feature",
      "id": "vegetation-ground/tree--50674-9",
      "properties": {
        "class": "landscaped-roadside",
        "vegetation_cell": "0:-2"
      },
      "geometry": {
        "type": "Polygon",
        "coordinates": [
          [
            [
              116.13014830418741,
              38.98765107510441
            ],
            [
              116.12993956831704,
              38.9875723214879
            ],
            [
              116.12996591263423,
              38.98753013947086
            ],
            [
              116.1301746485046,
              38.98760889308737
            ],
            [
              116.13014830418741,
              38.98765107510441
            ]
          ]
        ]
      }
    },
    {
      "type": "Feature",
      "id": "vegetation-ground/tree--52650-10",
      "properties": {
        "class": "landscaped-roadside",
        "vegetation_cell": "0:-2"
      },
      "geometry": {
        "type": "Polygon",
        "coordinates": [
          [
            [
              116.12882640668535,
              38.98729493347404
            ],
            [
              116.12903243670276,
              38.9873778799544
            ],
            [
              116.12900468980699,
              38.98741951516396
            ],
            [
              116.12879865978958,
              38.987336568683595
            ],
            [
              116.12882640668535,
              38.98729493347404
            ]
          ]
        ]
      }
    },
    {
      "type": "Feature",
      "id": "vegetation-ground/tree--52650-12",
      "properties": {
        "class": "landscaped-roadside",
        "vegetation_cell": "0:-2"
      },
      "geometry": {
        "type": "Polygon",
        "coordinates": [
          [
            [
              116.12805200235972,
              38.98696735382477
            ],
            [
              116.12825786564511,
              38.987050550015354
            ],
            [
              116.12823003521736,
              38.98709215153117
            ],
            [
              116.12802417193197,
              38.987008955340585
            ],
            [
              116.12805200235972,
              38.98696735382477
            ]
          ]
        ]
      }
    },
    {
      "type": "Feature",
      "id": "vegetation-ground/tree--52650-13",
      "properties": {
        "class": "landscaped-roadside",
        "vegetation_cell": "0:-2"
      },
      "geometry": {
        "type": "Polygon",
        "coordinates": [
          [
            [
              116.12766335269028,
              38.9868048326554
            ],
            [
              116.12787104928556,
              38.98688522906251
            ],
            [
              116.1278441554292,
              38.986927201059494
            ],
            [
              116.12763645883392,
              38.98684680465239
            ],
            [
              116.12766335269028,
              38.9868048326554
            ]
          ]
        ]
      }
    },
    {
      "type": "Feature",
      "id": "vegetation-ground/tree--52650-8",
      "properties": {
        "class": "landscaped-roadside",
        "vegetation_cell": "0:-2"
      },
      "geometry": {
        "type": "Polygon",
        "coordinates": [
          [
            [
              116.12960341496827,
              38.98762032661953
            ],
            [
              116.12980610377923,
              38.98770810529275
            ],
            [
              116.12977674043933,
              38.98774906530054
            ],
            [
              116.12957405162837,
              38.98766128662732
            ],
            [
              116.12960341496827,
              38.98762032661953
            ]
          ]
        ]
      }
    },
    {
      "type": "Feature",
      "id": "vegetation-ground/tree--56736-0",
      "properties": {
        "class": "landscaped-roadside",
        "vegetation_cell": "0:0"
      },
      "geometry": {
        "type": "Polygon",
        "coordinates": [
          [
            [
              116.12700835364726,
              38.99152826259675
            ],
            [
              116.12698125646929,
              38.99134915396488
            ],
            [
              116.12704117110965,
              38.99134367807988
            ],
            [
              116.12706826828762,
              38.99152278671175
            ],
            [
              116.12700835364726,
              38.99152826259675
            ]
          ]
        ]
      }
    },
    {
      "type": "Feature",
      "id": "vegetation-ground/tree--56736-1",
      "properties": {
        "class": "landscaped-roadside",
        "vegetation_cell": "0:0"
      },
      "geometry": {
        "type": "Polygon",
        "coordinates": [
          [
            [
              116.12707638676908,
              38.99186710541773
            ],
            [
              116.1270467150087,
              38.9916882434375
            ],
            [
              116.12710654714023,
              38.991682247272585
            ],
            [
              116.1271362189006,
              38.99186110925282
            ],
            [
              116.12707638676908,
              38.99186710541773
            ]
          ]
        ]
      }
    },
    {
      "type": "Feature",
      "id": "vegetation-ground/tree--56736-4",
      "properties": {
        "class": "landscaped-roadside",
        "vegetation_cell": "0:0"
      },
      "geometry": {
        "type": "Polygon",
        "coordinates": [
          [
            [
              116.12722534066094,
              38.99289483514821
            ],
            [
              116.12719922602288,
              38.99271563836707
            ],
            [
              116.12725917015055,
              38.99271036103689
            ],
            [
              116.12728528478861,
              38.99288955781803
            ],
            [
              116.12722534066094,
              38.99289483514821
            ]
          ]
        ]
      }
    },
    {
      "type": "Feature",
      "id": "vegetation-ground/tree--56736-5",
      "properties": {
        "class": "landscaped-roadside",
        "vegetation_cell": "0:0"
      },
      "geometry": {
        "type": "Polygon",
        "coordinates": [
          [
            [
              116.1272432013356,
              38.99323490599851
            ],
            [
              116.12724049868201,
              38.99305457558182
            ],
            [
              116.1273008220285,
              38.99305402942088
            ],
            [
              116.12730352468209,
              38.99323435983757
            ],
            [
              116.1272432013356,
              38.99323490599851
            ]
          ]
        ]
      }
    },
    {
      "type": "Feature",
      "id": "vegetation-ground/tree--56736-7",
      "properties": {
        "class": "landscaped-roadside",
        "vegetation_cell": "0:0"
      },
      "geometry": {
        "type": "Polygon",
        "coordinates": [
          [
            [
              116.12729019832307,
              38.993921581222885
            ],
            [
              116.12728883705253,
              38.99374124167554
            ],
            [
              116.12734916345337,
              38.9937409665856
            ],
            [
              116.12735052472391,
              38.99392130613295
            ],
            [
              116.12729019832307,
              38.993921581222885
            ]
          ]
        ]
      }
    },
    {
      "type": "Feature",
      "id": "vegetation-ground/tree--56736-12",
      "properties": {
        "class": "landscaped-roadside",
        "vegetation_cell": "0:1"
      },
      "geometry": {
        "type": "Polygon",
        "coordinates": [
          [
            [
              116.12731684859904,
              38.995636170074825
            ],
            [
              116.12732619265186,
              38.99545597371968
            ],
            [
              116.12738647115268,
              38.995457861995966
            ],
            [
              116.12737712709985,
              38.99563805835111
            ],
            [
              116.12731684859904,
              38.995636170074825
            ]
          ]
        ]
      }
    },
    {
      "type": "Feature",
      "id": "vegetation-ground/tree--56736-13",
      "properties": {
        "class": "landscaped-roadside",
        "vegetation_cell": "0:1"
      },
      "geometry": {
        "type": "Polygon",
        "coordinates": [
          [
            [
              116.12731951798081,
              38.99597879327086
            ],
            [
              116.12732904286626,
              38.99579860263536
            ],
            [
              116.12738931945377,
              38.9958005274549
            ],
            [
              116.12737979456831,
              38.995980718090394
            ],
            [
              116.12731951798081,
              38.99597879327086
            ]
          ]
        ]
      }
    },
    {
      "type": "Feature",
      "id": "vegetation-ground/tree--56736-14",
      "properties": {
        "class": "landscaped-roadside",
        "vegetation_cell": "0:1"
      },
      "geometry": {
        "type": "Polygon",
        "coordinates": [
          [
            [
              116.12732910282125,
              38.99632245905242
            ],
            [
              116.12732489799302,
              38.99614214601678
            ],
            [
              116.1273852155253,
              38.99614129629154
            ],
            [
              116.12738942035352,
              38.99632160932718
            ],
            [
              116.12732910282125,
              38.99632245905242
            ]
          ]
        ]
      }
    },
    {
      "type": "Feature",
      "id": "vegetation-ground/tree--57228-2",
      "properties": {
        "class": "landscaped-roadside",
        "vegetation_cell": "0:1"
      },
      "geometry": {
        "type": "Polygon",
        "coordinates": [
          [
            [
              116.12701078501615,
              38.995516715862436
            ],
            [
              116.12700329652408,
              38.99569696456554
            ],
            [
              116.12694300051206,
              38.99569545126694
            ],
            [
              116.12695048900413,
              38.99551520256384
            ],
            [
              116.12701078501615,
              38.995516715862436
            ]
          ]
        ]
      }
    },
    {
      "type": "Feature",
      "id": "vegetation-ground/tree--57228-3",
      "properties": {
        "class": "landscaped-roadside",
        "vegetation_cell": "0:1"
      },
      "geometry": {
        "type": "Polygon",
        "coordinates": [
          [
            [
              116.12701245632566,
              38.99517453734215
            ],
            [
              116.12700092934128,
              38.99535465731125
            ],
            [
              116.12694067639278,
              38.99535232790112
            ],
            [
              116.12695220337716,
              38.995172207932015
            ],
            [
              116.12701245632566,
              38.99517453734215
            ]
          ]
        ]
      }
    },
    {
      "type": "Feature",
      "id": "vegetation-ground/tree--57228-4",
      "properties": {
        "class": "landscaped-roadside",
        "vegetation_cell": "0:1"
      },
      "geometry": {
        "type": "Polygon",
        "coordinates": [
          [
            [
              116.12700610653326,
              38.99483055062147
            ],
            [
              116.12700670061675,
              38.995010892681385
            ],
            [
              116.1269463733754,
              38.99501101273569
            ],
            [
              116.12694577929192,
              38.994830670675775
            ],
            [
              116.12700610653326,
              38.99483055062147
            ]
          ]
        ]
      }
    },
    {
      "type": "Feature",
      "id": "vegetation-ground/tree--57228-6",
      "properties": {
        "class": "landscaped-roadside",
        "vegetation_cell": "0:1"
      },
      "geometry": {
        "type": "Polygon",
        "coordinates": [
          [
            [
              116.12700527258502,
              38.99414521263196
            ],
            [
              116.12700622863109,
              38.99432555375211
            ],
            [
              116.12694590170412,
              38.99432574695298
            ],
            [
              116.12694494565805,
              38.99414540583283
            ],
            [
              116.12700527258502,
              38.99414521263196
            ]
          ]
        ]
      }
    },
    {
      "type": "Feature",
      "id": "vegetation-ground/tree--50674-16",
      "properties": {
        "class": "landscaped-roadside",
        "vegetation_cell": "1:-1"
      },
      "geometry": {
        "type": "Polygon",
        "coordinates": [
          [
            [
              116.1328546197776,
              38.9888011210585
            ],
            [
              116.13265195909884,
              38.98871330315414
            ],
            [
              116.13268133556217,
              38.988672348831386
            ],
            [
              116.13288399624093,
              38.988760166735744
            ],
            [
              116.1328546197776,
              38.9888011210585
            ]
          ]
        ]
      }
    },
    {
      "type": "Feature",
      "id": "vegetation-ground/tree--52650-0",
      "properties": {
        "class": "landscaped-roadside",
        "vegetation_cell": "1:-1"
      },
      "geometry": {
        "type": "Polygon",
        "coordinates": [
          [
            [
              116.13269750822535,
              38.98893365448729
            ],
            [
              116.13290557995784,
              38.98901346275513
            ],
            [
              116.13287888284326,
              38.98905551056105
            ],
            [
              116.13267081111077,
              38.98897570229321
            ],
            [
              116.13269750822535,
              38.98893365448729
            ]
          ]
        ]
      }
    },
    {
      "type": "Feature",
      "id": "vegetation-ground/tree--52650-2",
      "properties": {
        "class": "landscaped-roadside",
        "vegetation_cell": "1:-1"
      },
      "geometry": {
        "type": "Polygon",
        "coordinates": [
          [
            [
              116.13193083739662,
              38.988599761165
            ],
            [
              116.13212821134714,
              38.98869457463759
            ],
            [
              116.13209649475675,
              38.98873446060127
            ],
            [
              116.13189912080624,
              38.98863964712868
            ],
            [
              116.13193083739662,
              38.988599761165
            ]
          ]
        ]
      }
    },
    {
      "type": "Feature",
      "id": "vegetation-ground/tree--52650-3",
      "properties": {
        "class": "landscaped-roadside",
        "vegetation_cell": "1:-1"
      },
      "geometry": {
        "type": "Polygon",
        "coordinates": [
          [
            [
              116.13153839374799,
              38.98844011763221
            ],
            [
              116.13174290517608,
              38.98852530416489
            ],
            [
              116.13171440894776,
              38.98856663249303
            ],
            [
              116.13150989751966,
              38.98848144596035
            ],
            [
              116.13153839374799,
              38.98844011763221
            ]
          ]
        ]
      }
    },
    {
      "type": "Feature",
      "id": "vegetation-ground/tree--50674-10",
      "properties": {
        "class": "landscaped-roadside",
        "vegetation_cell": "1:-2"
      },
      "geometry": {
        "type": "Polygon",
        "coordinates": [
          [
            [
              116.13052736264514,
              38.98782157154203
            ],
            [
              116.13032976567285,
              38.98772703911083
            ],
            [
              116.1303613882505,
              38.98768710807819
            ],
            [
              116.13055898522279,
              38.98778164050939
            ],
            [
              116.13052736264514,
              38.98782157154203
            ]
          ]
        ]
      }
    },
    {
      "type": "Feature",
      "id": "vegetation-ground/tree--50674-14",
      "properties": {
        "class": "landscaped-roadside",
        "vegetation_cell": "1:-2"
      },
      "geometry": {
        "type": "Polygon",
        "coordinates": [
          [
            [
              116.13207777004476,
              38.98847548727293
            ],
            [
              116.1318782998379,
              38.98838336210898
            ],
            [
              116.13190911714696,
              38.988343052527064
            ],
            [
              116.13210858735383,
              38.98843517769101
            ],
            [
              116.13207777004476,
              38.98847548727293
            ]
          ]
        ]
      }
    },
    {
      "type": "Feature",
      "id": "vegetation-ground/tree--52650-5",
      "properties": {
        "class": "landscaped-roadside",
        "vegetation_cell": "1:-2"
      },
      "geometry": {
        "type": "Polygon",
        "coordinates": [
          [
            [
              116.1307688856407,
              38.98810867098293
            ],
            [
              116.13096648128034,
              38.98820320509691
            ],
            [
              116.13093485813978,
              38.98824313586024
            ],
            [
              116.13073726250015,
              38.98814860174626
            ],
            [
              116.1307688856407,
              38.98810867098293
            ]
          ]
        ]
      }
    }
  ]
}
