{
  "type": "FeatureCollection",
  "features": [
    {
      "type": "Feature",
      "id": "way/1189940958",
      "properties": {
        "osm_id": "1189940958",
        "class": "green"
      },
      "geometry": {
        "type": "Polygon",
        "coordinates": [
          [
            [
              116.1087505,
              38.989071
            ],
            [
              116.1124627,
              38.9887332
            ],
            [
              116.112232,
              38.9871071
            ],
            [
              116.109936,
              38.9873156
            ],
            [
              116.1085896,
              38.9876283
            ],
            [
              116.1087505,
              38.989071
            ]
          ]
        ]
      }
    }
  ]
}
