{
  "type": "FeatureCollection",
  "features": [
    {
      "type": "Feature",
      "id": "way/1188016288",
      "properties": {
        "osm_id": "1188016288",
        "class": "building",
        "height": 15
      },
      "geometry": {
        "type": "Polygon",
        "coordinates": [
          [
            [
              116.1097909,
              38.996777
            ],
            [
              116.1097277,
              38.9962231
            ],
            [
              116.1106209,
              38.996167
            ],
            [
              116.110684,
              38.996735
            ],
            [
              116.1097909,
              38.996777
            ]
          ]
        ]
      }
    },
    {
      "type": "Feature",
      "id": "way/1188016289",
      "properties": {
        "osm_id": "1188016289",
        "class": "building",
        "height": 15
      },
      "geometry": {
        "type": "Polygon",
        "coordinates": [
          [
            [
              116.1110383,
              38.9985245
            ],
            [
              116.1120701,
              38.9984655
            ],
            [
              116.1120549,
              38.998324
            ],
            [
              116.1110308,
              38.9983653
            ],
            [
              116.1110308,
              38.9984478
            ],
            [
              116.1110383,
              38.9985245
            ]
          ]
        ]
      }
    },
    {
      "type": "Feature",
      "id": "way/1188016290",
      "properties": {
        "osm_id": "1188016290",
        "class": "building",
        "height": 15
      },
      "geometry": {
        "type": "Polygon",
        "coordinates": [
          [
            [
              116.1110046,
              38.9980179
            ],
            [
              116.1119678,
              38.9979783
            ],
            [
              116.1119934,
              38.9981022
            ],
            [
              116.1110173,
              38.9981617
            ],
            [
              116.1110046,
              38.9980179
            ]
          ]
        ]
      }
    },
    {
      "type": "Feature",
      "id": "way/1188016291",
      "properties": {
        "osm_id": "1188016291",
        "class": "building",
        "height": 15
      },
      "geometry": {
        "type": "Polygon",
        "coordinates": [
          [
            [
              116.1096394,
              38.9992128
            ],
            [
              116.1103411,
              38.9991681
            ],
            [
              116.1103666,
              38.9993218
            ],
            [
              116.1096585,
              38.9993466
            ],
            [
              116.1096394,
              38.9992128
            ]
          ]
        ]
      }
    },
    {
      "type": "Feature",
      "id": "way/1188016292",
      "properties": {
        "osm_id": "1188016292",
        "class": "building",
        "height": 15
      },
      "geometry": {
        "type": "Polygon",
        "coordinates": [
          [
            [
              116.1096266,
              38.9984393
            ],
            [
              116.1104304,
              38.9984046
            ],
            [
              116.1104623,
              38.9985484
            ],
            [
              116.1096457,
              38.9985682
            ],
            [
              116.1096266,
              38.9984393
            ]
          ]
        ]
      }
    },
    {
      "type": "Feature",
      "id": "way/1188016293",
      "properties": {
        "osm_id": "1188016293",
        "class": "building",
        "height": 15
      },
      "geometry": {
        "type": "Polygon",
        "coordinates": [
          [
            [
              116.1110875,
              38.9992326
            ],
            [
              116.1120954,
              38.999178
            ],
            [
              116.1120827,
              38.9990392
            ],
            [
              116.1110684,
              38.9990938
            ],
            [
              116.1110875,
              38.9992326
            ]
          ]
        ]
      }
    },
    {
      "type": "Feature",
      "id": "way/1188016294",
      "properties": {
        "osm_id": "1188016294",
        "class": "building",
        "height": 15
      },
      "geometry": {
        "type": "Polygon",
        "coordinates": [
          [
            [
              116.1110684,
              38.9988657
            ],
            [
              116.1120891,
              38.9988112
            ],
            [
              116.1120763,
              38.9986624
            ],
            [
              116.1110492,
              38.9987269
            ],
            [
              116.1110684,
              38.9988657
            ]
          ]
        ]
      }
    },
    {
      "type": "Feature",
      "id": "way/1188389900",
      "properties": {
        "osm_id": "1188389900",
        "class": "building",
        "height": 15
      },
      "geometry": {
        "type": "Polygon",
        "coordinates": [
          [
            [
              116.1096589,
              38.9980765
            ],
            [
              116.1108518,
              38.998017
            ],
            [
              116.110871,
              38.9981657
            ],
            [
              116.1096685,
              38.9982252
            ],
            [
              116.1096589,
              38.9980765
            ]
          ]
        ]
      }
    },
    {
      "type": "Feature",
      "id": "way/1188389901",
      "properties": {
        "osm_id": "1188389901",
        "class": "building",
        "height": 15
      },
      "geometry": {
        "type": "Polygon",
        "coordinates": [
          [
            [
              116.110433,
              38.9985992
            ],
            [
              116.1109473,
              38.9985711
            ],
            [
              116.1109653,
              38.9987043
            ],
            [
              116.1104421,
              38.9987289
            ],
            [
              116.110433,
              38.9985992
            ]
          ]
        ]
      }
    },
    {
      "type": "Feature",
      "id": "way/1190282506",
      "properties": {
        "osm_id": "1190282506",
        "class": "building",
        "height": 15
      },
      "geometry": {
        "type": "Polygon",
        "coordinates": [
          [
            [
              116.111956,
              38.9828109
            ],
            [
              116.111889,
              38.9822753
            ],
            [
              116.1127726,
              38.9822158
            ],
            [
              116.1128364,
              38.9827489
            ],
            [
              116.111956,
              38.9828109
            ]
          ]
        ]
      }
    }
  ]
}
