{
  "type": "FeatureCollection",
  "features": [
    {
      "type": "Feature",
      "id": "way/495266544",
      "properties": {
        "osm_id": "495266544",
        "class": "urban"
      },
      "geometry": {
        "type": "Polygon",
        "coordinates": [
          [
            [
              116.109513,
              39.0051285
            ],
            [
              116.1098564,
              39.0094554
            ],
            [
              116.1047026,
              39.009602
            ],
            [
              116.1043752,
              39.0053602
            ],
            [
              116.109513,
              39.0051285
            ]
          ]
        ]
      }
    },
    {
      "type": "Feature",
      "id": "way/495266559",
      "properties": {
        "osm_id": "495266559",
        "class": "urban"
      },
      "geometry": {
        "type": "Polygon",
        "coordinates": [
          [
            [
              116.08253,
              39.0012099
            ],
            [
              116.1008119,
              39.0001426
            ],
            [
              116.1096525,
              39.0001426
            ],
            [
              116.1090946,
              38.9954733
            ],
            [
              116.1148589,
              38.9953745
            ],
            [
              116.1141305,
              38.9887531
            ],
            [
              116.1086654,
              38.9892359
            ],
            [
              116.1081075,
              38.9844991
            ],
            [
              116.1142294,
              38.9840862
            ],
            [
              116.1137446,
              38.9792841
            ],
            [
              116.1079,
              38.9767906
            ],
            [
              116.104846,
              38.9761589
            ],
            [
              116.100254,
              38.9751246
            ],
            [
              116.088581,
              38.9746242
            ],
            [
              116.0866499,
              38.9798954
            ],
            [
              116.0831737,
              38.9810297
            ],
            [
              116.0844183,
              38.9884353
            ],
            [
              116.083045,
              38.9914374
            ],
            [
              116.0836887,
              38.9950063
            ],
            [
              116.08253,
              39.0012099
            ]
          ]
        ]
      }
    },
    {
      "type": "Feature",
      "id": "way/961014045",
      "properties": {
        "osm_id": "961014045",
        "class": "urban"
      },
      "geometry": {
        "type": "Polygon",
        "coordinates": [
          [
            [
              116.1020618,
              38.999735
            ],
            [
              116.1014954,
              38.9962635
            ],
            [
              116.1087182,
              38.9957815
            ],
            [
              116.1090697,
              38.9995841
            ],
            [
              116.1020618,
              38.999735
            ]
          ]
        ]
      }
    },
    {
      "type": "Feature",
      "id": "way/1091493748",
      "properties": {
        "osm_id": "1091493748",
        "class": "urban"
      },
      "geometry": {
        "type": "Polygon",
        "coordinates": [
          [
            [
              116.1274856,
              39.0129043
            ],
            [
              116.1275423,
              39.0096759
            ],
            [
              116.1245584,
              39.0096845
            ],
            [
              116.1245522,
              39.0088814
            ],
            [
              116.1230655,
              39.0060286
            ],
            [
              116.1230974,
              39.0030659
            ],
            [
              116.1246148,
              38.9998918
            ],
            [
              116.1246868,
              38.9957608
            ],
            [
              116.126905,
              38.9957001
            ],
            [
              116.1338691,
              38.9956452
            ],
            [
              116.1461644,
              38.9957619
            ],
            [
              116.1520652,
              38.9979632
            ],
            [
              116.1526577,
              38.9988171
            ],
            [
              116.1528927,
              38.9999186
            ],
            [
              116.1524371,
              39.001477
            ],
            [
              116.1518382,
              39.0020574
            ],
            [
              116.1500656,
              39.0027288
            ],
            [
              116.1492716,
              39.0031301
            ],
            [
              116.1440118,
              39.0031566
            ],
            [
              116.1438988,
              39.0122231
            ],
            [
              116.1403824,
              39.0122451
            ],
            [
              116.1376991,
              39.0129404
            ],
            [
              116.1274856,
              39.0129043
            ]
          ]
        ]
      }
    },
    {
      "type": "Feature",
      "id": "way/1123071770",
      "properties": {
        "osm_id": "1123071770",
        "class": "urban"
      },
      "geometry": {
        "type": "Polygon",
        "coordinates": [
          [
            [
              116.1188586,
              38.9958111
            ],
            [
              116.1208016,
              38.9954151
            ],
            [
              116.1237387,
              38.9970113
            ],
            [
              116.1245087,
              38.9988026
            ],
            [
              116.1192218,
              38.9988786
            ],
            [
              116.1188586,
              38.9958111
            ]
          ]
        ]
      }
    },
    {
      "type": "Feature",
      "id": "way/1143813514",
      "properties": {
        "osm_id": "1143813514",
        "class": "urban"
      },
      "geometry": {
        "type": "Polygon",
        "coordinates": [
          [
            [
              116.1100389,
              39.0042211
            ],
            [
              116.1098243,
              39.0021534
            ],
            [
              116.1122325,
              39.0021311
            ],
            [
              116.1124021,
              39.0041711
            ],
            [
              116.1100389,
              39.0042211
            ]
          ]
        ]
      }
    },
    {
      "type": "Feature",
      "id": "way/1143813684",
      "properties": {
        "osm_id": "1143813684",
        "class": "urban"
      },
      "geometry": {
        "type": "Polygon",
        "coordinates": [
          [
            [
              116.1023958,
              39.004538
            ],
            [
              116.1020954,
              39.0024286
            ],
            [
              116.1066766,
              39.0023035
            ],
            [
              116.1068107,
              39.0043421
            ],
            [
              116.1023958,
              39.004538
            ]
          ]
        ]
      }
    },
    {
      "type": "Feature",
      "id": "way/1186358623",
      "properties": {
        "osm_id": "1186358623",
        "class": "urban"
      },
      "geometry": {
        "type": "Polygon",
        "coordinates": [
          [
            [
              116.1149476,
              39.0044311
            ],
            [
              116.1164346,
              39.0044311
            ],
            [
              116.1165256,
              39.0061289
            ],
            [
              116.1149476,
              39.0061172
            ],
            [
              116.1149476,
              39.0044311
            ]
          ]
        ]
      }
    },
    {
      "type": "Feature",
      "id": "way/1188389899",
      "properties": {
        "osm_id": "1188389899",
        "class": "urban"
      },
      "geometry": {
        "type": "Polygon",
        "coordinates": [
          [
            [
              116.1092758,
              38.9957658
            ],
            [
              116.1106696,
              38.9957482
            ],
            [
              116.1109674,
              38.9974661
            ],
            [
              116.1120139,
              38.99741
            ],
            [
              116.1122304,
              38.9994784
            ],
            [
              116.1097043,
              38.9995274
            ],
            [
              116.1092758,
              38.9957658
            ]
          ]
        ]
      }
    },
    {
      "type": "Feature",
      "id": "way/1189940957",
      "properties": {
        "osm_id": "1189940957",
        "class": "urban"
      },
      "geometry": {
        "type": "Polygon",
        "coordinates": [
          [
            [
              116.1062936,
              38.987891
            ],
            [
              116.1076347,
              38.9877784
            ],
            [
              116.1078171,
              38.9889626
            ],
            [
              116.1064867,
              38.989071
            ],
            [
              116.1062936,
              38.987891
            ]
          ]
        ]
      }
    },
    {
      "type": "Feature",
      "id": "way/1190282501",
      "properties": {
        "osm_id": "1190282501",
        "class": "urban"
      },
      "geometry": {
        "type": "Polygon",
        "coordinates": [
          [
            [
              116.1263817,
              38.9872566
            ],
            [
              116.1333983,
              38.9900252
            ],
            [
              116.1333769,
              38.9889745
            ],
            [
              116.1353724,
              38.9898084
            ],
            [
              116.1351364,
              38.9867729
            ],
            [
              116.1379688,
              38.9867562
            ],
            [
              116.1385267,
              38.9848882
            ],
            [
              116.1352437,
              38.9829534
            ],
            [
              116.1269181,
              38.982086
            ],
            [
              116.1262529,
              38.98297
            ],
            [
              116.1263817,
              38.9872566
            ]
          ]
        ]
      }
    },
    {
      "type": "Feature",
      "id": "way/1190925591",
      "properties": {
        "osm_id": "1190925591",
        "class": "urban"
      },
      "geometry": {
        "type": "Polygon",
        "coordinates": [
          [
            [
              116.1603775,
              38.9993339
            ],
            [
              116.160871,
              38.9951147
            ],
            [
              116.1607423,
              38.9912289
            ],
            [
              116.1585321,
              38.9900281
            ],
            [
              116.1516227,
              38.9886438
            ],
            [
              116.1472454,
              38.9947479
            ],
            [
              116.1542835,
              38.9976829
            ],
            [
              116.1582317,
              38.9990671
            ],
            [
              116.1603775,
              38.9993339
            ]
          ]
        ]
      }
    },
    {
      "type": "Feature",
      "id": "way/1199343389",
      "properties": {
        "osm_id": "1199343389",
        "class": "urban"
      },
      "geometry": {
        "type": "Polygon",
        "coordinates": [
          [
            [
              116.1102006,
              39.0063978
            ],
            [
              116.1165306,
              39.0063311
            ],
            [
              116.1167774,
              39.0093991
            ],
            [
              116.1104474,
              39.0094325
            ],
            [
              116.1102006,
              39.0063978
            ]
          ]
        ]
      }
    },
    {
      "type": "Feature",
      "id": "way/1354871114",
      "properties": {
        "osm_id": "1354871114",
        "class": "urban"
      },
      "geometry": {
        "type": "Polygon",
        "coordinates": [
          [
            [
              116.1417288,
              39.0005123
            ],
            [
              116.1433492,
              39.0005322
            ],
            [
              116.1433237,
              38.9994811
            ],
            [
              116.1417161,
              38.999501
            ],
            [
              116.1417288,
              39.0005123
            ]
          ]
        ]
      }
    },
    {
      "type": "Feature",
      "id": "way/1354871115",
      "properties": {
        "osm_id": "1354871115",
        "class": "urban"
      },
      "geometry": {
        "type": "Polygon",
        "coordinates": [
          [
            [
              116.1417746,
              38.9992052
            ],
            [
              116.1433564,
              38.9992114
            ],
            [
              116.1433162,
              38.9965541
            ],
            [
              116.1417729,
              38.9965483
            ],
            [
              116.1417746,
              38.9992052
            ]
          ]
        ]
      }
    },
    {
      "type": "Feature",
      "id": "way/1354871116",
      "properties": {
        "osm_id": "1354871116",
        "class": "urban"
      },
      "geometry": {
        "type": "Polygon",
        "coordinates": [
          [
            [
              116.139764,
              38.9992134
            ],
            [
              116.1413333,
              38.9992233
            ],
            [
              116.1413461,
              38.9965461
            ],
            [
              116.139764,
              38.996556
            ],
            [
              116.139764,
              38.9992134
            ]
          ]
        ]
      }
    },
    {
      "type": "Feature",
      "id": "way/1354871117",
      "properties": {
        "osm_id": "1354871117",
        "class": "urban"
      },
      "geometry": {
        "type": "Polygon",
        "coordinates": [
          [
            [
              116.1378374,
              38.9991837
            ],
            [
              116.139394,
              38.9992035
            ],
            [
              116.1394067,
              38.9980731
            ],
            [
              116.1378374,
              38.9980632
            ],
            [
              116.1378374,
              38.9991837
            ]
          ]
        ]
      }
    },
    {
      "type": "Feature",
      "id": "way/1354871118",
      "properties": {
        "osm_id": "1354871118",
        "class": "urban"
      },
      "geometry": {
        "type": "Polygon",
        "coordinates": [
          [
            [
              116.1378757,
              38.9977756
            ],
            [
              116.139394,
              38.9977955
            ],
            [
              116.1394195,
              38.9965956
            ],
            [
              116.1378629,
              38.9965956
            ],
            [
              116.1378757,
              38.9977756
            ]
          ]
        ]
      }
    },
    {
      "type": "Feature",
      "id": "way/1354871119",
      "properties": {
        "osm_id": "1354871119",
        "class": "urban"
      },
      "geometry": {
        "type": "Polygon",
        "coordinates": [
          [
            [
              116.1378629,
              39.0004429
            ],
            [
              116.1393684,
              39.0004429
            ],
            [
              116.1393812,
              38.999501
            ],
            [
              116.1378757,
              38.999491
            ],
            [
              116.1378629,
              39.0004429
            ]
          ]
        ]
      }
    },
    {
      "type": "Feature",
      "id": "way/1354871120",
      "properties": {
        "osm_id": "1354871120",
        "class": "urban"
      },
      "geometry": {
        "type": "Polygon",
        "coordinates": [
          [
            [
              116.1378374,
              39.0007404
            ],
            [
              116.1393429,
              39.0007305
            ],
            [
              116.1393429,
              39.001375
            ],
            [
              116.1380415,
              39.0013452
            ],
            [
              116.1378246,
              39.0009189
            ],
            [
              116.1378374,
              39.0007404
            ]
          ]
        ]
      }
    },
    {
      "type": "Feature",
      "id": "way/1354871121",
      "properties": {
        "osm_id": "1354871121",
        "class": "urban"
      },
      "geometry": {
        "type": "Polygon",
        "coordinates": [
          [
            [
              116.1417161,
              39.0014146
            ],
            [
              116.1432854,
              39.0014345
            ],
            [
              116.1432726,
              39.0007404
            ],
            [
              116.1417288,
              39.0007305
            ],
            [
              116.1417161,
              39.0014146
            ]
          ]
        ]
      }
    },
    {
      "type": "Feature",
      "id": "way/1354871122",
      "properties": {
        "osm_id": "1354871122",
        "class": "urban"
      },
      "geometry": {
        "type": "Polygon",
        "coordinates": [
          [
            [
              116.1397512,
              39.0013651
            ],
            [
              116.1413716,
              39.0013849
            ],
            [
              116.1413588,
              39.0007404
            ],
            [
              116.139764,
              39.0007206
            ],
            [
              116.1397512,
              39.0013651
            ]
          ]
        ]
      }
    },
    {
      "type": "Feature",
      "id": "way/1355581436",
      "properties": {
        "osm_id": "1355581436",
        "class": "urban"
      },
      "geometry": {
        "type": "Polygon",
        "coordinates": [
          [
            [
              116.1275445,
              39.0082823
            ],
            [
              116.1290373,
              39.0082922
            ],
            [
              116.1290245,
              39.0073008
            ],
            [
              116.1275445,
              39.0073107
            ],
            [
              116.1275445,
              39.0082823
            ]
          ]
        ]
      }
    },
    {
      "type": "Feature",
      "id": "way/1355581437",
      "properties": {
        "osm_id": "1355581437",
        "class": "urban"
      },
      "geometry": {
        "type": "Polygon",
        "coordinates": [
          [
            [
              116.1294073,
              39.0082625
            ],
            [
              116.1307087,
              39.0082724
            ],
            [
              116.1307215,
              39.0073206
            ],
            [
              116.1294073,
              39.0073305
            ],
            [
              116.1294073,
              39.0082625
            ]
          ]
        ]
      }
    },
    {
      "type": "Feature",
      "id": "way/1355581438",
      "properties": {
        "osm_id": "1355581438",
        "class": "urban"
      },
      "geometry": {
        "type": "Polygon",
        "coordinates": [
          [
            [
              116.1294583,
              39.0069339
            ],
            [
              116.1306959,
              39.006924
            ],
            [
              116.1306947,
              39.0060218
            ],
            [
              116.1294711,
              39.0060286
            ],
            [
              116.1294583,
              39.0069339
            ]
          ]
        ]
      }
    },
    {
      "type": "Feature",
      "id": "way/1355581439",
      "properties": {
        "osm_id": "1355581439",
        "class": "urban"
      },
      "geometry": {
        "type": "Polygon",
        "coordinates": [
          [
            [
              116.1294838,
              39.0056252
            ],
            [
              116.1307215,
              39.0056351
            ],
            [
              116.1307087,
              39.0046238
            ],
            [
              116.1294966,
              39.0046337
            ],
            [
              116.1294838,
              39.0056252
            ]
          ]
        ]
      }
    },
    {
      "type": "Feature",
      "id": "way/1355581440",
      "properties": {
        "osm_id": "1355581440",
        "class": "urban"
      },
      "geometry": {
        "type": "Polygon",
        "coordinates": [
          [
            [
              116.1275955,
              39.0032159
            ],
            [
              116.12905,
              39.003206
            ],
            [
              116.1290373,
              39.0042471
            ],
            [
              116.1275828,
              39.0042471
            ],
            [
              116.1275955,
              39.0032159
            ]
          ]
        ]
      }
    },
    {
      "type": "Feature",
      "id": "way/1355581441",
      "properties": {
        "osm_id": "1355581441",
        "class": "urban"
      },
      "geometry": {
        "type": "Polygon",
        "coordinates": [
          [
            [
              116.1294201,
              39.0042173
            ],
            [
              116.1307597,
              39.0042173
            ],
            [
              116.1307725,
              39.0031862
            ],
            [
              116.1294456,
              39.0031961
            ],
            [
              116.1294201,
              39.0042173
            ]
          ]
        ]
      }
    },
    {
      "type": "Feature",
      "id": "way/1355581442",
      "properties": {
        "osm_id": "1355581442",
        "class": "urban"
      },
      "geometry": {
        "type": "Polygon",
        "coordinates": [
          [
            [
              116.131168,
              39.0082724
            ],
            [
              116.1325332,
              39.0082724
            ],
            [
              116.1325204,
              39.0072809
            ],
            [
              116.131168,
              39.0072909
            ],
            [
              116.131168,
              39.0082724
            ]
          ]
        ]
      }
    },
    {
      "type": "Feature",
      "id": "way/1355581443",
      "properties": {
        "osm_id": "1355581443",
        "class": "urban"
      },
      "geometry": {
        "type": "Polygon",
        "coordinates": [
          [
            [
              116.1311553,
              39.0068943
            ],
            [
              116.1324949,
              39.0068943
            ],
            [
              116.1325077,
              39.0060416
            ],
            [
              116.1311808,
              39.0060515
            ],
            [
              116.1311553,
              39.0068943
            ]
          ]
        ]
      }
    },
    {
      "type": "Feature",
      "id": "way/1355581444",
      "properties": {
        "osm_id": "1355581444",
        "class": "urban"
      },
      "geometry": {
        "type": "Polygon",
        "coordinates": [
          [
            [
              116.1311935,
              39.0055955
            ],
            [
              116.1325077,
              39.0055955
            ],
            [
              116.1325077,
              39.0046635
            ],
            [
              116.1311915,
              39.0046635
            ],
            [
              116.1311935,
              39.0055955
            ]
          ]
        ]
      }
    },
    {
      "type": "Feature",
      "id": "way/1355581445",
      "properties": {
        "osm_id": "1355581445",
        "class": "urban"
      },
      "geometry": {
        "type": "Polygon",
        "coordinates": [
          [
            [
              116.1311553,
              39.0041876
            ],
            [
              116.1325077,
              39.0041777
            ],
            [
              116.1325077,
              39.003206
            ],
            [
              116.131168,
              39.0032013
            ],
            [
              116.1311553,
              39.0041876
            ]
          ]
        ]
      }
    },
    {
      "type": "Feature",
      "id": "way/1355581446",
      "properties": {
        "osm_id": "1355581446",
        "class": "urban"
      },
      "geometry": {
        "type": "Polygon",
        "coordinates": [
          [
            [
              116.1330946,
              39.0082426
            ],
            [
              116.1344343,
              39.0082228
            ],
            [
              116.1344343,
              39.007281
            ],
            [
              116.1330946,
              39.0072809
            ],
            [
              116.1330946,
              39.0082426
            ]
          ]
        ]
      }
    },
    {
      "type": "Feature",
      "id": "way/1355581447",
      "properties": {
        "osm_id": "1355581447",
        "class": "urban"
      },
      "geometry": {
        "type": "Polygon",
        "coordinates": [
          [
            [
              116.1330818,
              39.0068844
            ],
            [
              116.1344087,
              39.0068844
            ],
            [
              116.1344215,
              39.0060317
            ],
            [
              116.1330946,
              39.0060317
            ],
            [
              116.1330818,
              39.0068844
            ]
          ]
        ]
      }
    },
    {
      "type": "Feature",
      "id": "way/1355581448",
      "properties": {
        "osm_id": "1355581448",
        "class": "urban"
      },
      "geometry": {
        "type": "Polygon",
        "coordinates": [
          [
            [
              116.1331073,
              39.0055657
            ],
            [
              116.1344343,
              39.0055657
            ],
            [
              116.1344343,
              39.0046734
            ],
            [
              116.1331201,
              39.0046635
            ],
            [
              116.1331073,
              39.0055657
            ]
          ]
        ]
      }
    },
    {
      "type": "Feature",
      "id": "way/1355581449",
      "properties": {
        "osm_id": "1355581449",
        "class": "urban"
      },
      "geometry": {
        "type": "Polygon",
        "coordinates": [
          [
            [
              116.1330818,
              39.0041777
            ],
            [
              116.1344853,
              39.0041777
            ],
            [
              116.1344725,
              39.003206
            ],
            [
              116.1330818,
              39.0032159
            ],
            [
              116.1330818,
              39.0041777
            ]
          ]
        ]
      }
    },
    {
      "type": "Feature",
      "id": "way/1355581450",
      "properties": {
        "osm_id": "1355581450",
        "class": "urban"
      },
      "geometry": {
        "type": "Polygon",
        "coordinates": [
          [
            [
              116.1349574,
              39.008203
            ],
            [
              116.136565,
              39.0081931
            ],
            [
              116.136565,
              39.007271
            ],
            [
              116.1349574,
              39.007271
            ],
            [
              116.1349574,
              39.008203
            ]
          ]
        ]
      }
    },
    {
      "type": "Feature",
      "id": "way/1355581451",
      "properties": {
        "osm_id": "1355581451",
        "class": "urban"
      },
      "geometry": {
        "type": "Polygon",
        "coordinates": [
          [
            [
              116.1378153,
              39.0081633
            ],
            [
              116.1393081,
              39.0081633
            ],
            [
              116.1393209,
              39.0073008
            ],
            [
              116.1378153,
              39.0073008
            ],
            [
              116.1378153,
              39.0081633
            ]
          ]
        ]
      }
    },
    {
      "type": "Feature",
      "id": "way/1355581452",
      "properties": {
        "osm_id": "1355581452",
        "class": "urban"
      },
      "geometry": {
        "type": "Polygon",
        "coordinates": [
          [
            [
              116.1397257,
              39.0081396
            ],
            [
              116.1412078,
              39.0081221
            ],
            [
              116.1412169,
              39.0072706
            ],
            [
              116.1397364,
              39.0072796
            ],
            [
              116.1397257,
              39.0081396
            ]
          ]
        ]
      }
    },
    {
      "type": "Feature",
      "id": "way/1355581453",
      "properties": {
        "osm_id": "1355581453",
        "class": "urban"
      },
      "geometry": {
        "type": "Polygon",
        "coordinates": [
          [
            [
              116.1417508,
              39.0081479
            ],
            [
              116.1432074,
              39.0081479
            ],
            [
              116.1432225,
              39.0072614
            ],
            [
              116.1417749,
              39.0072636
            ],
            [
              116.1417508,
              39.0081479
            ]
          ]
        ]
      }
    },
    {
      "type": "Feature",
      "id": "way/1355581454",
      "properties": {
        "osm_id": "1355581454",
        "class": "urban"
      },
      "geometry": {
        "type": "Polygon",
        "coordinates": [
          [
            [
              116.1397444,
              39.0069217
            ],
            [
              116.1411902,
              39.0069147
            ],
            [
              116.141193,
              39.0046461
            ],
            [
              116.1397988,
              39.0046343
            ],
            [
              116.1397444,
              39.0069217
            ]
          ]
        ]
      }
    },
    {
      "type": "Feature",
      "id": "way/1355581455",
      "properties": {
        "osm_id": "1355581455",
        "class": "urban"
      },
      "geometry": {
        "type": "Polygon",
        "coordinates": [
          [
            [
              116.1417082,
              39.0069099
            ],
            [
              116.1432406,
              39.0068981
            ],
            [
              116.1432406,
              39.006002
            ],
            [
              116.1417233,
              39.0060138
            ],
            [
              116.1417082,
              39.0069099
            ]
          ]
        ]
      }
    },
    {
      "type": "Feature",
      "id": "way/1355581456",
      "properties": {
        "osm_id": "1355581456",
        "class": "urban"
      },
      "geometry": {
        "type": "Polygon",
        "coordinates": [
          [
            [
              116.1417082,
              39.0056595
            ],
            [
              116.1432103,
              39.0056595
            ],
            [
              116.143208,
              39.0051105
            ],
            [
              116.1423068,
              39.0048799
            ],
            [
              116.1417233,
              39.004728
            ],
            [
              116.1417082,
              39.0056595
            ]
          ]
        ]
      }
    },
    {
      "type": "Feature",
      "id": "way/1355581457",
      "properties": {
        "osm_id": "1355581457",
        "class": "urban"
      },
      "geometry": {
        "type": "Polygon",
        "coordinates": [
          [
            [
              116.1378112,
              39.0069158
            ],
            [
              116.1392981,
              39.0069217
            ],
            [
              116.1393133,
              39.0059961
            ],
            [
              116.1378339,
              39.0059844
            ],
            [
              116.1378112,
              39.0069158
            ]
          ]
        ]
      }
    },
    {
      "type": "Feature",
      "id": "way/1355581460",
      "properties": {
        "osm_id": "1355581460",
        "class": "urban"
      },
      "geometry": {
        "type": "Polygon",
        "coordinates": [
          [
            [
              116.1235429,
              39.0045571
            ],
            [
              116.1235338,
              39.0056367
            ],
            [
              116.1250676,
              39.0056437
            ],
            [
              116.1250676,
              39.0045641
            ],
            [
              116.1235429,
              39.0045571
            ]
          ]
        ]
      }
    },
    {
      "type": "Feature",
      "id": "way/1355581461",
      "properties": {
        "osm_id": "1355581461",
        "class": "urban"
      },
      "geometry": {
        "type": "Polygon",
        "coordinates": [
          [
            [
              116.1253382,
              39.0056508
            ],
            [
              116.1267546,
              39.0056437
            ],
            [
              116.1267546,
              39.0045851
            ],
            [
              116.1253382,
              39.0045781
            ],
            [
              116.1253382,
              39.0056508
            ]
          ]
        ]
      }
    },
    {
      "type": "Feature",
      "id": "way/1355581462",
      "properties": {
        "osm_id": "1355581462",
        "class": "urban"
      },
      "geometry": {
        "type": "Polygon",
        "coordinates": [
          [
            [
              116.1253292,
              39.0042556
            ],
            [
              116.1267546,
              39.0042556
            ],
            [
              116.1267456,
              39.0032951
            ],
            [
              116.1253202,
              39.0032951
            ],
            [
              116.1253292,
              39.0042556
            ]
          ]
        ]
      }
    },
    {
      "type": "Feature",
      "id": "way/1355581463",
      "properties": {
        "osm_id": "1355581463",
        "class": "urban"
      },
      "geometry": {
        "type": "Polygon",
        "coordinates": [
          [
            [
              116.1250495,
              39.0042766
            ],
            [
              116.1235338,
              39.0042907
            ],
            [
              116.1235429,
              39.0035966
            ],
            [
              116.1246706,
              39.0033792
            ],
            [
              116.1250585,
              39.0033161
            ],
            [
              116.1250495,
              39.0042766
            ]
          ]
        ]
      }
    },
    {
      "type": "Feature",
      "id": "way/1355587329",
      "properties": {
        "osm_id": "1355587329",
        "class": "urban"
      },
      "geometry": {
        "type": "Polygon",
        "coordinates": [
          [
            [
              116.1417307,
              39.001758
            ],
            [
              116.1432824,
              39.001751
            ],
            [
              116.1433095,
              39.0033144
            ],
            [
              116.1417307,
              39.0027886
            ],
            [
              116.1417307,
              39.001758
            ]
          ]
        ]
      }
    },
    {
      "type": "Feature",
      "id": "way/1355587330",
      "properties": {
        "osm_id": "1355587330",
        "class": "urban"
      },
      "geometry": {
        "type": "Polygon",
        "coordinates": [
          [
            [
              116.1413337,
              39.0026975
            ],
            [
              116.1400887,
              39.002389
            ],
            [
              116.1400977,
              39.0017159
            ],
            [
              116.1413518,
              39.0017229
            ],
            [
              116.1413337,
              39.0026975
            ]
          ]
        ]
      }
    },
    {
      "type": "Feature",
      "id": "way/1355587332",
      "properties": {
        "osm_id": "1355587332",
        "class": "urban"
      },
      "geometry": {
        "type": "Polygon",
        "coordinates": [
          [
            [
              116.1349011,
              39.0004118
            ],
            [
              116.136092,
              39.0004048
            ],
            [
              116.136092,
              38.9995004
            ],
            [
              116.1349011,
              38.9995074
            ],
            [
              116.1349011,
              39.0004118
            ]
          ]
        ]
      }
    },
    {
      "type": "Feature",
      "id": "way/1355587333",
      "properties": {
        "osm_id": "1355587333",
        "class": "urban"
      },
      "geometry": {
        "type": "Polygon",
        "coordinates": [
          [
            [
              116.1330787,
              39.0003978
            ],
            [
              116.1344771,
              39.0004048
            ],
            [
              116.1344591,
              38.9994934
            ],
            [
              116.1330697,
              38.9995004
            ],
            [
              116.1330787,
              39.0003978
            ]
          ]
        ]
      }
    },
    {
      "type": "Feature",
      "id": "way/1355587334",
      "properties": {
        "osm_id": "1355587334",
        "class": "urban"
      },
      "geometry": {
        "type": "Polygon",
        "coordinates": [
          [
            [
              116.1326727,
              39.0003768
            ],
            [
              116.1311751,
              39.0003908
            ],
            [
              116.1311932,
              38.9994934
            ],
            [
              116.1326592,
              38.9995074
            ],
            [
              116.1326727,
              39.0003768
            ]
          ]
        ]
      }
    },
    {
      "type": "Feature",
      "id": "way/1356857884",
      "properties": {
        "osm_id": "1356857884",
        "class": "urban"
      },
      "geometry": {
        "type": "Polygon",
        "coordinates": [
          [
            [
              116.1275694,
              39.0027728
            ],
            [
              116.1290393,
              39.0027895
            ],
            [
              116.12905,
              39.0018974
            ],
            [
              116.1275587,
              39.0018891
            ],
            [
              116.1275694,
              39.0027728
            ]
          ]
        ]
      }
    },
    {
      "type": "Feature",
      "id": "way/1356857885",
      "properties": {
        "osm_id": "1356857885",
        "class": "urban"
      },
      "geometry": {
        "type": "Polygon",
        "coordinates": [
          [
            [
              116.1294363,
              39.0027728
            ],
            [
              116.1307774,
              39.0027728
            ],
            [
              116.1307666,
              39.0021392
            ],
            [
              116.1294363,
              39.0019307
            ],
            [
              116.1294363,
              39.0027728
            ]
          ]
        ]
      }
    },
    {
      "type": "Feature",
      "id": "way/1356857886",
      "properties": {
        "osm_id": "1356857886",
        "class": "urban"
      },
      "geometry": {
        "type": "Polygon",
        "coordinates": [
          [
            [
              116.1254237,
              39.0027061
            ],
            [
              116.126679,
              39.0027061
            ],
            [
              116.1267004,
              39.001864
            ],
            [
              116.1260996,
              39.0019891
            ],
            [
              116.125429,
              39.0021183
            ],
            [
              116.1254237,
              39.0027061
            ]
          ]
        ]
      }
    },
    {
      "type": "Feature",
      "id": "way/1356857888",
      "properties": {
        "osm_id": "1356857888",
        "class": "urban"
      },
      "geometry": {
        "type": "Polygon",
        "coordinates": [
          [
            [
              116.1312065,
              38.9992126
            ],
            [
              116.1344681,
              38.9992126
            ],
            [
              116.1344574,
              38.9971281
            ],
            [
              116.1312172,
              38.9971614
            ],
            [
              116.1312065,
              38.9992126
            ]
          ]
        ]
      }
    }
  ]
}
