{"type":"FeatureCollection","features":[{"type":"Feature","id":"way/1001665944","properties":{"osm_id":"1001665944","class":"water"},"geometry":{"type":"Polygon","coordinates":[[[115.9045757,39.0713816],[115.9052029,39.0716167],[115.9062519,39.0719861],[115.9068358,39.0721372],[115.9075604,39.0720533],[115.9081768,39.0721372],[115.9086093,39.0722548],[115.9092257,39.0725906],[115.9101773,39.0727249],[115.9104585,39.0728173],[115.9107721,39.0730104],[115.9110641,39.0730271],[115.911594,39.0728928],[115.9120174,39.0731038],[115.9125386,39.0733663],[115.9129967,39.0734926],[115.9136319,39.0734275],[115.9142678,39.073755],[115.9151734,39.0737911],[115.9156708,39.0739506],[115.9166225,39.0742445],[115.9176174,39.0742697],[115.9180716,39.0744879],[115.9185474,39.0745047],[115.9191313,39.0747398],[115.9194233,39.0748069],[115.920256,39.0746474],[115.9206669,39.0747062],[115.9213698,39.075],[115.9220835,39.0751847],[115.923046,39.0753107],[115.9240517,39.075319],[115.924441,39.0755877],[115.9250249,39.0757808],[115.9264416,39.0760074],[115.9268633,39.076083],[115.9294803,39.0761502],[115.9312971,39.0761502],[115.9322595,39.0761502],[115.9359579,39.0760494],[115.9370825,39.0759487],[115.9385749,39.076125],[115.9384992,39.0758395],[115.9367041,39.0756968],[115.9353631,39.0758395],[115.9333733,39.0758144],[115.9326396,39.0757478],[115.9319533,39.0759133],[115.9300867,39.075883],[115.9270126,39.075813],[115.9250033,39.0755625],[115.923932,39.0751552],[115.9229162,39.0751092],[115.9213806,39.0747734],[115.9210017,39.0744657],[115.9200382,39.0741971],[115.9190113,39.0743596],[115.9180666,39.0741519],[115.9168789,39.0739195],[115.9157169,39.073802],[115.9150829,39.0735887],[115.9138816,39.073306],[115.9131769,39.0731788],[115.9126909,39.0732304],[115.9123337,39.0729796],[115.9113993,39.0726913],[115.9109019,39.0728676],[115.9103396,39.072515],[115.9096583,39.0725318],[115.9092257,39.0724731],[115.9085661,39.0721037],[115.9077442,39.071877],[115.906652,39.0718602],[115.9062627,39.071793],[115.9052245,39.0713229],[115.9046514,39.0710626],[115.9045757,39.0713816]]]}},{"type":"Feature","id":"way/1349426490","properties":{"osm_id":"1349426490","class":"water"},"geometry":{"type":"Polygon","coordinates":[[[115.9043415,39.0709927],[115.9044053,39.0708573],[115.9042336,39.0707493],[115.9040248,39.0707246],[115.9038516,39.0706896],[115.9037227,39.0707032],[115.9035832,39.0706032],[115.9033592,39.0705655],[115.9031947,39.0705878],[115.9030754,39.0705784],[115.9029343,39.0706018],[115.9028013,39.0705877],[115.9027315,39.0704989],[115.9026472,39.0703804],[115.9026127,39.0701615],[115.9025039,39.0699772],[115.9022526,39.0698891],[115.9021609,39.0698226],[115.9020167,39.0696841],[115.9019918,39.0696303],[115.9021997,39.0694543],[115.9022534,39.0693666],[115.9023575,39.0692189],[115.9025575,39.0691562],[115.9026875,39.0690442],[115.9027552,39.0688756],[115.9028748,39.0688137],[115.9030735,39.0688391],[115.9033222,39.0687424],[115.9033796,39.0685882],[115.9035475,39.0684723],[115.9036192,39.0682966],[115.9037587,39.0682413],[115.9038546,39.0679651],[115.9039904,39.067776],[115.9040677,39.0673816],[115.9040457,39.0670842],[115.9039032,39.0668331],[115.9036473,39.0666516],[115.9035058,39.0664032],[115.9030267,39.06617],[115.9025873,39.0658471],[115.9024525,39.0656822],[115.902287,39.0653608],[115.9022317,39.0651589],[115.902338,39.0649858],[115.9023847,39.0649458],[115.9020383,39.0648289],[115.9020751,39.0651839],[115.902071,39.0654125],[115.9021868,39.0656106],[115.9023199,39.0658432],[115.9025096,39.0660604],[115.9027948,39.0662611],[115.9030742,39.0663346],[115.9033232,39.0665382],[115.9035812,39.0667916],[115.9037573,39.0671136],[115.9038023,39.0675183],[115.9037368,39.0678021],[115.9035908,39.0679838],[115.903483,39.0680757],[115.9035137,39.0681824],[115.9034354,39.0682903],[115.9033754,39.0684274],[115.9032321,39.0685016],[115.9030109,39.0685422],[115.9027124,39.0686801],[115.9024696,39.0687814],[115.902245,39.0688967],[115.9021909,39.0690807],[115.9019922,39.0691528],[115.9018611,39.0691092],[115.9016001,39.0691786],[115.9015113,39.0691694],[115.9014207,39.0692909],[115.9012108,39.0693111],[115.9011621,39.0693883],[115.901341,39.06946],[115.9014333,39.0695635],[115.9015573,39.0696505],[115.9017353,39.0697102],[115.901914,39.069723],[115.9019967,39.0697652],[115.9019874,39.0698419],[115.9020265,39.069906],[115.9021598,39.0700028],[115.9022645,39.0700595],[115.9024707,39.0701992],[115.9024906,39.0703184],[115.9025137,39.0704038],[115.9026384,39.0705596],[115.9028039,39.0706759],[115.9026832,39.0708182],[115.9026935,39.0708771],[115.9028085,39.0708463],[115.9030159,39.0708738],[115.9030637,39.0709968],[115.9031675,39.0711217],[115.9032123,39.0712787],[115.9033336,39.0713338],[115.9034303,39.0713641],[115.9035524,39.0712833],[115.9036782,39.0712392],[115.9037759,39.0710982],[115.9039104,39.0709744],[115.9040319,39.0709516],[115.904142,39.070928],[115.9043415,39.0709927]]]}},{"type":"Feature","id":"way/1349426492","properties":{"osm_id":"1349426492","class":"water"},"geometry":{"type":"Polygon","coordinates":[[[115.9025776,39.0793275],[115.9020225,39.0794424],[115.9014722,39.0795287],[115.900826,39.0795688],[115.9003031,39.0795817],[115.8997724,39.0795411],[115.8993248,39.0794084],[115.8990792,39.0792606],[115.8988078,39.0790992],[115.8986339,39.0790098],[115.8983033,39.0790175],[115.898163,39.0790763],[115.8976973,39.0791411],[115.8973728,39.0791647],[115.897111,39.0792871],[115.8969751,39.0793294],[115.8966725,39.0794939],[115.8964947,39.0795161],[115.8963767,39.0793558],[115.8967734,39.0792124],[115.8970354,39.0791253],[115.8973173,39.0790796],[115.8977077,39.0790084],[115.8978983,39.078972],[115.8979673,39.0787571],[115.8980688,39.0784616],[115.8982318,39.0781171],[115.8985678,39.0778461],[115.8988222,39.0776457],[115.8992667,39.077464],[115.8995675,39.0772427],[115.8997316,39.0770082],[115.8999134,39.0766067],[115.8998497,39.0763905],[115.8996949,39.0760958],[115.8995868,39.0758351],[115.8996709,39.0755886],[115.8998682,39.0753898],[115.8998827,39.0752458],[115.8996629,39.0749604],[115.8997013,39.0747966],[115.899748,39.0746499],[115.8997425,39.0744508],[115.8998297,39.0742986],[115.9000097,39.0742745],[115.9002626,39.0743182],[115.9005788,39.074303],[115.9006485,39.0742769],[115.9007075,39.0743103],[115.900708,39.0744043],[115.9005538,39.0744279],[115.9004018,39.0744339],[115.9002747,39.0744313],[115.9001228,39.0743931],[115.9000109,39.0743816],[115.8999213,39.074417],[115.8998805,39.0744984],[115.8999189,39.0746197],[115.8999594,39.0746878],[115.8999209,39.0748119],[115.8998393,39.0748991],[115.8997963,39.0749468],[115.8998216,39.0750242],[115.8999174,39.0751084],[115.8999859,39.0752203],[115.89998,39.0753384],[115.8999548,39.075467],[115.8998838,39.0755977],[115.8998051,39.0756931],[115.899737,39.0758323],[115.8997264,39.0759062],[115.8997727,39.0760546],[115.8999015,39.0762631],[115.9000019,39.0764992],[115.8999915,39.0767523],[115.8998271,39.0771234],[115.899722,39.0772773],[115.8995715,39.0774181],[115.8994133,39.077527],[115.8992348,39.0776171],[115.8989962,39.0777661],[115.8986518,39.077989],[115.8984299,39.0781275],[115.8982987,39.0783386],[115.8981941,39.0784719],[115.898129,39.0786165],[115.8981155,39.0787144],[115.8981702,39.0788395],[115.8982418,39.0789099],[115.8984111,39.0789139],[115.8985193,39.0788512],[115.8985995,39.0787489],[115.8986382,39.0786742],[115.8986921,39.078444],[115.8987622,39.078324],[115.898931,39.0782155],[115.8991205,39.0781601],[115.8994071,39.0781129],[115.8998018,39.078052],[115.8999821,39.0780299],[115.9000676,39.0779646],[115.9002161,39.0780085],[115.9003845,39.0779992],[115.9005085,39.0779255],[115.9006594,39.0778716],[115.9009441,39.0778322],[115.9012484,39.077833],[115.9015209,39.0778544],[115.9017119,39.0779098],[115.9018949,39.0779355],[115.902142,39.0780153],[115.9024465,39.0780723],[115.9026716,39.0781289],[115.9028601,39.0781947],[115.9029733,39.0782738],[115.9030251,39.0783504],[115.902989,39.0783826],[115.9028577,39.0782758],[115.9026597,39.0781963],[115.9024966,39.078179],[115.9024515,39.0782171],[115.9025339,39.0783204],[115.9026177,39.0784036],[115.9027638,39.0784326],[115.9029601,39.0784528],[115.9029778,39.0785167],[115.9030507,39.0785942],[115.9031658,39.0786066],[115.9032134,39.078703],[115.903331,39.0787601],[115.9035291,39.078809],[115.9036592,39.0788023],[115.9037391,39.0787337],[115.9037188,39.0785994],[115.903628,39.078398],[115.9034947,39.0782126],[115.9033425,39.07804],[115.9031729,39.0779044],[115.9029838,39.0777941],[115.9027568,39.077683],[115.9025541,39.0776134],[115.9023978,39.0775375],[115.9022799,39.0774431],[115.9021534,39.077325],[115.9020158,39.077082],[115.9019267,39.0768475],[115.9018587,39.0766721],[115.9018829,39.0765392],[115.9019574,39.0763496],[115.9020075,39.0761579],[115.9020275,39.0759749],[115.9020295,39.0758357],[115.90198,39.0756441],[115.9018783,39.0754515],[115.9018763,39.0753528],[115.901956,39.0753484],[115.9020347,39.0755126],[115.9021179,39.0756418],[115.902195,39.0757634],[115.9022246,39.0759791],[115.9021864,39.0760897],[115.9020601,39.0764169],[115.9020122,39.0766826],[115.9021111,39.0768814],[115.9021805,39.0770734],[115.9022668,39.0771757],[115.9025623,39.0774894],[115.9027604,39.0775606],[115.9030053,39.0776947],[115.90317,39.0777983],[115.9033373,39.077915],[115.9035328,39.0780885],[115.9036763,39.07823],[115.9037401,39.0783635],[115.9038376,39.0784493],[115.9039343,39.0785778],[115.9040592,39.0787331],[115.9041472,39.0788675],[115.9041724,39.0789032],[115.9044427,39.0788786],[115.9048157,39.078927],[115.9050755,39.0790016],[115.9055175,39.0791135],[115.9059124,39.0792405],[115.9060387,39.0792771],[115.9064405,39.079482],[115.9068454,39.079774],[115.9073135,39.0802281],[115.9075965,39.0806126],[115.9077717,39.0808813],[115.9079353,39.0811722],[115.9080625,39.081562],[115.9082778,39.0820387],[115.908578,39.0823815],[115.9089437,39.0826341],[115.9097844,39.082728],[115.9101183,39.0831281],[115.9102056,39.0836116],[115.910139,39.0841201],[115.9101994,39.0844523],[115.9107003,39.0848328],[115.9111823,39.0849911],[115.9117689,39.0849145],[115.912275,39.0847566],[115.9127074,39.0846011],[115.9127099,39.0846952],[115.9124162,39.0848036],[115.9120693,39.084951],[115.9116372,39.085063],[115.9112703,39.0851174],[115.9107394,39.0851554],[115.910359,39.0852019],[115.9100598,39.0852435],[115.90968,39.085388],[115.9093648,39.0855548],[115.9091004,39.0857142],[115.9086613,39.0859262],[115.9082415,39.0861261],[115.9081479,39.0864118],[115.9082022,39.0867921],[115.9080964,39.0868128],[115.9080374,39.0864888],[115.9078564,39.0862137],[115.9074759,39.0858767],[115.9072501,39.0856941],[115.9070457,39.0855137],[115.9067422,39.0852278],[115.9065552,39.0850427],[115.9064042,39.0848168],[115.9062452,39.0844519],[115.906184,39.0841581],[115.9062056,39.0838363],[115.9063136,39.0835813],[115.9064136,39.0833069],[115.9066786,39.083021],[115.9069402,39.0827787],[115.9071545,39.082551],[115.9073626,39.0822963],[115.9075114,39.0819777],[115.9075934,39.0817272],[115.9076315,39.081434],[115.9076208,39.0811196],[115.9075185,39.080858],[115.9073708,39.0805755],[115.9071916,39.0803408],[115.906938,39.0800761],[115.9066245,39.0798281],[115.9062423,39.0795652],[115.9059933,39.0794153],[115.9054455,39.079209],[115.9048811,39.0790484],[115.904345,39.0789877],[115.9039177,39.0789947],[115.9034367,39.0789355],[115.9031923,39.0790307],[115.9028762,39.0791844],[115.9026346,39.0792652],[115.9025776,39.0793275]]]}}],"metadata":{"source":"OpenStreetMap closed ways","bounds":[115.89646933029056,39.06707620258456,115.91273024403898,39.07970018815715],"kind":"water","featureCount":3,"intersectionId":"demo_13","radiusMeters":700,"fallback":"Baidu vector base map"}}
