{"type":"FeatureCollection","features":[{"type":"Feature","id":"way/490742931","properties":{"osm_id":"490742931","class":"water"},"geometry":{"type":"Polygon","coordinates":[[[116.0903245,38.9848285],[116.0905284,38.9875221],[116.0915208,38.9874721],[116.0918748,38.987568],[116.0931033,38.9874346],[116.0927224,38.9847201],[116.0926527,38.984424],[116.0921591,38.9843448],[116.0910433,38.9843406],[116.0910436,38.9843843],[116.0910248,38.9844255],[116.0909892,38.9844594],[116.090941,38.9844819],[116.0908859,38.9844905],[116.0908302,38.9844841],[116.0907806,38.9844635],[116.0907429,38.9844311],[116.0907215,38.9843906],[116.0906088,38.9843906],[116.0905391,38.9844782],[116.0905552,38.9846742],[116.0904586,38.9847659],[116.0903245,38.9848285]]]}}],"metadata":{"source":"OpenStreetMap closed ways","bounds":[116.09140167412971,38.97770943445167,116.10764204136967,38.99033342002426],"kind":"water","featureCount":1,"intersectionId":"demo_9","radiusMeters":700,"fallback":"Baidu vector base map"}}
