{"type":"FeatureCollection","features":[{"type":"Feature","id":"way/1001688829","properties":{"osm_id":"1001688829","class":"green"},"geometry":{"type":"Polygon","coordinates":[[[115.9225785,39.0627686],[115.9239307,39.0627475],[115.923977,39.0648111],[115.926276,39.0648088],[115.9262795,39.0628052],[115.9263852,39.0628198],[115.9263783,39.0624992],[115.9263767,39.0624688],[115.9263446,39.0621687],[115.9263446,39.0620385],[115.9263395,39.0620027],[115.9263303,39.0619856],[115.9263076,39.0619678],[115.9262859,39.0619572],[115.9262588,39.061949],[115.9262332,39.0619431],[115.9261974,39.06194],[115.9258311,39.061937],[115.9258066,39.060203],[115.9258555,39.0595675],[115.9261161,39.058607],[115.9263381,39.0586183],[115.9269426,39.0578336],[115.9277762,39.0578372],[115.9283751,39.0577853],[115.9288035,39.057837],[115.9300572,39.0578402],[115.9314525,39.0580982],[115.9332963,39.058111],[115.9334532,39.0580826],[115.9335249,39.058064],[115.9337739,39.0580207],[115.9357916,39.0578046],[115.9386695,39.0575688],[115.9412041,39.0575753],[115.9451929,39.0565682],[115.9477397,39.0559251],[115.9494688,39.0557913],[115.9494116,39.0547035],[115.949062,39.0546085],[115.9434982,39.0561299],[115.9412755,39.0561567],[115.9356582,39.0561141],[115.9311173,39.0550372],[115.9294208,39.0546286],[115.9285808,39.0545687],[115.9285156,39.0547811],[115.9278499,39.0547714],[115.9276843,39.0542959],[115.9266156,39.0543231],[115.9263949,39.0543526],[115.9262206,39.0533529],[115.9260069,39.0528712],[115.925907,39.0527821],[115.9231334,39.0527604],[115.9201021,39.0595314],[115.9217371,39.0601344],[115.9226227,39.0615626],[115.9225785,39.0627686]]]}},{"type":"Feature","id":"way/1198948435","properties":{"osm_id":"1198948435","class":"green"},"geometry":{"type":"Polygon","coordinates":[[[115.9199412,39.0507987],[115.920705,39.0507964],[115.9207035,39.0504963],[115.9202097,39.0504977],[115.9202106,39.050695],[115.9199407,39.0506957],[115.9199412,39.0507987]]]}},{"type":"Feature","id":"way/1287611629","properties":{"osm_id":"1287611629","class":"green"},"geometry":{"type":"Polygon","coordinates":[[[116.0066313,39.0473408],[116.0067451,39.0426299],[115.9920054,39.0425541],[115.9899564,39.0422889],[115.987696,39.0417584],[115.9847363,39.0412532],[115.9749792,39.0411142],[115.9703033,39.0411648],[115.9676201,39.0416321],[115.9648718,39.0422762],[115.9620748,39.0423899],[115.9548922,39.0413795],[115.9517861,39.0413668],[115.9468588,39.0422131],[115.9079591,39.0420615],[115.903871,39.0417051],[115.9003949,39.0411552],[115.8959875,39.0398552],[115.8896789,39.0373052],[115.8874903,39.0411052],[115.8997652,39.0435217],[115.9047219,39.0444716],[115.9113094,39.0452549],[115.9194848,39.0457382],[115.9363149,39.0447216],[115.9487617,39.0448716],[115.9545553,39.0450216],[115.9600699,39.0462048],[115.9658504,39.0475713],[115.9726525,39.0483045],[115.9840111,39.0484712],[115.9930877,39.0481379],[116.0010407,39.0476879],[116.0066313,39.0473408]]]}}],"metadata":{"source":"OpenStreetMap closed ways","bounds":[115.91326295335485,39.0435147593973,115.92951844115619,39.056138744969886],"kind":"green","featureCount":3,"intersectionId":"demo_15","radiusMeters":700,"fallback":"Baidu vector base map"}}
