{"type":"FeatureCollection","features":[{"type":"Feature","id":"way/1154819228","properties":{"osm_id":"1154819228","class":"water"},"geometry":{"type":"Polygon","coordinates":[[[115.9244288,39.0647148],[115.9243952,39.0643822],[115.9244115,39.0642627],[115.9245027,39.0641531],[115.9246636,39.063967],[115.9247884,39.0637872],[115.9248287,39.0635675],[115.9247144,39.0633683],[115.9246037,39.0631924],[115.9245195,39.0631126],[115.9244565,39.0630296],[115.9244281,39.0628858],[115.9244857,39.0627482],[115.9244638,39.0626344],[115.9243065,39.0625213],[115.9241607,39.0623986],[115.9240916,39.0622873],[115.9239571,39.0620602],[115.9238732,39.0619497],[115.9237708,39.0618213],[115.9236399,39.0616395],[115.923605,39.0614121],[115.92368,39.0613306],[115.9237901,39.0612612],[115.9239819,39.0610658],[115.9240423,39.0609182],[115.9239983,39.0607396],[115.9238338,39.0605303],[115.9236552,39.0603714],[115.9234581,39.0603202],[115.9232491,39.0603112],[115.9231308,39.0602339],[115.9230242,39.0601193],[115.9229741,39.0600343],[115.9227722,39.05992],[115.9225179,39.0598989],[115.9223948,39.0598301],[115.9222573,39.0597212],[115.9219758,39.0597016],[115.9218171,39.0596757],[115.9216178,39.0596393],[115.9215051,39.0595869],[115.921347,39.0595881],[115.9210959,39.0595167],[115.920892,39.0594507],[115.9206631,39.0594197],[115.9204313,39.0593801],[115.9202846,39.0593431],[115.9201339,39.0592779],[115.9200042,39.0591322],[115.9197617,39.0590016],[115.9195852,39.059003],[115.9194388,39.0590121],[115.919226,39.0589654],[115.9189273,39.0588386],[115.9186296,39.0587148],[115.9185168,39.0586529],[115.9177652,39.0584078],[115.9175761,39.0584815],[115.916949,39.0582943],[115.9169228,39.0582464],[115.9167361,39.0581951],[115.9167305,39.0581536],[115.9165488,39.0580886],[115.9165153,39.0581433],[115.916415,39.0581035],[115.9163837,39.0580466],[115.9159501,39.0579098],[115.9158183,39.0579546],[115.915418,39.0578252],[115.915418,39.0577498],[115.9148106,39.0575659],[115.9148106,39.0575304],[115.914558,39.0574554],[115.9144701,39.0574855],[115.9138056,39.0572612],[115.9137592,39.0572806],[115.9136289,39.057234],[115.9134597,39.0571413],[115.9133596,39.0571089],[115.9132682,39.0570376],[115.9130813,39.0570048],[115.9127815,39.0569188],[115.9125978,39.0569265],[115.9124774,39.0569191],[115.9123186,39.0568479],[115.91219,39.0568047],[115.9121172,39.0567628],[115.912058,39.0567398],[115.9120297,39.0566728],[115.9122354,39.0563459],[115.9123405,39.0563407],[115.9126343,39.0564671],[115.9128872,39.0565138],[115.9130736,39.0565816],[115.9132398,39.0566052],[115.9134097,39.0565512],[115.9135219,39.0564505],[115.9135509,39.056402],[115.9138414,39.0564921],[115.913791,39.0565873],[115.913758,39.0566536],[115.9137606,39.0567973],[115.9138118,39.0569323],[115.9141001,39.0570241],[115.9141609,39.0570298],[115.9145604,39.0571563],[115.9146805,39.0571563],[115.9147935,39.0571441],[115.9151962,39.0572622],[115.9156333,39.0574225],[115.9158638,39.0575284],[115.9161901,39.0576896],[115.9164714,39.0577617],[115.9166075,39.0577961],[115.9167838,39.0578415],[115.9168831,39.0579255],[115.9170394,39.0578937],[115.9172642,39.0579761],[115.9174317,39.058014],[115.9175199,39.058014],[115.9176079,39.0580678],[115.9177423,39.0581193],[115.9184244,39.05836],[115.9186606,39.0583669],[115.9188127,39.0583812],[115.9192461,39.0584923],[115.9196511,39.05869],[115.9197984,39.0587958],[115.9200993,39.0589049],[115.920484,39.0589161],[115.920772,39.0588933],[115.9209356,39.0589269],[115.9210933,39.0590756],[115.9212236,39.0592211],[115.9214358,39.0594006],[115.9216389,39.0594508],[115.9219153,39.0594066],[115.9222607,39.0592917],[115.922368,39.0591599],[115.922488,39.0591083],[115.9226207,39.0589399],[115.9225889,39.0588396],[115.9226457,39.0586782],[115.9227553,39.0585988],[115.9228171,39.058384],[115.922694,39.0582698],[115.9224756,39.0582419],[115.9223505,39.0581165],[115.9223373,39.0579965],[115.9223843,39.0578655],[115.9226292,39.0576698],[115.9228492,39.0575436],[115.9229227,39.0574186],[115.9229631,39.0572104],[115.9229023,39.0570799],[115.9228076,39.0570941],[115.9227648,39.0572039],[115.9226918,39.0571995],[115.922615,39.0570929],[115.9225683,39.0569439],[115.9224074,39.0567582],[115.9222933,39.0565109],[115.9222933,39.0563031],[115.9223225,39.0561516],[115.9223899,39.056038],[115.9225016,39.0559521],[115.922697,39.0559034],[115.9228308,39.0558972],[115.9229205,39.0558479],[115.922929,39.0556513],[115.9230321,39.0555247],[115.923161,39.0555232],[115.9232626,39.0555858],[115.9232794,39.0556858],[115.9232643,39.0557569],[115.9232412,39.0558327],[115.9232546,39.0559073],[115.9233356,39.0559212],[115.9234555,39.0558319],[115.9235497,39.0556813],[115.923697,39.0556537],[115.9238594,39.0556484],[115.923876,39.055536],[115.9238051,39.0554405],[115.9238039,39.0552671],[115.9239945,39.0550836],[115.924356,39.0549772],[115.9246966,39.0549713],[115.9249313,39.0550424],[115.9251972,39.0551715],[115.9252564,39.0553229],[115.9252521,39.0554757],[115.9251246,39.0556106],[115.925029,39.0556951],[115.9250395,39.0557944],[115.9251604,39.0557716],[115.9253513,39.0557064],[115.9257027,39.0555883],[115.9258821,39.0555998],[115.926035,39.0557016],[115.9261064,39.0559224],[115.9262451,39.0560767],[115.9264239,39.0561436],[115.9266476,39.0561843],[115.9267781,39.0563224],[115.9269774,39.0563655],[115.9270873,39.0563453],[115.9274285,39.0564013],[115.9276506,39.0563744],[115.9279433,39.0562712],[115.9283063,39.0562712],[115.9288058,39.0560862],[115.928935,39.0560924],[115.9289512,39.0561306],[115.928966,39.0561656],[115.9289391,39.0562123],[115.9289838,39.0563247],[115.9290394,39.0563549],[115.9290112,39.0563651],[115.9289692,39.0563802],[115.9288112,39.0564351],[115.928704,39.0563943],[115.9285498,39.0564228],[115.9283707,39.0565185],[115.9283158,39.0565735],[115.9283433,39.0566542],[115.9284102,39.0566827],[115.92835,39.0568469],[115.9282717,39.0569374],[115.9280901,39.0569933],[115.9279759,39.0570083],[115.9278786,39.0570155],[115.9276505,39.0570561],[115.9275567,39.0570529],[115.9274674,39.0569953],[115.9272675,39.056952],[115.927147,39.056933],[115.9270337,39.0568945],[115.9268775,39.0568893],[115.9267229,39.0567943],[115.9266403,39.056736],[115.9263783,39.056703],[115.92605,39.0567094],[115.9259572,39.0567398],[115.9259627,39.0568525],[115.9259936,39.0569175],[115.9258925,39.0570138],[115.9257507,39.0569895],[115.9255068,39.056952],[115.9253997,39.0569986],[115.925324,39.0571254],[115.9252933,39.0572506],[115.9253787,39.0573144],[115.9256151,39.0574289],[115.9257779,39.0574365],[115.9258995,39.0573745],[115.9259728,39.0573018],[115.9260538,39.0573881],[115.9260704,39.0574596],[115.9260179,39.0575902],[115.9257897,39.0577658],[115.9254474,39.0578751],[115.9252606,39.0578692],[115.9250337,39.0578464],[115.9248061,39.057707],[115.9247998,39.0576421],[115.9245165,39.057599],[115.9243485,39.057621],[115.9241927,39.0576547],[115.9242211,39.0577371],[115.924005,39.0578164],[115.9239232,39.0578399],[115.9238145,39.0578711],[115.9236326,39.0578976],[115.9234743,39.0578799],[115.9232928,39.0578799],[115.9232171,39.0579024],[115.9231248,39.057983],[115.9230677,39.0580886],[115.9230956,39.0582219],[115.9231945,39.0583161],[115.9232126,39.0583908],[115.9232173,39.0585228],[115.9232297,39.0586548],[115.9231556,39.0587744],[115.9230433,39.0588917],[115.922995,39.0589786],[115.9229893,39.0591205],[115.9230077,39.0592795],[115.923058,39.0593564],[115.9231009,39.0593848],[115.9231686,39.0593523],[115.9231991,39.0592364],[115.9232244,39.0592132],[115.9232462,39.0592412],[115.9232368,39.0593493],[115.923226,39.0594513],[115.9232474,39.0595514],[115.9233152,39.0596534],[115.923452,39.059715],[115.9238017,39.0598349],[115.9239607,39.0598403],[115.9241848,39.0597798],[115.9243167,39.0597271],[115.9245014,39.0596905],[115.9246459,39.0596789],[115.9248217,39.0596944],[115.9249362,39.0597703],[115.9250294,39.0598447],[115.9250562,39.0600081],[115.9250369,39.0601785],[115.9249174,39.0602564],[115.9247775,39.0602931],[115.9245282,39.0602832],[115.9242735,39.0603088],[115.9241702,39.0603413],[115.9241194,39.060433],[115.9241412,39.060525],[115.9242657,39.0606587],[115.924391,39.0607627],[115.9244591,39.0608691],[115.9245266,39.0609921],[115.9245388,39.0610575],[115.9245265,39.0611945],[115.9244637,39.061406],[115.9243799,39.061583],[115.9243019,39.0618369],[115.9243337,39.0620851],[115.9244542,39.062276],[115.924632,39.0624029],[115.9247287,39.0624751],[115.9248244,39.0626043],[115.9248919,39.0627298],[115.9249427,39.0628849],[115.9249427,39.0630054],[115.9248864,39.0631084],[115.9248983,39.063187],[115.9249779,39.0632506],[115.9250465,39.0632943],[115.9250961,39.0633738],[115.9251055,39.0636459],[115.9250681,39.0638225],[115.9250953,39.0639722],[115.9251069,39.0641196],[115.9250264,39.0643108],[115.9247499,39.0644648],[115.9245797,39.0646167],[115.9245102,39.0647359],[115.9244288,39.0647148]]]}},{"type":"Feature","id":"way/1198948463","properties":{"osm_id":"1198948463","class":"water"},"geometry":{"type":"Polygon","coordinates":[[[115.9085553,39.0457719],[115.9085234,39.0458873],[115.9126431,39.046503],[115.915209,39.0467889],[115.9173502,39.0469703],[115.9174033,39.0470115],[115.9173821,39.047094],[115.9175767,39.0471242],[115.9175838,39.0470555],[115.9176687,39.0470253],[115.9210664,39.0470802],[115.9276882,39.0470033],[115.9290579,39.0469455],[115.9290685,39.0466459],[115.9263787,39.0467916],[115.9230341,39.0467944],[115.9205956,39.0467834],[115.9159097,39.0465635],[115.9125475,39.0462144],[115.9125227,39.0462584],[115.912452,39.0462831],[115.9085553,39.0457719]]]}},{"type":"Feature","id":"way/1415503580","properties":{"osm_id":"1415503580","class":"water"},"geometry":{"type":"Polygon","coordinates":[[[115.9288058,39.0560862],[115.9291044,39.0560266],[115.9294513,39.0559516],[115.9296569,39.0558628],[115.9298677,39.0557103],[115.9300782,39.0557514],[115.9300593,39.0559336],[115.9299144,39.0559141],[115.9297768,39.0559572],[115.929707,39.0560155],[115.929614,39.0560835],[115.9295032,39.056153],[115.9293834,39.0562057],[115.9291366,39.0561127],[115.9290597,39.056103],[115.9289512,39.0561306],[115.928935,39.0560924],[115.9288058,39.0560862]]]}}],"metadata":{"source":"OpenStreetMap closed ways","bounds":[115.91326295335485,39.0435147593973,115.92951844115619,39.056138744969886],"kind":"water","featureCount":3,"intersectionId":"demo_15","radiusMeters":700,"fallback":"Baidu vector base map"}}
