{"type":"FeatureCollection","features":[{"type":"Feature","id":"way/917242901","properties":{"osm_id":"917242901","class":"green"},"geometry":{"type":"Polygon","coordinates":[[[115.9042611,39.0698524],[115.9043451,39.0706788],[115.9044516,39.071726],[115.8986218,39.0706349],[115.8984872,39.0703222],[115.8984661,39.0700626],[115.8977365,39.0688465],[115.8977365,39.0636152],[115.9042666,39.0656753],[115.904343,39.0675883],[115.9048176,39.0682134],[115.9042611,39.0698524]]]}},{"type":"Feature","id":"way/988787501","properties":{"osm_id":"988787501","class":"green"},"geometry":{"type":"Polygon","coordinates":[[[115.9488762,39.1003531],[115.9485208,39.0975882],[115.9485099,39.0969048],[115.9485099,39.0962214],[115.9485208,39.0955379],[115.9485438,39.0948207],[115.9485788,39.0941038],[115.9486258,39.0933873],[115.949878,39.0813162],[115.9476806,39.0801748],[115.9473774,39.0800891],[115.9470715,39.0800093],[115.9467632,39.0799354],[115.9464526,39.0798675],[115.9460686,39.0797925],[115.9456819,39.0797267],[115.9452927,39.0796702],[115.9449014,39.0796229],[115.9267886,39.0776788],[115.92613,39.0775889],[115.9254729,39.0774927],[115.9248174,39.0773903],[115.924205,39.0772887],[115.9235942,39.0771817],[115.922985,39.0770692],[115.9223775,39.0769513],[115.9113014,39.074706],[115.9058845,39.073599],[115.9056547,39.0735625],[115.905423,39.0735345],[115.9051898,39.073515],[115.9049557,39.0735041],[115.9047212,39.0735018],[115.9044978,39.0735076],[115.904275,39.0735212],[115.9040531,39.0735426],[115.9038328,39.0735717],[115.9036144,39.0736084],[115.9012513,39.0741541],[115.9010539,39.0741791],[115.9008554,39.074198],[115.9006554,39.0742106],[115.9004549,39.0742169],[115.9002542,39.0742169],[115.9000537,39.0742106],[115.8998536,39.074198],[115.8984075,39.0740286],[115.8855621,39.0715951],[115.8851089,39.0715188],[115.8846537,39.0714498],[115.8841968,39.0713881],[115.8837502,39.0713352],[115.8833022,39.0712893],[115.8828532,39.0712505],[115.8824033,39.0712188],[115.8716915,39.0706513],[115.8716542,39.0891345],[115.8714628,39.0891134],[115.8712685,39.0891265],[115.8711719,39.0919494],[115.8709359,39.0945308],[115.8762876,39.0948169],[115.8812076,39.0954],[115.8825568,39.0955317],[115.8832354,39.0955442],[115.8833404,39.0984221],[115.8899328,39.1018202],[115.8916778,39.1004158],[115.8919283,39.1002842],[115.8921868,39.1001964],[115.8924615,39.1001462],[115.8927442,39.1001337],[115.893027,39.10014],[115.8933098,39.1001588],[115.8941823,39.1002465],[115.8947478,39.1002842],[115.8950386,39.1002842],[115.8953295,39.1002716],[115.8959112,39.1002027],[115.8961858,39.1001525],[115.898149,39.099908],[115.8987226,39.0998077],[115.8993043,39.0997011],[115.899579,39.0996572],[115.9001445,39.099607],[115.9004353,39.0996008],[115.9007181,39.0996008],[115.9010008,39.0996133],[115.9012836,39.0996321],[115.9024308,39.0996321],[115.9027136,39.099607],[115.9029802,39.0995443],[115.9032468,39.0994691],[115.9040385,39.0992246],[115.9043132,39.0991744],[115.9074397,39.0986541],[115.9077709,39.0986227],[115.9080618,39.0986164],[115.9083445,39.0986164],[115.9086273,39.0986352],[115.9092009,39.0986478],[115.9094756,39.0986102],[115.9097503,39.0985663],[115.9100169,39.098491],[115.9102915,39.0984283],[115.9105743,39.0984033],[115.9108651,39.0984033],[115.9111479,39.0984346],[115.9117054,39.09856],[115.9119881,39.0986039],[115.9225391,39.0984472],[115.9235247,39.0984848],[115.9237994,39.0985475],[115.9240741,39.0986227],[115.9243326,39.098723],[115.92632,39.0998829],[115.9265705,39.100002],[115.9302383,39.1016634],[115.9304968,39.101745],[115.934714,39.1027857],[115.9380667,39.1034377],[115.9400541,39.1039768],[115.9412498,39.1041649],[115.9423243,39.1041461],[115.9425366,39.1041034],[115.9427459,39.1040524],[115.9429516,39.1039933],[115.9431533,39.1039263],[115.9433503,39.1038514],[115.9435292,39.1037749],[115.9437033,39.103692],[115.9438722,39.1036028],[115.9440355,39.1035075],[115.9441929,39.1034064],[115.944344,39.1032998],[115.9465818,39.101444],[115.9475352,39.1008798],[115.9488762,39.1003531]]]}},{"type":"Feature","id":"way/1001688832","properties":{"osm_id":"1001688832","class":"green"},"geometry":{"type":"Polygon","coordinates":[[[115.9046779,39.0552651],[115.8973825,39.0552614],[115.8946275,39.0555233],[115.8946274,39.0572662],[115.8866923,39.0571865],[115.8866971,39.059335],[115.8917393,39.0593156],[115.8938079,39.0597868],[115.8938378,39.060122],[115.8961209,39.0606685],[115.8960676,39.0624215],[115.9024132,39.064522],[115.9024353,39.0642878],[115.9022616,39.0640324],[115.9019974,39.0638047],[115.9017438,39.0634673],[115.9011644,39.0631758],[115.9009311,39.0628717],[115.9008935,39.0624781],[115.9006414,39.0621199],[115.900239,39.0618137],[115.8999852,39.0614381],[115.8999896,39.060862],[115.9004161,39.0603246],[115.900467,39.0598831],[115.9003597,39.0594124],[115.8999594,39.0589374],[115.8996785,39.0582752],[115.8995926,39.0579128],[115.8996248,39.0575004],[115.8997107,39.0571589],[115.8997375,39.0569277],[115.8998018,39.0566777],[115.8999011,39.0565549],[115.900172,39.0564299],[115.9004697,39.0562279],[115.9007111,39.0561341],[115.9010062,39.056157],[115.9012422,39.0560987],[115.9016164,39.0559894],[115.9021193,39.0559946],[115.9025618,39.0560633],[115.9031634,39.0560019],[115.9037232,39.0558738],[115.9041551,39.0557092],[115.9045944,39.055511],[115.9046701,39.0553906],[115.9046779,39.0552651]]]}},{"type":"Feature","id":"way/1001688834","properties":{"osm_id":"1001688834","class":"green"},"geometry":{"type":"Polygon","coordinates":[[[115.9044516,39.071726],[115.9043451,39.0706788],[115.9160652,39.0735949],[115.9213268,39.0741182],[115.9212082,39.074406],[115.9239741,39.0749983],[115.9238654,39.0743579],[115.9245059,39.0749198],[115.9271423,39.0756761],[115.9319136,39.0756981],[115.9321179,39.0749154],[115.9336575,39.0750106],[115.9341566,39.0745199],[115.9343115,39.0740692],[115.9380856,39.075127],[115.9389576,39.0752856],[115.9386169,39.0762376],[115.9333714,39.0763751],[115.9275673,39.0762164],[115.9186703,39.0750529],[115.9088604,39.0728423],[115.9044516,39.071726]]]}},{"type":"Feature","id":"way/1154819240","properties":{"osm_id":"1154819240","class":"green"},"geometry":{"type":"Polygon","coordinates":[[[115.898537,39.0735661],[115.8986187,39.0711494],[115.9022653,39.0718431],[115.9071228,39.0728184],[115.9119989,39.0740544],[115.9142095,39.0745668],[115.9175676,39.0752784],[115.9203103,39.0757769],[115.9228695,39.076146],[115.926722,39.0764406],[115.9268486,39.0771472],[115.9250202,39.0769427],[115.9241051,39.0768406],[115.9126332,39.0745753],[115.9064424,39.0732455],[115.9051474,39.0730278],[115.9040097,39.0730671],[115.9024721,39.0734234],[115.9017917,39.0736249],[115.9009266,39.0737408],[115.8999398,39.0737733],[115.898537,39.0735661]]]}},{"type":"Feature","id":"way/1458279884","properties":{"osm_id":"1458279884","class":"green"},"geometry":{"type":"Polygon","coordinates":[[[115.9055211,39.0617397],[115.9061401,39.0617371],[115.9061762,39.0617274],[115.9061877,39.0617129],[115.9062006,39.06169],[115.9061992,39.0613108],[115.9061916,39.0612933],[115.9061624,39.061273],[115.906121,39.0612674],[115.9055253,39.0612691],[115.9055029,39.0612798],[115.9054883,39.0612966],[115.9054831,39.0613176],[115.9054841,39.0616871],[115.9054845,39.0617049],[115.9054938,39.0617201],[115.9055211,39.0617397]]]}}],"metadata":{"source":"OpenStreetMap closed ways","bounds":[115.89878906191349,39.05991823150228,115.91504832658431,39.07254221707487],"kind":"green","featureCount":6,"intersectionId":"demo_20","radiusMeters":700,"fallback":"Baidu vector base map"}}
