{"type":"FeatureCollection","features":[{"type":"Feature","id":"way/1003924502","properties":{"osm_id":"1003924502","class":"green"},"geometry":{"type":"Polygon","coordinates":[[[116.0817319,38.9835024],[116.0815367,38.9833128],[116.0812928,38.9828703],[116.0811952,38.9823141],[116.081179,38.9813408],[116.0808862,38.9813281],[116.0809513,38.9802157],[116.0810326,38.9795078],[116.0809188,38.9790653],[116.0805285,38.9791159],[116.0804797,38.978863],[116.0809676,38.9788378],[116.0809025,38.9780793],[116.0805773,38.9768151],[116.0803984,38.9756646],[116.0804634,38.974944],[116.0811952,38.9746406],[116.0822035,38.9741349],[116.0842687,38.9736545],[116.0859599,38.9732373],[116.087456,38.9728327],[116.0883179,38.9727569],[116.0890009,38.9729212],[116.0899441,38.9731109],[116.0903181,38.9732626],[116.090432,38.9736292],[116.0904482,38.974274],[116.0891148,38.9745268],[116.0877162,38.9747923],[116.0867405,38.9753992],[116.0865454,38.9759807],[116.0857973,38.9758669],[116.0849029,38.9758922],[116.0844313,38.9757405],[116.0842037,38.9758037],[116.084041,38.9762841],[116.0834719,38.9767139],[116.0832117,38.9774472],[116.0829515,38.9781298],[116.0827238,38.9792929],[116.0827726,38.9801272],[116.082984,38.9809362],[116.0833906,38.9833886],[116.0817319,38.9835024]]]}}],"metadata":{"source":"OpenStreetMap closed ways","bounds":[116.08199422378497,38.977367337423274,116.0982345125483,38.98999132299586],"kind":"green","featureCount":1,"intersectionId":"demo_6","radiusMeters":700,"fallback":"Baidu vector base map"}}
